sort,name,nameKana,type,useCost,label,blockNo,zipCode,address,tel,description,url,instaURL,imageURL,imageURL2,lng,lat,
number,string,string,string,number,string,number,string,string,string,string,string,string,string,string,number,number,
ソート番号,クーポン名,クーポン名(表示用),業種,クーポンの割引金額,クーポン名(表示用),ブロックNO,郵便番号,店舗住所,電話番号,店舗説明,店舗URL,インスタグラムのアカウント,クーポン画像,クーポン画像の2つ目,緯度,経度,
1, MASUYA,マスヤ,小売業,1000,"2,000円以上会計で1,000円引き",1,425-0022,静岡県焼津市本町2丁目11番5号,054-629-2000,10:00~19:00  毎週水曜及び第２第３火曜日定休,,,https://firebasestorage.googleapis.com/v0/b/the-coupon.appspot.com/o/coupon%2Fimage%2FgmsHdw0A2EsJoAwc9J6v%2Fw1hl8rnv?alt=media&token=65b2724c-5755-4bc9-be53-ab0e820af950,,138.3201543,34.8701502,
2,えるふぁんｂｙますや,エルファンバイマスヤ,小売業,1000,"2,000円以上会計で1,000円引き",1,425-0027,静岡県焼津市栄町3丁目3-37,054-629-3937,10:00~19:00,,,https://firebasestorage.googleapis.com/v0/b/the-coupon.appspot.com/o/coupon%2Fimage%2FfhmU4woIZSbiizWBXBWQ%2F02_shop.svg?alt=media&token=2b44240e-338b-4fa7-8ee5-8c11a404b9db,,138.316461,34.873495,
4,株式会社はの字食品,ハノジショクヒン,小売業,500,"1,000円以上会計で500円引き",1,425-0087,静岡県焼津市保福島353番地の1,054-628-2545,営業時間10：00-16：00　休業日：水曜・日曜・祝日その他会社規定の休業日,https://www.hanoji.net/,https://www.instagram.com/hanoji_gram/,https://firebasestorage.googleapis.com/v0/b/the-coupon.appspot.com/o/coupon%2Fimage%2FgmsHdw0A2EsJoAwc9J6v%2Flohfa0sb?alt=media&token=faee0f39-0f14-46c7-81d2-4c584a9438dc,,138.3106254,34.8541529,
6,寿司実,スシミ,飲食業,1000,"2,000円以上会計で1,000円引き",1,425-0064,静岡県焼津市三和1167番地の2,054-624-3030,,https://sushimi.jp/,,https://firebasestorage.googleapis.com/v0/b/the-coupon.appspot.com/o/coupon%2Fimage%2FgmsHdw0A2EsJoAwc9J6v%2Fmbmkkjzr?alt=media&token=e9bc7f9e-e767-4523-bb0e-96f135f94e1c,,138.306642,34.868124,
8,長峰製茶 花カフェ,ナガミネセイチャ　ハナカフェ,小売業,1000,"2,000円以上会計で1,000円引き",1,425-0064,静岡県焼津市三和60,054-625-1251,"ランチタイム９時３０分から１５時まで　
ドリンクタイムは１７時まで
それ以外は１８時まで
　",,https://www.instagram.com/nagamineseicha.miwa/,https://firebasestorage.googleapis.com/v0/b/the-coupon.appspot.com/o/coupon%2Fimage%2FgmsHdw0A2EsJoAwc9J6v%2F0vd73vwu?alt=media&token=4e482586-ba40-487a-a5dd-0654f7a609bd,,138.3120256,34.8563943,
9,和ダイニングおはな,ワダイニングオハナ,飲食業,1000,"2,000円以上会計で1,000円引き",1,425-0035,静岡県焼津市東小川5-16-1,054-631-4354,,,https://www.instagram.com/wadining.ohana/,https://firebasestorage.googleapis.com/v0/b/the-coupon.appspot.com/o/coupon%2Fimage%2FfhmU4woIZSbiizWBXBWQ%2F01_%20restaurant.svg?alt=media&token=97cefc85-0619-4b73-9c72-d208d29c233a,,138.2894815,34.7912161,
10,株式会社あまる齋藤商店,アマルサイトウショウテン,小売業,500,"1,000円以上会計で500円引き",1,421-0212,静岡県焼津市利右衛門384-1,054-631-4585,"※さば寿しは事前予約が必要です※
電話：054-631-4585
",https://amalu.co.jp/,https://www.instagram.com/amaru3883/,https://image.the-coupon.jp/coupon/image/8RoFLigDBciedM6AlXyc/fl9645_1752544019080?v=1752544019580,,138.308758,34.861343,
11,花味月,ハナミヅキ,飲食業,1000,"2,000円以上会計で1,000円引き",1,425-0036,静岡県焼津市西小川一丁目11-8,054-639-5531,,,https://www.instagram.com/izakayahanamiduki/,https://image.the-coupon.jp/coupon/image/8RoFLigDBciedM6AlXyc/hv8040_1752544037523?v=1752544037920,,138.3096652,34.8534725,
12,doma雑貨店,ドマザッカテン,小売業,1000,"2,000円以上会計で1,000円引き",1,425-0035,静岡県焼津市東小川6-11-5,,営業日はSNSにてご確認ください,,https://www.instagram.com/doma.zakka/,https://image.the-coupon.jp/coupon/image/8RoFLigDBciedM6AlXyc/yo5958_1752544066000?v=1752544066403,,138.3202734,34.8367121,
13,リラクゼーションサロン　ラグラックス,リラクゼーションサロン　ラグラックス,その他,1000,"2,000円以上会計で1,000円引き",1,425-0057,静岡県焼津市下小田1-5,090-4238-8087,"11:00〜24:00（受付21:00終了）
火曜定休",https://www.relaxation-salon-luxlax.com/,,https://image.the-coupon.jp/coupon/image/8RoFLigDBciedM6AlXyc/ee5591_1752734945763?v=1752734946318,,138.3227652,34.8674574,
15,かつ一,カツイチ,飲食業,1000,"2,000円以上会計で1,000円引き",1,421-0215,静岡県焼津市西島345-314,054-622-7333,ランチタイムでのクーポン使用不可,,https://www.instagram.com/katuichi_yaizu/,https://image.the-coupon.jp/coupon/image/8RoFLigDBciedM6AlXyc/sr4308_1752544107787?v=1752544108202,,138.3029514,34.8809047,
16,銀鮮,ギンセン,飲食業,1000,"2,000円以上会計で1,000円引き",1,425-0091,静岡県焼津市八楠4-14-12,054-625-9858,定休日月曜、火曜日　　営業時間10時30分〜16時　営業時間内クーポン利用可,https://kaigen-502.com/,https://www.instagram.com/unagi.ginsen/,https://firebasestorage.googleapis.com/v0/b/the-coupon.appspot.com/o/coupon%2Fimage%2FgmsHdw0A2EsJoAwc9J6v%2Fvobl1wr8?alt=media&token=46307c94-a5bb-4f7f-82fe-ff3d0567c31f,,138.3165457,34.8425564,
17,M's cafe,エムズカフェ,飲食業,1000,"2,000円以上会計で1,000円引き",1,425-0041,静岡県焼津市石津2丁目9-22,090-7611-9612,,,https://www.instagram.com/mscafem/,https://image.the-coupon.jp/coupon/image/8RoFLigDBciedM6AlXyc/me0848_1752544130603?v=1752544130921,,138.313731,34.863022,
18,グリルSASAYA,グリルササヤ,飲食業,1000,"2,000円以上会計で1,000円引き",1,425-0026,静岡県焼津市焼津4丁目9-19,054-627-0234,,https://sasayaomuraisu.amebaownd.com/,https://www.instagram.com/yaizu_sasaya/,https://firebasestorage.googleapis.com/v0/b/the-coupon.appspot.com/o/coupon%2Fimage%2FgmsHdw0A2EsJoAwc9J6v%2Fiyzu36aw?alt=media&token=4587a7fa-ca5f-4257-a922-d2426a3af362,,138.2883887,34.8552215,
19,江戸そば八助,エドソバヤスケ,飲食業,1000,"2,000円以上会計で1,000円引き",1,425-0074,静岡県焼津市柳新屋601-3,054-637-9240,,https://edosobayasuke.business.site/,,https://firebasestorage.googleapis.com/v0/b/the-coupon.appspot.com/o/coupon%2Fimage%2FgmsHdw0A2EsJoAwc9J6v%2F3zyemt5j?alt=media&token=6eaef67e-9f7f-4b87-8e89-efda1ddbb89f,,138.3184872,34.8457895,
20,多幸,タコウ,飲食業,1000,"2,000円以上会計で1,000円引き",1,425-0041,静岡県焼津市石津1143-1,054-623-1819,"（昼）11：30〜14：00
（夜）17：00〜22：00
（定休日）火曜日",https://nbzn600.gorp.jp/,,https://firebasestorage.googleapis.com/v0/b/the-coupon.appspot.com/o/coupon%2Fimage%2FfhmU4woIZSbiizWBXBWQ%2F01_%20restaurant.svg?alt=media&token=97cefc85-0619-4b73-9c72-d208d29c233a,,138.314935,34.874717,
21,有限会社茶郷山いち,サゴウヤマイチ,小売業,1000,"2,000円以上会計で1,000円引き",1,425-0028,静岡県焼津市駅北3丁目15番28号,054-629-6121,,,https://www.instagram.com/35yamaichi/,https://firebasestorage.googleapis.com/v0/b/the-coupon.appspot.com/o/coupon%2Fimage%2FgmsHdw0A2EsJoAwc9J6v%2Fa4owanw5?alt=media&token=df88adde-a3c2-4899-a80c-836ee34648e1,,138.3127146,34.8724469,
22,中源商店,ナカゲンショウテン,小売業,1000,"2,000円以上会計で1,000円引き",1,425-0081,静岡県焼津市大栄町1-5-18,054-628-4520,営業時間　平日８：００〜１６：３０　休み　日祝,https://nakagen-tsukudani.jp/,,https://image.the-coupon.jp/coupon/image/8RoFLigDBciedM6AlXyc/bu3562_1753064038182?v=1753064039156,,138.318448,34.858824,
23,伊志川,イシカワ,飲食業,1000,"2,000円以上会計で1,000円引き",1,425-0031,静岡県焼津市小川新町1-2-26,054-629-3867,木曜〜日曜　昼のみ　11:15〜14:00 定休日：月曜・火曜・水曜,http://www.inakachuka-ishikawa.info/,,https://firebasestorage.googleapis.com/v0/b/the-coupon.appspot.com/o/coupon%2Fimage%2FgmsHdw0A2EsJoAwc9J6v%2F81z4pnjh.png?alt=media&token=91260639-0051-4907-8b95-3020f4ac9c2f,,138.3224179,34.8659594,
24,和洋菓子　ヤマカワ,ワヨウガシ　ヤマカワ,小売業,500,"1,000円以上会計で500円引き",1,425-0022,静岡県焼津市本町3-9-28,054-629-3933,,https://m.facebook.com/people/%E5%92%8C%E6%B4%8B%E8%8F%93%E5%AD%90-%E3%83%A4%E3%83%9E%E3%82%AB%E3%83%AF/100014219027535/,,https://firebasestorage.googleapis.com/v0/b/the-coupon.appspot.com/o/coupon%2Fimage%2FgmsHdw0A2EsJoAwc9J6v%2F1u20isk6?alt=media&token=ae1db857-8aef-4d73-848e-7a79e85fccd0,,138.3224179,34.8659594,
25,イケダ薬局,イケダヤッキョク,小売業,1000,"2,000円以上会計で1,000円引き",1,425-0036,静岡県焼津市西小川2-10-21,054-628-7656,,https://kanpouikeda.com/,https://www.instagram.com/ikedadrugstore/,https://firebasestorage.googleapis.com/v0/b/the-coupon.appspot.com/o/coupon%2Fimage%2FgmsHdw0A2EsJoAwc9J6v%2F8774nt0p?alt=media&token=694a86fa-6e55-47c8-a605-99577c9c5a6b,,138.303515,34.8642682,
26,カムカム,カムカム,飲食業,1000,"2,000円以上会計で1,000円引き",1,425-0071,静岡県焼津市三ｹ名1461-1,054-627-8602,,,,https://firebasestorage.googleapis.com/v0/b/the-coupon.appspot.com/o/coupon%2Fimage%2FgmsHdw0A2EsJoAwc9J6v%2Fhg81wk9x?alt=media&token=05e62567-4821-46e5-94bc-f1936aae7d6e,,138.310797,34.861521,
27,Herbs Garden,ハーブガーデン,飲食業,1000,"2,000円以上会計で1,000円引き",1,425-0036,静岡県焼津市西小川1-8-17,054-629-6080,,https://herbsgarden.business.site,,https://image.the-coupon.jp/coupon/image/8RoFLigDBciedM6AlXyc/qf5594_1752544168330?v=1752544168684,,138.302262,34.86316,
28,やきにく家　幸楽,ヤキニクヤ　コウラク,飲食業,1000,"2,000円以上会計で1,000円引き",1,425-0071,静岡県焼津市三ｹ名1345-4,054-627-1925,,https://ja-jp.facebook.com/yakiniku.kouraku/,,https://firebasestorage.googleapis.com/v0/b/the-coupon.appspot.com/o/coupon%2Fimage%2FfhmU4woIZSbiizWBXBWQ%2F01_%20restaurant.svg?alt=media&token=97cefc85-0619-4b73-9c72-d208d29c233a,,138.321526,34.861629,
29,港書店,ミナトショテン,小売業,1000,"2,000円以上会計で1,000円引き",1,425-0022,静岡県焼津市本町5-9-3,090-7043-9483,"営業時間：10：００〜１４：００、１６：３０〜１８：００
日曜・祝日は定休日です。",,,https://firebasestorage.googleapis.com/v0/b/the-coupon.appspot.com/o/coupon%2Fimage%2FfhmU4woIZSbiizWBXBWQ%2F02_shop.svg?alt=media&token=2b44240e-338b-4fa7-8ee5-8c11a404b9db,,138.3214998,34.8627702,
30,御菓子司　角屋,オカシツカサ　カドヤ,小売業,500,"1,000円以上会計で500円引き",1,425-0022,静岡県焼津市本町5-7-8,054-628-3870,,http://web.thn.jp/yaizukadoya/index.html,https://www.instagram.com/kadoyakatsuosable/,https://image.the-coupon.jp/coupon/image/8RoFLigDBciedM6AlXyc/zp0502_1752544187836?v=1752544188142,,138.3079136,34.8803314,
31,とり若丸焼津店,トリワカマルヤイヅテン,飲食業,500,"1,000円以上会計で500円引き",1,425-0091,静岡県焼津市八楠2-29-6,054-620-1239,,https://honkinohonpo.com/shop/shizuoka-yaizu/,,https://firebasestorage.googleapis.com/v0/b/the-coupon.appspot.com/o/coupon%2Fimage%2FfhmU4woIZSbiizWBXBWQ%2F01_%20restaurant.svg?alt=media&token=97cefc85-0619-4b73-9c72-d208d29c233a,,138.3079136,34.8803314,
32,寿し春,スシハル,飲食業,1000,"2,000円以上会計で1,000円引き",1,425-0021,静岡県焼津市中港1-1-4,054-628-5056,,,,https://firebasestorage.googleapis.com/v0/b/the-coupon.appspot.com/o/coupon%2Fimage%2FgmsHdw0A2EsJoAwc9J6v%2Ftzlw4bhb?alt=media&token=a7ac4c94-7450-4b2b-b1d6-18ef14b7e5d6,,138.3071828,34.8422447,
33,ベリーノ,ベリーノ,飲食業,1000,"2,000円以上会計で1,000円引き",1,425-0055,静岡県焼津市道原12-2,054-639-5225,,,,https://firebasestorage.googleapis.com/v0/b/the-coupon.appspot.com/o/coupon%2Fimage%2FgmsHdw0A2EsJoAwc9J6v%2Fjzfglma2?alt=media&token=62650a6f-6999-4a60-a936-c195cfea964c,,138.3247016,34.8356865,
35,山正亭,ヤマショウテイ,飲食業,1000,"2,000円以上会計で1,000円引き",1,425-0027,静岡県焼津市栄町4-2-2,054-629-0730,,https://www.instagram.com/yamashou_tei/,,https://image.the-coupon.jp/coupon/image/8RoFLigDBciedM6AlXyc/ft7782_1752544229095?v=1752544229440,,138.319781,34.870006,
36,自家焙煎珈琲 caffemaco,ジカバイセンコーヒーカフェマコ,飲食業,1000,"2,000円以上会計で1,000円引き",1,425-0014,静岡県焼津市中里556-1,054-625-7488,"変則営業中
",https://caffemaco.com/,https://www.instagram.com/caffemaco/,https://image.the-coupon.jp/coupon/image/8RoFLigDBciedM6AlXyc/fu4514_1752544289206?v=1752544289447,,138.3037287,34.881146,
37,望月海苔店,モチヅキノリテン,小売業,1000,"2,000円以上会計で1,000円引き",1,425-0091,静岡県焼津市八楠4-13-7,054-627-7917,,https://www.marumonori.com/,https://www.instagram.com/marumonori/,https://image.the-coupon.jp/coupon/image/8RoFLigDBciedM6AlXyc/wk5635_1752544314226?v=1752544314584,,138.3241085,34.8641093,
38,有限会社カネキュウ水産,カネキュウスイサン,小売業,1000,"2,000円以上会計で1,000円引き",1,425-0091,静岡県焼津市八楠4-13-7さかなセンター内,054-627-7901,,https://www.sakana-center.com/shop/2518/,,https://firebasestorage.googleapis.com/v0/b/the-coupon.appspot.com/o/coupon%2Fimage%2FgmsHdw0A2EsJoAwc9J6v%2Fpl5co9bn?alt=media&token=c5129323-406d-4caf-a919-817262436de4,,138.3299686,34.8402231,
39,会席料理　味彩,カイセキリョウリ　アジサイ,飲食業,1000,"2,000円以上会計で1,000円引き",1,425-0051,静岡県焼津市田尻北1227-2,054-623-2875,必ず　事前予約をお願い致します,,https://www.instagram.com/azisai_yaizu/,https://image.the-coupon.jp/coupon/image/8RoFLigDBciedM6AlXyc/rn6530_1752544332750?v=1752544333134,,138.289512,34.865511,
40,ヘアールームシャイン,ヘアールームシャイン,その他,1000,"2,000円以上会計で1,000円引き",1,425-0086,静岡県焼津市小土902-7,054-629-4252,,,,https://firebasestorage.googleapis.com/v0/b/the-coupon.appspot.com/o/coupon%2Fimage%2FgmsHdw0A2EsJoAwc9J6v%2Fj5bbimx5?alt=media&token=e958b55b-c378-4064-9489-22172193bd22,,138.3238389,34.8614948,
41,ぬかや斎藤商店,ヌカヤサイトウショウテン,小売業,1000,"2,000円以上会計で1,000円引き",1,425-0025,静岡県焼津市城之腰109-1,054-628-4239,,https://www.yaizunukaya.com/,,https://firebasestorage.googleapis.com/v0/b/the-coupon.appspot.com/o/coupon%2Fimage%2FgmsHdw0A2EsJoAwc9J6v%2Fgy5n5p5i?alt=media&token=7d354392-14b6-4e68-ac71-43c2feb4cc39,,138.3237303,34.8606421,
42,osoto雑貨,オソトザッカ,小売業,1000,"2,000円以上会計で1,000円引き",1,425-0025,静岡県焼津市城之腰48-1,054-625-9115,,https://www.osotozakka.com/,https://www.instagram.com/osotozakka/,https://firebasestorage.googleapis.com/v0/b/the-coupon.appspot.com/o/coupon%2Fimage%2FgmsHdw0A2EsJoAwc9J6v%2Fieawhiqa?alt=media&token=4ba3a8ee-dc7d-4385-98a5-437176a59077,,138.322025,34.863893,
43,株式会社金虎,カネトラ,小売業,500,"1,000円以上会計で500円引き",1,425-0022,静岡県焼津市本町4-12-10,054-626-6668,,https://www.kanetora-shop.jp/,https://www.instagram.com/katsuoinu_pet/,https://firebasestorage.googleapis.com/v0/b/the-coupon.appspot.com/o/coupon%2Fimage%2FgmsHdw0A2EsJoAwc9J6v%2Fbvnijnkh?alt=media&token=23a19360-52d8-4662-8988-a5301126f2c2,,138.322025,34.863893,
44,磯の香,イソノカ,小売業,500,"1,000円以上会計で500円引き",1,425-0091,静岡県焼津市八楠4-13-7焼津さかなセンター内,0120-956-940,,https://www.sakana-center.com/shop/4114/,,https://firebasestorage.googleapis.com/v0/b/the-coupon.appspot.com/o/coupon%2Fimage%2FgmsHdw0A2EsJoAwc9J6v%2Fkbq5g6nv?alt=media&token=5cbc08c3-789a-46ca-a925-ac7ded7651d8,,138.327567,34.877519,
45,飴屋　河合製菓本舗,アメヤ　カワイセイカホンポ,小売業,500,"1,000円以上会計で500円引き",1,425-0012,静岡県焼津市浜当目2-1-1,054-628-2402,,https://www.ameyakawai.com/,,https://firebasestorage.googleapis.com/v0/b/the-coupon.appspot.com/o/coupon%2Fimage%2FgmsHdw0A2EsJoAwc9J6v%2F6hss1tgb?alt=media&token=1831fd0a-6c63-4d95-8260-e768e2d2c848,,138.2933044,34.8588295,
46,酒房ふくろう,シュボウフクロウ,飲食業,1000,"2,000円以上会計で1,000円引き",1,425-0077,静岡県焼津市五ｹ堀之内1213-1,054-629-8137,,http://www.syubo-fukurou.com/,,https://firebasestorage.googleapis.com/v0/b/the-coupon.appspot.com/o/coupon%2Fimage%2FgmsHdw0A2EsJoAwc9J6v%2F3sc31pqv?alt=media&token=09a29b69-e6ee-4a8e-99a6-2d46e2f8aeff,,138.3152853,34.8731635,
47,有限会社イリタ清水商店,イリタシミズショウテン,小売業,500,"1,000円以上会計で500円引き",1,425-0028,静岡県焼津市駅北2-9-9,054-628-4873,,https://www.irita-shimizu-shop.com/,,https://firebasestorage.googleapis.com/v0/b/the-coupon.appspot.com/o/coupon%2Fimage%2FgmsHdw0A2EsJoAwc9J6v%2Ft3b8mj7j?alt=media&token=2b43b2b4-2a8e-4d61-882a-01eaaeea3ae2,,138.297762,34.85726,
48,洋食屋ミッキー亭,ヨウショクヤミッキーテイ,飲食業,1000,"2,000円以上会計で1,000円引き",1,425-0071,静岡県焼津市三ｹ名724-1,054-627-3058,,,https://www.instagram.com/mickeytei/,https://firebasestorage.googleapis.com/v0/b/the-coupon.appspot.com/o/coupon%2Fimage%2FgmsHdw0A2EsJoAwc9J6v%2Fsrev17lq?alt=media&token=1486a2cd-9e52-4913-9549-3f0f26e0ca4a,,138.317632,34.849517,
50,小麦屋,コムギヤ,小売業,500,"1,000円以上会計で500円引き",1,425-0015,静岡県焼津市石脇上59-3,054-628-5160,,,https://www.instagram.com/komugiya_yaizu/,https://image.the-coupon.jp/coupon/image/8RoFLigDBciedM6AlXyc/vg3457_1752544354504?v=1752544354818,,138.319601,34.870353,
51,お茶の丸玉園,オチャノマルタマエン,小売業,1000,"2,000円以上会計で1,000円引き",1,425-0027,静岡県焼津市栄町4-1-4,054-628-4020,,https://www.marutamaen-shop.com/,,https://firebasestorage.googleapis.com/v0/b/the-coupon.appspot.com/o/coupon%2Fimage%2FgmsHdw0A2EsJoAwc9J6v%2F7lyepnst?alt=media&token=ac250f24-6f97-45e8-9679-9d6f5dd6a429,,138.319601,34.870353,
52,ベトナム料理  Ｓｕｉｋａ　ｃｈａｎ,ベトナムリョウリスイカチャン,飲食業,1000,"2,000円以上会計で1,000円引き",1,425-0022,静岡県焼津市本町3-5-11,054-374-9320,"昼：11:30〜14:00
夜：17:00〜20:00
定休日：月曜日",https://vietnam-suikachan.com,https://www.instagram.com/yaizu_suikachan/,https://firebasestorage.googleapis.com/v0/b/the-coupon.appspot.com/o/coupon%2Fimage%2FgmsHdw0A2EsJoAwc9J6v%2Fxt463tzz?alt=media&token=b975aaf2-6c3e-4def-adbb-e6d1ce4894da,,138.27376,34.815399,
53,山一園製茶株式会社,ヤマイチエンセイチャ,小売業,1000,"2,000円以上会計で1,000円引き",1,421-0206,静岡県焼津市上新田862番地の1,054-622-1724,営業時間　9：00〜18：00　元日のみ休業,https://www.yamaichien.com/,https://www.instagram.com/yamaichienseicha/,https://firebasestorage.googleapis.com/v0/b/the-coupon.appspot.com/o/coupon%2Fimage%2FgmsHdw0A2EsJoAwc9J6v%2Fl6mew3yp?alt=media&token=97fe2749-32d8-43af-b5d4-1d637bf85408,,138.319712,34.870114,
54,福与時計店,フクヨトケイテン,小売業,500,"1,000円以上会計で500円引き",1,425-0027,静岡県焼津市栄町4丁目2番1号,054-628-2474,"営業時間は　10:00〜19:00
定休日　毎週月曜日",,,https://firebasestorage.googleapis.com/v0/b/the-coupon.appspot.com/o/coupon%2Fimage%2FgmsHdw0A2EsJoAwc9J6v%2F9v4bxco3?alt=media&token=cb83fa10-7075-40a4-ae54-f5359cebf73a,,138.318901,34.871582,
55,居酒屋日の出,イザカヤヒノデ,飲食業,1000,"2,000円以上会計で1,000円引き",1,425-0027,静岡県焼津市栄町1-2-1 日の出ビル1F,090-1754-9792,,,https://www.instagram.com/hinodebar/,https://image.the-coupon.jp/coupon/image/8RoFLigDBciedM6AlXyc/uy7985_1752544393077?v=1752544393508,,138.312974,34.8590311,
56,まんまる,マンマル,飲食業,1000,"2,000円以上会計で1,000円引き",1,425-0035,静岡県焼津市東小川二丁目17-13 マンション小池,054-621-5155,,https://manmaru-yaizu.gorp.jp/,,https://image.the-coupon.jp/coupon/image/8RoFLigDBciedM6AlXyc/it9406_1752544411066?v=1752544411450,,138.304391,34.8808236,
57,ぶるず,ブルズ,飲食業,1000,"2,000円以上会計で1,000円引き",1,425-0091,静岡県焼津市八楠4-13-7,054-629-6696,,,https://www.instagram.com/bulls_l_steak/,https://firebasestorage.googleapis.com/v0/b/the-coupon.appspot.com/o/coupon%2Fimage%2FgmsHdw0A2EsJoAwc9J6v%2Ftur9edve?alt=media&token=31da1f35-9a15-49ed-827b-8aa81f4eefe2,,138.30199,34.88207479,
60,自慢のお米　又平商店,ジマンノオコメ　マタヒラショウテン,小売業,1000,"2,000円以上会計で1,000円引き",1,425-0014,静岡県焼津市中里566,054-628-2008,"9:00〜18:00
定休日：土、日、祝日",https://matahira-shoten.com,https://www.instagram.com/matahira_shoten/,https://image.the-coupon.jp/coupon/image/8RoFLigDBciedM6AlXyc/zg6250_1753064241463?v=1753064242315,,138.3095829,34.8600351,
61,お好み焼・鉄板焼　もくじぃ,オコノミヤキ　テッパンヤキ　モクジィ,飲食業,1000,"2,000円以上会計で1,000円引き",1,425-0036,静岡県焼津市西小川2丁目6-25,054-620-5053,ランチ〜夜営業共に利用可,,https://www.instagram.com/okonomiyaki_mokujyi/,https://image.the-coupon.jp/coupon/image/8RoFLigDBciedM6AlXyc/uo5691_1752544507511?v=1752544508043,,138.2997278,34.8825083,
62,福一焼津流通センター,フクイチヤイヅリュウツウセンター,小売業,1000,"2,000円以上会計で1,000円引き",1,425-0091,静岡県焼津市八楠170,054-628-2913,,https://fukuichi-world.jp/ryutu/,,https://firebasestorage.googleapis.com/v0/b/the-coupon.appspot.com/o/coupon%2Fimage%2FgmsHdw0A2EsJoAwc9J6v%2F4fhz0ft7?alt=media&token=63729bbf-e3cb-4c56-af88-86110d80c416,,138.2997278,34.8825083,
63,ヤマクニ水産さかなセンター店,ヤマクニスイサンサカナセンターテン,小売業,1000,"2,000円以上会計で1,000円引き",1,425-0091,静岡県焼津市八楠4-13-7,054-626-8400,,https://www.yamakuni.info/,https://www.instagram.com/yamakuni.yaizu/,https://image.the-coupon.jp/coupon/image/8RoFLigDBciedM6AlXyc/tv4340_1752544572992?v=1752544573813,,138.3034667,34.8799809,
64,焼津ひもの食堂,ヤイヅヒモノショクドウ,飲食業,1000,"2,000円以上会計で1,000円引き",1,425-0091,静岡県焼津市八楠 1-3-17,054-626-8400,ランチ営業のみです,https://yamakuni-himono.com/,https://www.instagram.com/himono.syokudou/,https://image.the-coupon.jp/coupon/image/8RoFLigDBciedM6AlXyc/nl8847_1752544593936?v=1752544594489,,138.3068898,34.8819752,
65,手火山造り鰹節やまじゅう,テビヤマヅクリカツオブシヤマジュウ,小売業,500,"1,000円以上会計で500円引き",1,425-0031,静岡県焼津市小川新町5丁目4番9号,054-628-3677,平日９：３０〜１７：００　土曜日９：００〜１１：３０　日祝休み,https://www.yama10.jp/,https://www.instagram.com/tebiyama/,https://firebasestorage.googleapis.com/v0/b/the-coupon.appspot.com/o/coupon%2Fimage%2FgmsHdw0A2EsJoAwc9J6v%2Flljzzd5g?alt=media&token=afcd877a-b6a1-4cc8-a9cf-afbb5e3a0fb3,,138.318629,34.8523,
66,まぐろ茶屋,マグロチャヤ,飲食業,1000,"2,000円以上会計で1,000円引き",1,425-0032,静岡県焼津市鰯ｹ島136番地の26,054-270-5811,,https://magurocyaya.jp/,https://www.instagram.com/magurocyaya/,https://image.the-coupon.jp/coupon/image/8RoFLigDBciedM6AlXyc/nw1035_1752544614324?v=1752544614768,,138.3102824,34.8605259,
67,和ぁ坊,ワァボウ,飲食業,1000,"2,000円以上会計で1,000円引き",1,425-0036,静岡県焼津市西小川1-4-6,054-631-7820,,https://wa-bou-yaizu.com/,,https://firebasestorage.googleapis.com/v0/b/the-coupon.appspot.com/o/coupon%2Fimage%2FgmsHdw0A2EsJoAwc9J6v%2Ffc45z7xf?alt=media&token=70d23a3a-51a5-45d2-b337-eaf785a4c6e5,,138.3102824,34.8605259,
69,フランス料理　ボン・コラージュ,フランスリョウリ　ボンコラージュ,飲食業,1000,"2,000円以上会計で1,000円引き",1,425-0075,静岡県焼津市西焼津27-5 トリオンビル2F,054-621-0353,,https://boncourage1996.owst.Jp,,https://image.the-coupon.jp/coupon/image/8RoFLigDBciedM6AlXyc/up9073_1753063795766?v=1753063796419,,138.320812,34.871381,
70,まんさく,マンサク,飲食業,1000,"2,000円以上会計で1,000円引き",1,425-0027,静岡県焼津市栄町2-6-21,054-626-8151,,,,https://firebasestorage.googleapis.com/v0/b/the-coupon.appspot.com/o/coupon%2Fimage%2FgmsHdw0A2EsJoAwc9J6v%2Fmhxutfja?alt=media&token=e2dade30-1682-4f25-942e-5d6ce40043aa,,138.320812,34.871381,
71,ヤキレイ直売所,ヤキレイチョクバイショ,小売業,1000,"2,000円以上会計で1,000円引き",1,425-0031,静岡県焼津市小川新町5丁目8番2号,054-627-0181,,http://www.yakirei.co.jp/sp/,https://www.instagram.com/yakirei.38/,https://firebasestorage.googleapis.com/v0/b/the-coupon.appspot.com/o/coupon%2Fimage%2FfhmU4woIZSbiizWBXBWQ%2F02_shop.svg?alt=media&token=2b44240e-338b-4fa7-8ee5-8c11a404b9db,,138.305122,34.863427,
72,カフェセレサ,カフェセレサ,飲食業,1000,"2,000円以上会計で1,000円引き",1,425-0071,静岡県焼津市三ｹ名1194-4,054-626-4098,,,https://www.instagram.com/cafecereza_yaizu/,https://firebasestorage.googleapis.com/v0/b/the-coupon.appspot.com/o/coupon%2Fimage%2FgmsHdw0A2EsJoAwc9J6v%2Fm2yjz3re?alt=media&token=52e57cb8-bbf3-4f0a-8463-a78a2119a5c9,,138.319801,34.870673,
73,株式会社　油屋呉服店,アブラヤゴフクテン,小売業,1000,"2,000円以上会計で1,000円引き",1,425-0027,静岡県焼津市栄町3-1-16,054-629-5533,月曜〜日曜　9:00〜16:00  定休日：不定休,,,https://image.the-coupon.jp/coupon/image/8RoFLigDBciedM6AlXyc/ie7807_1753064510358?v=1753064511130,,138.2903547,34.846396,
74,手毬,テマリ,飲食業,1000,"2,000円以上会計で1,000円引き",1,425-0072,静岡県焼津市大住1085-1,054-623-5296,,https://temari19901212.owst.jp,https://www.instagram.com/temari_kamameshi2020/,https://image.the-coupon.jp/coupon/image/8RoFLigDBciedM6AlXyc/nx4780_1752544634839?v=1752544635217,,138.309132,34.8548629,
75,株式会社三幸　さんこう西小川店,サンコウニシコガワテン,小売業,1000,"2,000円以上会計で1,000円引き",1,425-0036,静岡県焼津市西小川4-1-1,054-620-3077,,https://sankoukids.official.ec/,https://www.instagram.com/sankou_kids_style/,https://firebasestorage.googleapis.com/v0/b/the-coupon.appspot.com/o/coupon%2Fimage%2FgmsHdw0A2EsJoAwc9J6v%2F4mbeh2tt?alt=media&token=83497246-473a-402e-9d0d-f564e2ff20ee,,138.321692,34.87455,
76,元湯なかむら館,モトユナカムラカン,飲食業,500,"1,000円以上会計で500円引き",1,425-0028,静岡県焼津市駅北1-14-7,054-628-4397,,https://nakamurakan.co.jp/,,https://firebasestorage.googleapis.com/v0/b/the-coupon.appspot.com/o/coupon%2Fimage%2FgmsHdw0A2EsJoAwc9J6v%2F4gbj2s1w?alt=media&token=068c8431-bf86-4cbc-b4f7-582407ef8478,,138.2894277,34.8621487,
77,居酒屋ゆず,イザカヤユズ,飲食業,1000,"2,000円以上会計で1,000円引き",1,425-0076,静岡県焼津市小屋敷244-2,090-8327-2326,,,,https://firebasestorage.googleapis.com/v0/b/the-coupon.appspot.com/o/coupon%2Fimage%2FgmsHdw0A2EsJoAwc9J6v%2Fpz0z4mim?alt=media&token=6183310e-8f37-470d-a258-3fc43b3f4d31,,138.2894277,34.8621487,
79,やきつ家,ヤキツヤ,小売業,1000,"2,000円以上会計で1,000円引き",1,425-0027,静岡県焼津市栄町3丁目1番13号,054-627-6415,,,https://www.instagram.com/yakitsuya/,https://firebasestorage.googleapis.com/v0/b/the-coupon.appspot.com/o/coupon%2Fimage%2FgmsHdw0A2EsJoAwc9J6v%2Fi9dumjgl?alt=media&token=8aa368f2-1503-4453-bfa4-ca4071b6676a,,138.3199133,34.8704519,
80,まんさいかん焼津,マンサイカンヤイヅ,小売業,1000,"2,000円以上会計で1,000円引き",1,425-0026,静岡県焼津市焼津4丁目8-5,054-626-8822,"月〜日　9：00〜17：00
定休日　第2火曜日",https://life.ja-group.jp/farm/market/detail?id=1137,,https://firebasestorage.googleapis.com/v0/b/the-coupon.appspot.com/o/coupon%2Fimage%2FgmsHdw0A2EsJoAwc9J6v%2F4qeh8276?alt=media&token=f7404ed4-c6a4-42bb-8bae-bf0af1d23b8a,,138.28144,34.814108,
81,大井川農業協同組合　まんさいかん静浜,オオイガワノウギョウキョウドウクミアイ　マンサイカンシズハマ,小売業,1000,"2,000円以上会計で1,000円引き",1,421-0205,静岡県焼津市宗高1-2,054-664-0831,月〜日　9:00〜17:00  定休日:第二火曜日 　他1/1〜1/4 休み,https://life.ja-group.jp/farm/market/detail?id=1139,,https://firebasestorage.googleapis.com/v0/b/the-coupon.appspot.com/o/coupon%2Fimage%2FgmsHdw0A2EsJoAwc9J6v%2Fqxtm4dqc?alt=media&token=7c13f83c-b9f4-441c-9201-47133cb57ee1,,138.320838,34.8691336,
82,坂本接骨院・鍼灸院,サカモトセッコツインシンキュウイン,その他,1000,"2,000円以上会計で1,000円引き",1,425-0027,静岡県焼津市栄町3丁目5番30号,054-620-5000,クーポンは自費施術のみ利用可,https://sakamoto-sekkotsu5000.com/,,https://firebasestorage.googleapis.com/v0/b/the-coupon.appspot.com/o/coupon%2Fimage%2FgmsHdw0A2EsJoAwc9J6v%2Fcssdyqe1?alt=media&token=e0606710-f276-423c-be7e-7fdb4723bcd0,,138.3081987,34.8520494,
83,ふわふわっふる　西小川店,フワフワッフル　ニシコガワテン,小売業,500,"1,000円以上会計で500円引き",1,425-0036,静岡県焼津市西小川2-1-3-102,090-5113-2828,,http://fuwafuwaffle.blogspot.com,,https://image.the-coupon.jp/coupon/image/8RoFLigDBciedM6AlXyc/fa3194_1752544650578?v=1752544650873,,138.319554,34.870954,
84,ふわふわっふる　焼津駅前通り店,フワフワッフル　ヤイヅエキマエドオリテン,小売業,500,"1,000円以上会計で500円引き",1,425-0027,静岡県焼津市栄町2-3-15,080-2162-1084,,http://fuwafuwaffle.blogspot.com,,https://image.the-coupon.jp/coupon/image/8RoFLigDBciedM6AlXyc/ur5837_1752544662934?v=1752544663615,,138.3053714,34.8393799,
85,有限会社葵サンプル,アオイサンプル,その他,1000,"2,000円以上会計で1,000円引き",1,425-0045,静岡県焼津市祢宜島362番地の3,054-624-8645,,http://www.aoisample.com/,https://www.instagram.com/aoisample/,https://image.the-coupon.jp/coupon/image/8RoFLigDBciedM6AlXyc/jx1980_1752544679422?v=1752544679758,,138.3107162,34.8570529,
86,有限会社　丸玉園,マルタマエン,小売業,1000,"2,000円以上会計で1,000円引き",1,425-0035,静岡県焼津市東小川5-9-17,054-621-5501,,https://sanowa-tea.jp,https://www.instagram.com/sanowa_tea/,https://firebasestorage.googleapis.com/v0/b/the-coupon.appspot.com/o/coupon%2Fimage%2FgmsHdw0A2EsJoAwc9J6v%2Fpsqkg66u?alt=media&token=22fc62d7-6bab-47d5-a9d8-507824df276d,,138.2966571,34.8852516,
87,HOTEL nanvan焼津,ホテルナンバンヤイヅ,宿泊業,1000,"2,000円以上会計で1,000円引き",1,425-0092,静岡県焼津市越後島360番地の3,054-628-8835,,https://www.nanvan.jp/,,https://image.the-coupon.jp/coupon/image/8RoFLigDBciedM6AlXyc/yu9364_1752544700675?v=1752544701134,,138.315832,34.867806,
88,よし寿司,ヨシズシ,飲食業,1000,"2,000円以上会計で1,000円引き",1,425-0026,静岡県焼津市焼津1丁目5の31,054-629-5600,"昼　平日：11:30〜13:30 日曜・祝日：11:30〜13:30
夜　平日：17:00〜21:00 日曜・祝日：17:00〜20:00
定休日：水曜日　不定休あり",,,https://firebasestorage.googleapis.com/v0/b/the-coupon.appspot.com/o/coupon%2Fimage%2FgmsHdw0A2EsJoAwc9J6v%2Fy0gyldp8?alt=media&token=73320bce-73e2-4dc8-8992-7c3f37e443d0,,138.3266667,34.8566667,
89,株式会社ヤイヅツナコープ,カブシキガイシャヤイヅツナコープ,小売業,1000,"2,000円以上会計で1,000円引き",1,425-0032,静岡県焼津市鰯ｹ島136-26うみえ~る焼津1階,054-629-7393,,http://www.yaizu-gyokyo.or.jp,,https://firebasestorage.googleapis.com/v0/b/the-coupon.appspot.com/o/coupon%2Fimage%2FgmsHdw0A2EsJoAwc9J6v%2Fwh09o6ov?alt=media&token=4b9eb1a5-a753-41eb-b95e-32fc10eede16,,138.3241961,34.873811,
92,和菓子工房吉野,ワガシコウボウヨシノ,小売業,500,"1,000円以上会計で500円引き",1,425-0027,静岡県焼津市栄町4-1-3,054-628-3926,,https://yamakawahitoshi.wordpress.com,,https://firebasestorage.googleapis.com/v0/b/the-coupon.appspot.com/o/coupon%2Fimage%2FgmsHdw0A2EsJoAwc9J6v%2Fqm67hoee?alt=media&token=e069f071-7d87-4577-94ce-2e9da2f8f31e,,138.3195484,34.8705229,
93,磯料理みなと家,イソリョウリミナトヤ,飲食業,1000,"2,000円以上会計で1,000円引き",1,421-0213,静岡県焼津市飯淵2153,054-622-0362,,https://www.minatoya-ryouri.com/,,https://image.the-coupon.jp/coupon/image/8RoFLigDBciedM6AlXyc/lj8800_1752544736920?v=1752544737246,,138.303534,34.88024,
94,株式会社マルワ商店,マルワショウテン,小売業,1000,"2,000円以上会計で1,000円引き",1,425-0091,静岡県焼津市八楠4-13-7焼津さかなセンター内,054-628-5555,,https://maruwa-shouten.shop-pro.jp/,https://www.instagram.com/maruwa333/,https://image.the-coupon.jp/coupon/image/8RoFLigDBciedM6AlXyc/kr7923_1752544756036?v=1752544756437,,138.3035733,34.8800403,
95,ミハラ水産株式会社,ミハラスイサン,小売業,1000,"2,000円以上会計で1,000円引き",1,425-0091,静岡県焼津市八楠4-13-7,054-629-1171,,https://misuisan.co.jp/74939/,,https://image.the-coupon.jp/coupon/image/8RoFLigDBciedM6AlXyc/yv6617_1752544773907?v=1752544774133,,138.303567,34.880302,
96,回転寿司のぶちゃん,カイテンズシノブチャン,飲食業,1000,"2,000円以上会計で1,000円引き",1,425-0091,静岡県焼津市八楠4丁目13-7焼津さかなセンター内,054-628-2100,,https://www.sakana-center.com/shop/2522/,,https://firebasestorage.googleapis.com/v0/b/the-coupon.appspot.com/o/coupon%2Fimage%2FgmsHdw0A2EsJoAwc9J6v%2F4imr5qfv?alt=media&token=057889e7-d691-496c-8feb-3a7cfa082eda,,138.3153403,34.8590051,
97,つくだ煮みさき,ツクダニミサキ,小売業,1000,"2,000円以上会計で1,000円引き",1,425-0035,静岡県焼津市東小川1-3-19,054-628-2403,,https://tukudanimisaki.amebaownd.com,,https://firebasestorage.googleapis.com/v0/b/the-coupon.appspot.com/o/coupon%2Fimage%2FgmsHdw0A2EsJoAwc9J6v%2F6e33xzhz?alt=media&token=e91760f5-3b11-4986-b4bd-1b4b02419534,,138.2742483,34.8113819,
98,丸忠有限会社,マルチュウユウゲンガイシャ,飲食業,1000,"2,000円以上会計で1,000円引き",1,421-0218,静岡県焼津市下江留1450-1,054-622-0407,"営業時間 : 11時〜14時 / 17時〜19時
定休日 : 月曜日（月曜祝日の場合、翌火曜日）",https://unagi-maruchu.com/,,https://image.the-coupon.jp/coupon/image/8RoFLigDBciedM6AlXyc/ef0163_1753069003017?v=1753069003877,,138.2742483,34.8113819,
99,飲処.肴処　膳,ノミドコロ.サカナドコロ　ゼン,飲食業,1000,"2,000円以上会計で1,000円引き",1,425-0026,静岡県焼津市焼津4-9-15,054-628-5799,,,,https://firebasestorage.googleapis.com/v0/b/the-coupon.appspot.com/o/coupon%2Fimage%2FgmsHdw0A2EsJoAwc9J6v%2F6d6cbbwv?alt=media&token=118e2608-5a00-4979-9050-6cff3b19acb6,,138.3175706,34.8716114,
100,EBOSHI,エボシ,飲食業,1000,"2,000円以上会計で1,000円引き",1,425-0027,静岡県焼津市栄町1-7-2,054-621-6052,,https://www.eboshi-yaizu.com/,,https://image.the-coupon.jp/coupon/image/8RoFLigDBciedM6AlXyc/co2475_1753069653616?v=1753069654544,,138.3185511,34.8713614,
101,HINATA,ヒナタ,飲食業,1000,"2,000円以上会計で1,000円引き",1,425-0027,静岡県焼津市栄町1-5-2,054-628-2316,,https://hinata-yaizu.com/,,https://firebasestorage.googleapis.com/v0/b/the-coupon.appspot.com/o/coupon%2Fimage%2FgmsHdw0A2EsJoAwc9J6v%2Fwy17cp9s?alt=media&token=4b4266b0-ca69-47c1-ad8f-d0f2599eac4c,,138.3186764,34.8712827,
102,エイトコーヒー,エイトコーヒー,飲食業,1000,"2,000円以上会計で1,000円引き",1,425-0027,静岡県焼津市栄町1-2-10,054-620-8668,,,https://www.instagram.com/eightcoffee_e/,https://firebasestorage.googleapis.com/v0/b/the-coupon.appspot.com/o/coupon%2Fimage%2FgmsHdw0A2EsJoAwc9J6v%2F20mcwc50?alt=media&token=451462bf-dcb8-40a8-8ab2-02b4b9467748,,138.322848,34.866526,
103,下村こうじ屋,シモムラコウジヤ,小売業,500,"1,000円以上会計で500円引き",1,425-0022,静岡県焼津市本町2-15-6,054-628-5310,,https://www.shimomura-koujiya.com/,https://www.instagram.com/shimomura.koujiya/,https://firebasestorage.googleapis.com/v0/b/the-coupon.appspot.com/o/coupon%2Fimage%2FgmsHdw0A2EsJoAwc9J6v%2Fwwi32su1?alt=media&token=3453bc93-0ece-419a-bb00-9f36e32927dc,,138.303567,34.880302,
104,大富水産株式会社,ダイトミスイサン,小売業,1000,"2,000円以上会計で1,000円引き",1,425-0091,静岡県焼津市八楠4-13-7焼津さかなセンター内,054-621-0002,AM9：00〜PM17：00,https://daitomisuisan.shop-pro.jp/,,https://firebasestorage.googleapis.com/v0/b/the-coupon.appspot.com/o/coupon%2Fimage%2FTfBGvRWVeKHcoq5PasIT%2Fmw1503?alt=media&token=ef435441-d004-4574-b24e-2587294dc4b8,,138.307422,34.861079,
105,和作寿司,ワサクズシ,飲食業,1000,"2,000円以上会計で1,000円引き",1,425-0036,静岡県焼津市西小川2-12-2,054-627-5500,,https://kojiwanda.wixsite.com/mysite,,https://image.the-coupon.jp/coupon/image/8RoFLigDBciedM6AlXyc/yr6829_1752544806211?v=1752544806505,,138.3152853,34.8731635,
106,有限会社イリタ清水商店,イリタシミズショウテン,小売業,500,"1,000円以上会計で500円引き",1,425-0091,静岡県焼津市八楠4-13-7焼津さかなセンター内7番,054-627-7935,,https://irita-shimizu-shop.com,,https://firebasestorage.googleapis.com/v0/b/the-coupon.appspot.com/o/coupon%2Fimage%2FgmsHdw0A2EsJoAwc9J6v%2Ft3b8mj7j?alt=media&token=2b43b2b4-2a8e-4d61-882a-01eaaeea3ae2,,138.3202734,34.8504232,
107,ロックブックワークス,ロックブックワークス,小売業,1000,"2,000円以上会計で1,000円引き",1,425-0091,静岡県焼津市八楠4-13-7　さかなセンター内,090-7913-9757,,,,https://firebasestorage.googleapis.com/v0/b/the-coupon.appspot.com/o/coupon%2Fimage%2FfhmU4woIZSbiizWBXBWQ%2F02_shop.svg?alt=media&token=2b44240e-338b-4fa7-8ee5-8c11a404b9db,,138.3037287,34.881146,
108,有限会社東名焼津酒販,トウメイヤイヅシュハン,小売業,1000,"2,000円以上会計で1,000円引き",1,425-0091,静岡県焼津市八楠4丁目13番地の7,054-629-6938,,https://www.sakana-center.com/shop/5473/,,https://firebasestorage.googleapis.com/v0/b/the-coupon.appspot.com/o/coupon%2Fimage%2FgmsHdw0A2EsJoAwc9J6v%2Fckrbl9up?alt=media&token=21847da0-efaa-47d7-b467-fa592af83404,,138.3037287,34.881146,
109,ふとんのこはり,フトンノコハリ,小売業,1000,"2,000円以上会計で1,000円引き",1,425-0036,静岡県焼津市西小川3-8-5,054-628-8110,,http://www.futon-kohari.com,,https://firebasestorage.googleapis.com/v0/b/the-coupon.appspot.com/o/coupon%2Fimage%2FfhmU4woIZSbiizWBXBWQ%2F02_shop.svg?alt=media&token=2b44240e-338b-4fa7-8ee5-8c11a404b9db,,138.3033513,34.8802962,
110,長峰製茶　焼津さかなセンター店,ナガミネセイチャヤイヅサカナセンターテン,小売業,1000,"2,000円以上会計で1,000円引き",1,425-0091,静岡県焼津市八楠4-13-7焼津さかなセンター内,054-629-3321,9:00〜16:30 (月曜〜日曜日)  定休日：水曜日,https://www.sakana-center.com/shop/2484/,,https://firebasestorage.googleapis.com/v0/b/the-coupon.appspot.com/o/coupon%2Fimage%2FfhmU4woIZSbiizWBXBWQ%2F02_shop.svg?alt=media&token=2b44240e-338b-4fa7-8ee5-8c11a404b9db,,138.3187988,34.8715703,
111,一般社団法人　焼津市観光協会,ヤイズシカンコウキョウカイ,その他,500,"1,000円以上会計で500円引き",1,425-0027,静岡県焼津市栄町一丁目2-24,054-626-6266,,http://www.yaizu.gr.jp/,,https://firebasestorage.googleapis.com/v0/b/the-coupon.appspot.com/o/coupon%2Fimage%2FgmsHdw0A2EsJoAwc9J6v%2Fl9tijtfq?alt=media&token=9a5295cd-e226-4ec8-b21f-c6f58a3cb446,,138.3186982,34.871506,
112,イヅミヤ,イヅミヤ,飲食業,1000,"2,000円以上会計で1,000円引き",1,425-0027,静岡県焼津市栄町1-2-12,054-626-2500,,,https://www.instagram.com/yaizu_izumiya/,https://image.the-coupon.jp/coupon/image/8RoFLigDBciedM6AlXyc/qg1952_1752544822948?v=1752544823433,,138.3186982,34.871506,
115,酒季の蔵,シュキノクラ,飲食業,1000,"2,000円以上会計で1,000円引き",1,425-0026,静岡県焼津市焼津3-10-8,054-627-2527,18:00〜翌3:00 定休日：日曜日　※祝日前の日曜は営業　状況により早く閉まる日もあります,https://nbdx000.gorp.jp/,https://www.instagram.com/yaizu.shukinokura/,https://firebasestorage.googleapis.com/v0/b/the-coupon.appspot.com/o/coupon%2Fimage%2FgmsHdw0A2EsJoAwc9J6v%2Fkty592n5?alt=media&token=52f14a8c-7f9f-439c-95cf-70c393139f63,,138.3037099,34.8811442,
116,株式会社海鮮組,カイセングミ,小売業,1000,"2,000円以上会計で1,000円引き",1,425-0091,静岡県焼津市八楠4丁目13番地の7,054-621-5188,,https://kaisengumi.jp/index.html,,https://firebasestorage.googleapis.com/v0/b/the-coupon.appspot.com/o/coupon%2Fimage%2FgmsHdw0A2EsJoAwc9J6v%2Fd9b30oxi?alt=media&token=b41b2b77-41f1-4d89-a282-3e419286ea14,,138.3257109,34.8511839,
117,小川漁業協同組合,コガワギョギョウキョウドウクミアイ,小売業,500,"1,000円以上会計で500円引き",1,425-0033,静岡県焼津市小川3392-9,054-624-8130,平日8:00〜17:00、土曜日休み、日・祝8:00〜15:00,https://kogawa-gyokyo.com/,,https://image.the-coupon.jp/coupon/image/8RoFLigDBciedM6AlXyc/eh9317_1752544845003?v=1752544845471,,138.3257109,34.8511839,
118,堅魚屋,カタウオヤ,小売業,1000,"2,000円以上会計で1,000円引き",1,425-0064,静岡県焼津市三和1384番地の1,054-624-5158,,https://www.katauoya.com/,https://www.instagram.com/katauoya_shinmarusyo/,https://firebasestorage.googleapis.com/v0/b/the-coupon.appspot.com/o/coupon%2Fimage%2FfhmU4woIZSbiizWBXBWQ%2F02_shop.svg?alt=media&token=2b44240e-338b-4fa7-8ee5-8c11a404b9db,,138.303584,34.88041,
119,株式会社藤仲屋食品,フジナカヤショクヒン,小売業,1000,"2,000円以上会計で1,000円引き",1,425-0091,静岡県焼津市八楠4-13-7,054-629-3681,,https://fujinakaya.shop-pro.jp/,,https://firebasestorage.googleapis.com/v0/b/the-coupon.appspot.com/o/coupon%2Fimage%2FgmsHdw0A2EsJoAwc9J6v%2F12vncp3s?alt=media&token=f5550a92-e65f-4c36-8aea-f91ffc04bf3c,,138.3153995,34.8728607,
120,株式会社井鍋ふとん店,マルマタ,小売業,1000,"2,000円以上会計で1,000円引き",1,425-0028,静岡県焼津市駅北2丁目9番6号,054-628-2577,営業時間9時〜18時,,,https://image.the-coupon.jp/coupon/image/8RoFLigDBciedM6AlXyc/bz0873_1753072192501?v=1753072192813,,138.3161467,34.8600528,
121,株式会社　丸又,カブシキガイシャ　マルマタ,小売業,500,"1,000円以上会計で500円引き",1,425-0035,静岡県焼津市東小川1-4-3,054-628-7578,,https://www.marumata.jp/,https://www.instagram.com/marumatajp/,https://firebasestorage.googleapis.com/v0/b/the-coupon.appspot.com/o/coupon%2Fimage%2FgmsHdw0A2EsJoAwc9J6v%2Ftdhg4gau?alt=media&token=ff063575-9f5f-442c-adb8-e583045d0135,,138.3043554,34.8807603,
122,たかた,タカタ,飲食業,500,"1,000円以上会計で500円引き",1,425-0091,静岡県焼津市八楠4丁目13番地の7,090-9268-3990,"（昼）11：00〜14：00
（夜）17：30〜21：00
（定休日）月曜日",,,https://firebasestorage.googleapis.com/v0/b/the-coupon.appspot.com/o/coupon%2Fimage%2FgmsHdw0A2EsJoAwc9J6v%2F872fvdjj?alt=media&token=6ab00c4a-4b79-4b1f-b8b5-131f0d68bd2d,,138.3033268,34.88039,
123,株式会社カネトモ,カネトモ,小売業,1000,"2,000円以上会計で1,000円引き",1,425-0091,静岡県焼津市八楠4丁目13番7号,054-628-7007,,https://www.kanetomo.com/center/center.html,,https://firebasestorage.googleapis.com/v0/b/the-coupon.appspot.com/o/coupon%2Fimage%2FfhmU4woIZSbiizWBXBWQ%2F02_shop.svg?alt=media&token=2b44240e-338b-4fa7-8ee5-8c11a404b9db,,138.32265,34.867467,
124,泰栄堂,タイエイドウ,小売業,1000,"2,000円以上会計で1,000円引き",1,425-0022,静岡県焼津市本町2-16-43,054-628-5008,営業時間　9時から17時　　　日曜祝日休み,http://www.taieido.jp/,,https://firebasestorage.googleapis.com/v0/b/the-coupon.appspot.com/o/coupon%2Fimage%2FgmsHdw0A2EsJoAwc9J6v%2Fw32wfans?alt=media&token=e4a84796-b1bd-4cb1-bccc-3f35fa80adb0,,138.32265,34.867467,
125,さかな大食堂渚（焼津さかなセンター内）,サカナダイショクドウナギサ,飲食業,1000,"2,000円以上会計で1,000円引き",1,425-0091,静岡県焼津市八楠4-13-7,054-628-1137,,https://www.sakana-center.com/,,https://image.the-coupon.jp/coupon/image/8RoFLigDBciedM6AlXyc/us3515_1752544885146?v=1752544885556,,138.3152318,34.8733956,
126,やまそう　又平商店,ヤマソウ　マタヒラショウテン,小売業,500,"1,000円以上会計で500円引き",1,425-0028,静岡県焼津市駅北3-9-5,054-628-6598,"9:00〜18:30
定休日：日曜日・第三月曜日",,,https://firebasestorage.googleapis.com/v0/b/the-coupon.appspot.com/o/coupon%2Fimage%2FgmsHdw0A2EsJoAwc9J6v%2Fyw6pu248?alt=media&token=da3bb3a2-4935-4be6-bd1f-aca1e587f54a,,138.3031377,34.879843,
127,さんすい1号店,サンスイイチゴウテン,飲食業,1000,"2,000円以上会計で1,000円引き",1,425-0091,静岡県焼津市八楠4-13-7焼津さかなセンター内,054-629-3375,,https://www.sansui-yaizu.co.jp/,,https://firebasestorage.googleapis.com/v0/b/the-coupon.appspot.com/o/coupon%2Fimage%2FgmsHdw0A2EsJoAwc9J6v%2Fupu81zns?alt=media&token=ecf3b360-3762-4bbd-aa2c-d3c22212ff99,,138.3025879,34.8800271,
128,さんすい2号店,サンスイニゴウテン,飲食業,1000,"2,000円以上会計で1,000円引き",1,425-0091,静岡県焼津市八楠4-13-7焼津さかなセンター内,054-625-8873,,https://www.sansui-yaizu.co.jp/,,https://firebasestorage.googleapis.com/v0/b/the-coupon.appspot.com/o/coupon%2Fimage%2FgmsHdw0A2EsJoAwc9J6v%2F90jwd6xp?alt=media&token=f8f66c08-11a3-47e9-98e4-e5bfb619dddb,,138.3025879,34.8800271,
129,岩清,イワセイ,小売業,500,"1,000円以上会計で500円引き",1,425-0022,静岡県焼津市本町5丁目14-9,054-629-2025,"営業時間 10:00-17:00
月曜定休",https://www.iwasei.com/,https://www.instagram.com/iwaseiyaizu/,https://image.the-coupon.jp/coupon/image/8RoFLigDBciedM6AlXyc/dn9118_1752544901986?v=1752544902517,,138.308722,34.8522278,
130,IHATOV,イーハトーウ゛,その他,1000,"2,000円以上会計で1,000円引き",1,425-0035,静岡県焼津市東小川7丁目19-10SUNコバヤシ'90 101,054-626-3759,,https://18102.jp,https://www.instagram.com/18102.jp/,https://firebasestorage.googleapis.com/v0/b/the-coupon.appspot.com/o/coupon%2Fimage%2FgmsHdw0A2EsJoAwc9J6v%2Fdjsb5el2?alt=media&token=8a8e54ca-dd87-4960-ae57-7c7ff51f8e32,,138.3003814,34.879791,
131,有限会社ヤマシン村田商店,ヤマシンムラタショウテン,小売業,1000,"2,000円以上会計で1,000円引き",1,425-0091,静岡県焼津市八楠4丁目13番地の7,054-626-2038,,,,https://firebasestorage.googleapis.com/v0/b/the-coupon.appspot.com/o/coupon%2Fimage%2FfhmU4woIZSbiizWBXBWQ%2F02_shop.svg?alt=media&token=2b44240e-338b-4fa7-8ee5-8c11a404b9db,,138.303584,34.88041,
133,大盛屋,オオモリヤ,飲食業,500,"1,000円以上会計で500円引き",1,425-0027,静岡県焼津市栄町6-3-6,054-628-3274,,,,https://firebasestorage.googleapis.com/v0/b/the-coupon.appspot.com/o/coupon%2Fimage%2FgmsHdw0A2EsJoAwc9J6v%2Fffavhxho?alt=media&token=9f94bb41-3d9d-406e-baaa-1a49416d2a2d,,138.303567,34.880302,
134,株式会社カネト平田商店,ヒラタショウテン,小売業,500,"1,000円以上会計で500円引き",1,425-0091,静岡県焼津市八楠4-13-7,054-628-7437,,https://www.sakana-center.com/shop/2504/,,https://firebasestorage.googleapis.com/v0/b/the-coupon.appspot.com/o/coupon%2Fimage%2FgmsHdw0A2EsJoAwc9J6v%2Ffw9uktot?alt=media&token=1a9be22b-46e6-488e-ad03-41d70eb7b931,,138.303567,34.8803021,
135,吉恵水産株式会社,ヨシケイスイサンカブシキガイシャ,小売業,1000,"2,000円以上会計で1,000円引き",1,425-0022,静岡県焼津市本町4-10-4,054-629-0088,,https://www.sakana-center.com/shop/2509/,,https://firebasestorage.googleapis.com/v0/b/the-coupon.appspot.com/o/coupon%2Fimage%2FgmsHdw0A2EsJoAwc9J6v%2Fkrdfh8oo?alt=media&token=b05d3f25-20d3-4684-9723-f748559a8aab,,138.32192,34.864965,
136,コーヒー乃川島焼津店,コーヒーノカワシマヤイヅテン,小売業,500,"1,000円以上会計で500円引き",1,425-0022,静岡県焼津市本町3-7-7,054-627-7553,,https://www.kawashimacoffee.co.jp/about/shopinfo.php,,https://firebasestorage.googleapis.com/v0/b/the-coupon.appspot.com/o/coupon%2Fimage%2FgmsHdw0A2EsJoAwc9J6v%2Fm9yche0w?alt=media&token=e2962a8a-8b37-4067-b433-4e213a7357c0,,138.312974,34.8590311,
137,ひのまる酒場,ヒノマルサカバ,飲食業,1000,"2,000円以上会計で1,000円引き",1,425-0035,静岡県焼津市東小川2-17-13,054-626-1039,,https://hinomarusakaba.com/,https://www.instagram.com/hinomarusakaba/,https://image.the-coupon.jp/coupon/image/8RoFLigDBciedM6AlXyc/rj4913_1752544920033?v=1752544920463,,138.30935,34.860638,
139,インテリアハラトモ,インテリアハラトモ,小売業,1000,"2,000円以上会計で1,000円引き",1,425-0022,静岡県焼津市本町5-6-10,054-627-9110,,https://www.haratomo1927.com/,,https://firebasestorage.googleapis.com/v0/b/the-coupon.appspot.com/o/coupon%2Fimage%2FgmsHdw0A2EsJoAwc9J6v%2Fvpkov6sk?alt=media&token=e9567354-80f1-482b-be31-cccc19995aaa,,138.3097945,34.8570526,
140,焼津四川飯店&ガーデンズ,ヤイズシセンハンテンアンドガーデンズ,飲食業,1000,"2,000円以上会計で1,000円引き",1,425-0036,静岡県焼津市西小川3-6-1,054-626-4000,,https://www.sn-hotels.com/nag,https://www.instagram.com/nhr.gardens/,https://firebasestorage.googleapis.com/v0/b/the-coupon.appspot.com/o/coupon%2Fimage%2FgmsHdw0A2EsJoAwc9J6v%2Ficcj6od4?alt=media&token=ba87a67f-d76f-4318-98a3-a5863ecfd28f,,138.3031563,34.8797304,
141,まぐろ一本,マグロイッポン,飲食業,1000,"2,000円以上会計で1,000円引き",1,425-0091,静岡県焼津市八楠4丁目13番地の7,054-629-5133,,,https://www.instagram.com/maguroippon/,https://firebasestorage.googleapis.com/v0/b/the-coupon.appspot.com/o/coupon%2Fimage%2FgmsHdw0A2EsJoAwc9J6v%2Fl98montt?alt=media&token=769b43ce-14a1-4d86-8902-7bf7f9edb2e3,,138.2918208,34.860062,
142,五金,ゴキン,飲食業,1000,"2,000円以上会計で1,000円引き",1,425-0074,静岡県焼津市柳新屋996-4,054-627-5856,,https://gokin.jp/,https://www.instagram.com/gokin.jp/,https://image.the-coupon.jp/coupon/image/8RoFLigDBciedM6AlXyc/yw9413_1753078664174?v=1753078664679,,138.2918208,34.860062,
143,マルショウ焼津さかなセンター店,マルショウヤイヅサカナセンターテン,小売業,500,"1,000円以上会計で500円引き",1,425-0091,静岡県焼津市八楠4-13-7焼津さかなセンター内,054-629-2746,,http://www.yaizu.com,,https://firebasestorage.googleapis.com/v0/b/the-coupon.appspot.com/o/coupon%2Fimage%2FgmsHdw0A2EsJoAwc9J6v%2Fod4nuwu4?alt=media&token=75825120-5b9b-4ef5-8de3-0d935211162a,,138.303584,34.88041,
144,甲羅組　本店,コウラグミホンテン,小売業,1000,"2,000円以上会計で1,000円引き",1,425-0091,静岡県焼津市八楠4-13-7,054-621-5525,,https://denshoku-corp.jp/business/realstore/,,https://firebasestorage.googleapis.com/v0/b/the-coupon.appspot.com/o/coupon%2Fimage%2FgmsHdw0A2EsJoAwc9J6v%2F8s34mtj1?alt=media&token=60922b8a-152e-4e2b-ab85-ce215d1a4c46,,138.3152509,34.8664589,
145,焼津餃子,ヤイズギョウザ,小売業,500,"1,000円以上会計で500円引き",1,425-0026,静岡県焼津市焼津1-6-3,054-270-6329,,,https://www.instagram.com/yaizu.gyouza/,https://firebasestorage.googleapis.com/v0/b/the-coupon.appspot.com/o/coupon%2Fimage%2FgmsHdw0A2EsJoAwc9J6v%2Fedzj2iy8?alt=media&token=812d5856-218d-45d8-a87e-ce0b644ff690,,138.3154499,34.8664003,
146,かぜんぐ,カゼング,飲食業,1000,"2,000円以上会計で1,000円引き",1,425-0026,静岡県焼津市焼津1-6-3,054-270-6294,,,https://www.instagram.com/kazengu.yaizu/,https://firebasestorage.googleapis.com/v0/b/the-coupon.appspot.com/o/coupon%2Fimage%2FfhmU4woIZSbiizWBXBWQ%2F01_%20restaurant.svg?alt=media&token=97cefc85-0619-4b73-9c72-d208d29c233a,,138.2787301,34.8083262,
147,焼津港丸入商店,ヤイヅコウマルイリショウテン,飲食業,1000,"2,000円以上会計で1,000円引き",1,421-0205,静岡県焼津市宗高1474-3,054-631-4031,ランチも物販も両方クーポン使用可能です,https://yaizumaruiri.jp/,https://www.instagram.com/yaizukou_maruiri/,https://firebasestorage.googleapis.com/v0/b/the-coupon.appspot.com/o/coupon%2Fimage%2FgmsHdw0A2EsJoAwc9J6v%2Fo05tkw5h?alt=media&token=4d43e2b4-d51a-4285-a8b4-cda56a00dc76,,138.326445,34.878477,
148,いちまるマルシェ,イチマルマルシエ,小売業,1000,"2,000円以上会計で1,000円引き",1,425-0012,静岡県焼津市浜当目1-3-23,054-628-4115,QRコード送付時はMD事業部原田明と記載願います。,https://www.bras-de-chef.jp/marche/,https://www.instagram.com/ichimaru.rina/,https://firebasestorage.googleapis.com/v0/b/the-coupon.appspot.com/o/coupon%2Fimage%2FgmsHdw0A2EsJoAwc9J6v%2Fyvdhpgen?alt=media&token=220a2153-7132-4a3c-b08b-71072838501b,,138.3031452,34.8800706,
149,勝男屋　焼津さかなセンター本店,カツオヤ　ヤイヅサカナセンターホンテン,小売業,1000,"2,000円以上会計で1,000円引き",1,425-0091,静岡県焼津市八楠4丁目13-7焼津さかなセンター内,054-629-1177,,https://www.katsuoya.net,https://www.instagram.com/katsuoya_official/,https://image.the-coupon.jp/coupon/image/8RoFLigDBciedM6AlXyc/ui7368_1752544955110?v=1752544955520,,138.3179764,34.8314324,
150,かしはる田尻本店,カシハルタジリホンテン,小売業,500,"1,000円以上会計で500円引き",1,425-0052,静岡県焼津市田尻231-2,054-624-4481,,https://kashiharu.com/,,https://firebasestorage.googleapis.com/v0/b/the-coupon.appspot.com/o/coupon%2Fimage%2FgmsHdw0A2EsJoAwc9J6v%2F0iukl9zt?alt=media&token=8fed54e1-cb61-46da-b84d-22f825b63e1c,,138.3134606,34.861751,
151,かしはる焼津店,カシハルヤイヅテン,小売業,500,"1,000円以上会計で500円引き",1,425-0026,静岡県焼津市焼津4-11-4,054-628-5567,,https://kashiharu.com/,,https://firebasestorage.googleapis.com/v0/b/the-coupon.appspot.com/o/coupon%2Fimage%2FgmsHdw0A2EsJoAwc9J6v%2F23jcsshd?alt=media&token=c6a6d2ea-cbec-44bd-a9c3-f849347b90d6,,138.277007,34.817951,
152,かしはる大井川店,カシハルオオイガワテン,小売業,500,"1,000円以上会計で500円引き",1,421-0206,静岡県焼津市上新田477-6,054-622-8765,,https://kashiharu.com/,,https://firebasestorage.googleapis.com/v0/b/the-coupon.appspot.com/o/coupon%2Fimage%2FgmsHdw0A2EsJoAwc9J6v%2Fljjmxeak?alt=media&token=b9eebb70-9e86-4033-b006-7cd99715d858,,138.288489,34.853875,
153,かしはる西焼津総本店,カシハルニシヤイヅソウホンテン,小売業,500,"1,000円以上会計で500円引き",1,425-0073,静岡県焼津市小柳津515-3,054-628-1100,,https://kashiharu.com/,,https://firebasestorage.googleapis.com/v0/b/the-coupon.appspot.com/o/coupon%2Fimage%2FgmsHdw0A2EsJoAwc9J6v%2Frjliqft6?alt=media&token=3a398590-d060-4a9e-9e2b-2629ebb32b67,,138.3035834,34.8641873,
154,雷心,ライシン,飲食業,500,"1,000円以上会計で500円引き",1,425-0071,静岡県焼津市三ｹ名1461-1,054-626-6781,,,,https://firebasestorage.googleapis.com/v0/b/the-coupon.appspot.com/o/coupon%2Fimage%2FgmsHdw0A2EsJoAwc9J6v%2Fvavmmjhl?alt=media&token=984903a3-678a-4a81-b224-6dccd03e8a71,,138.2880075,34.8536141,
155,およんな広場,オヨンナヒロバ,小売業,500,"1,000円以上会計で500円引き",1,425-0073,静岡県焼津市小柳津508-2,054-659-0839,営業日はインスタでご確認ください,,https://www.instagram.com/oyonnahiroba/,https://firebasestorage.googleapis.com/v0/b/the-coupon.appspot.com/o/coupon%2Fimage%2FgmsHdw0A2EsJoAwc9J6v%2Fgeu395lw?alt=media&token=3ae5a012-e358-457d-9488-7171bccafb46,,138.3170858,34.8527909,
156,株式会社 ｶﾗｰｽﾞ･ｵｰﾄｷﾞｬﾗﾘｰ,カラーズオートギャラリー,小売業,1000,"2,000円以上会計で1,000円引き",1,425-0035,静岡県焼津市東小川4丁目13番地の3,054-626-6881,,http://colors2006.xyz/about/,,https://firebasestorage.googleapis.com/v0/b/the-coupon.appspot.com/o/coupon%2Fimage%2FgmsHdw0A2EsJoAwc9J6v%2F9rd6813w?alt=media&token=1d439007-2886-430d-9be5-f030b7fbca53,,138.3170858,34.8527909,
158,ホテルアンビア松風閣　料亭美咲,ホテルアンビアショウフウカク　リョウテイミサキ,飲食業,1000,"2,000円以上会計で1,000円引き",1,425-0012,静岡県焼津市浜当目1541,054-628-3131,,,https://www.instagram.com/syofukaku/,https://image.the-coupon.jp/coupon/image/8RoFLigDBciedM6AlXyc/ui4377_1752544975462?v=1752544975822,,138.3372802,34.8846817,
159,ホテルアンビア松風閣　売店,ホテルアンビアショウフウカク　バイテン,小売業,500,"1,000円以上会計で500円引き",1,425-0012,静岡県焼津市浜当目1541,054-628-3131,,,https://www.instagram.com/syofukaku/,https://image.the-coupon.jp/coupon/image/8RoFLigDBciedM6AlXyc/sy6800_1752544990495?v=1752544990859,,138.3372802,34.8846817,
160,ホテルアンビア松風閣,ホテルアンビアショウフウカク,飲食業,1000,"2,000円以上会計で1,000円引き",1,425-0012,静岡県焼津市浜当目1541,054-628-3131,,https://www.syofukaku.com/,,https://image.the-coupon.jp/coupon/image/8RoFLigDBciedM6AlXyc/vi7867_1752545008064?v=1752545008475,,138.2884539,34.8539302,
161,スイーツカフェ豆治,スイーツカフェマメジ,飲食業,1000,"2,000円以上会計で1,000円引き",1,425-0073,静岡県焼津市小柳津515-3,054-628-1100,,,https://www.instagram.com/mameji.kashiharu.2023/,https://firebasestorage.googleapis.com/v0/b/the-coupon.appspot.com/o/coupon%2Fimage%2FgmsHdw0A2EsJoAwc9J6v%2F7m5v8fsb?alt=media&token=20beddba-5ff1-40dc-a6a9-8efcba73748f,,138.3163265,34.8486868,
162,Cafe&Restaurant  Fun Fun,カフェアンドレストランファンファン,飲食業,1000,"2,000円以上会計で1,000円引き",1,425-0037,静岡県焼津市南小川2丁目20-17,054-623-7055,,,https://www.instagram.com/funfun_yaizu/,https://firebasestorage.googleapis.com/v0/b/the-coupon.appspot.com/o/coupon%2Fimage%2FgmsHdw0A2EsJoAwc9J6v%2Fj35cfhrk?alt=media&token=4dde8727-bd19-40eb-a08d-2b6423d1ee64,,138.3193682,34.8639595,
163,ハゲ天,ハゲテン,飲食業,1000,"2,000円以上会計で1,000円引き",1,425-0026,静岡県焼津市焼津6-4-5,054-627-2662,"営業時間　17時半〜23時
　　　　　オーダーストップ22時半
定休日　　木曜日",,,https://firebasestorage.googleapis.com/v0/b/the-coupon.appspot.com/o/coupon%2Fimage%2FgmsHdw0A2EsJoAwc9J6v%2Fh5zjk1q5?alt=media&token=23a651df-1408-4627-88a6-d6db318ffedf,,138.302785,34.880005,
164,有限会社サスイゲタフード,サスイゲタフード,小売業,500,"1,000円以上会計で500円引き",1,425-0091,静岡県焼津市八楠4-13-7焼津さかなセンター内,054-629-8080,,https://www.sasuigetafood.com,,https://firebasestorage.googleapis.com/v0/b/the-coupon.appspot.com/o/coupon%2Fimage%2FgmsHdw0A2EsJoAwc9J6v%2Fvous1c83?alt=media&token=142f67fa-1a3e-4c2f-89d0-71390030994a,,138.320215,34.86998,
165,学生服リユースshopさくらや　焼津店,ガクセイフクリユースショップサクラヤ　ヤイヅテン,小売業,500,"1,000円以上会計で500円引き",1,425-0027,静岡県焼津市栄町3丁目3-35,070-8533-1536,,https://www.seifuku-sakuraya.com/blog/yaizu/,,https://firebasestorage.googleapis.com/v0/b/the-coupon.appspot.com/o/coupon%2Fimage%2FgmsHdw0A2EsJoAwc9J6v%2Fskzknalv?alt=media&token=f2310d26-91b2-4635-8818-1735170c144b,,138.316771,34.863001,
166,有限会社　ジュウボシ,ユウゲンガイシャジュウボシ,小売業,1000,"2,000円以上会計で1,000円引き",1,425-0026,静岡県焼津市焼津5丁目12-31,054-628-3764,,https://juboshi.base.shop/,,https://image.the-coupon.jp/coupon/image/8RoFLigDBciedM6AlXyc/pl1413_1752545028602?v=1752545028926,,138.3035085,34.880436,
167,焼津さかなセンター大漁店,ヤイヅサカナセンタータイリョウテン,小売業,500,"1,000円以上会計で500円引き",1,425-0091,静岡県焼津市八楠4-13-7,054-629-1161,営業時間【平日】9:00〜15:00　【土日祝】9:00〜16:00,https://www.shizutetsu-retailing.com/tairyo/,https://www.instagram.com/tairyouten/,https://firebasestorage.googleapis.com/v0/b/the-coupon.appspot.com/o/coupon%2Fimage%2FgmsHdw0A2EsJoAwc9J6v%2Fr0k05ubw?alt=media&token=11fe99ab-19b8-46ce-a617-854d51a8c12d,,138.304744,34.795854,
168,すずき菓子舗,スズキガシホ,小売業,500,"1,000円以上会計で500円引き",1,421-0204,静岡県焼津市高新田1906-1,054-622-2330,,,https://www.instagram.com/suzuki.kashiho/,https://firebasestorage.googleapis.com/v0/b/the-coupon.appspot.com/o/coupon%2Fimage%2FgmsHdw0A2EsJoAwc9J6v%2F3pr6b9k1?alt=media&token=cfbdc3c3-ec29-449f-b590-d2f52630d2ef,,138.3034882,34.8094468,
169,JessiCafe,ジェシカフェ,飲食業,1000,"2,000円以上会計で1,000円引き",1,421-0203,静岡県焼津市藤守541,090-6091-6699,,,https://www.instagram.com/jessicafe.food/,https://firebasestorage.googleapis.com/v0/b/the-coupon.appspot.com/o/coupon%2Fimage%2FgmsHdw0A2EsJoAwc9J6v%2Fvs9nytkm?alt=media&token=bb21623a-55da-48ec-b7ca-34efbd0aa3be,,138.308466,34.8615115,
170,けのひ堂　焼津店,ケノヒドウ　ヤイズテン,飲食業,500,"1,000円以上会計で500円引き",1,425-0036,静岡県焼津市西小川1-11-9,054-626-8886,,https://kenohido.com/menu_yaizu/,,https://image.the-coupon.jp/coupon/image/8RoFLigDBciedM6AlXyc/dc2816_1753084150110?v=1753084150398,,138.3035712,34.8801987,
171,まるとう農園焼津さかなセンター店,マルトウノウエンヤイヅサカナセンターテン,小売業,500,"1,000円以上会計で500円引き",1,425-0091,静岡県焼津市八楠4丁目13番地の7,0547-46-4545,9:00~17:00まで利用可能,http://www.marutoufarm.com,https://www.instagram.com/marutoufarm/,https://firebasestorage.googleapis.com/v0/b/the-coupon.appspot.com/o/coupon%2Fimage%2FgmsHdw0A2EsJoAwc9J6v%2Fje9i12ks?alt=media&token=3ae22172-37cf-4eb0-b4d1-c657734629c8,,138.3079136,34.835497,
173,コスモスベリーズ焼津店＆B.mama館,コスモスベリーズヤイヅテンアンドビーママカン,小売業,1000,"2,000円以上会計で1,000円引き",1,425-0035,静岡県焼津市東小川５丁目11?14,054-627-5101,,https://berrys-yaizu.com,https://www.instagram.com/b.mama.style/,https://firebasestorage.googleapis.com/v0/b/the-coupon.appspot.com/o/coupon%2Fimage%2FgmsHdw0A2EsJoAwc9J6v%2Fjf4tksei?alt=media&token=fd69c095-a7ef-4bb6-aa21-8a51e0416425,,138.323745,34.861435,
174,マルハチ村松 浜通り店,マルハチムラマツ　ハマドオリテン,小売業,500,"1,000円以上会計で500円引き",1,425-0025,静岡県焼津市城之腰108-1-1,054-664-1551,,https://www.instagram.com/maruhachi08_hamadori/,https://www.instagram.com/maruhachi08_hamadori/,https://image.the-coupon.jp/coupon/image/8RoFLigDBciedM6AlXyc/ec9525_1752654322609?v=1752654323433,,138.3033573,34.880499,
175,焼津プリン商店,ヤイズプリンショウテン,小売業,500,"1,000円以上会計で500円引き",1,425-0091,静岡県焼津市八楠4丁目13-7,053-486-2346,,http://www.yaizu-purin.com,,https://firebasestorage.googleapis.com/v0/b/the-coupon.appspot.com/o/coupon%2Fimage%2FgmsHdw0A2EsJoAwc9J6v%2Fhz3cmo2b?alt=media&token=0c7d4e52-78dc-4d05-981f-c922268e27f2,,138.3192322,34.8819335,
176,魚河岸シャツ　濱いち屋,ウオガシシャツ　ハマイチヤ,小売業,1000,"2,000円以上会計で1,000円引き",1,425-0014,静岡県焼津市中里542-1,054-295-6666,,https://www.sativa812.com/,https://www.instagram.com/hamaichi_ya/,https://image.the-coupon.jp/coupon/image/8RoFLigDBciedM6AlXyc/kk2169_1752906238555?v=1752906239007,,138.3192322,34.8819335,
177,濱いち屋キッチン,ハマイチヤキッチン,飲食業,500,"1,000円以上会計で500円引き",1,425-0014,静岡県焼津市中里542-1,054-295-6666,テイクアウトも利用OK！！,https://www.instagram.com/hamaichi_ya/,https://www.instagram.com/hamaichi_ya/,https://image.the-coupon.jp/coupon/image/8RoFLigDBciedM6AlXyc/pi9754_1752906347588?v=1752906348007,,138.307978,34.859024,
178,くすかみ呉服店,クスカミゴフクテン,小売業,1000,"2,000円以上会計で1,000円引き",1,425-0036,静岡県焼津市西小川5-2-15,054-629-2991,,https://www.kusukami.jp/,,https://firebasestorage.googleapis.com/v0/b/the-coupon.appspot.com/o/coupon%2Fimage%2FgmsHdw0A2EsJoAwc9J6v%2Fno1lmp2e?alt=media&token=02f12465-9779-42ea-a9c5-ddc3436f9a16,,138.3032541,34.8805326,
180,スマル家　焼津さかなセンター店,スマルヤ　ヤイヅサカナセンターテン,飲食業,1000,"2,000円以上会計で1,000円引き",1,425-0091,静岡県焼津市八楠4-13-7,054-627-7905,,,https://www.instagram.com/sumaru_ya/,https://image.the-coupon.jp/coupon/image/8RoFLigDBciedM6AlXyc/bo8398_1752653836690?v=1752653837178,,138.3156947,34.87160943,
181,エキチカ温泉・くろしお,エキチカオンセンクロシオ,その他,1000,"2,000円以上会計で1,000円引き",1,425-0027,静岡県焼津市栄町1-13-1,054-627-7200,,https://spa-kuroshio.com/,,https://image.the-coupon.jp/coupon/image/8RoFLigDBciedM6AlXyc/vd3447_1752545079527?v=1752545079893,,138.3036311,34.8803731,
182,てっか家　焼津さかなセンター店,テッカヤ　ヤイヅサカナセンターテン,飲食業,1000,"2,000円以上会計で1,000円引き",1,425-0091,静岡県焼津市八楠4-13-7,070-1303-7736,,,,https://image.the-coupon.jp/coupon/image/8RoFLigDBciedM6AlXyc/im7612_1752545095135?v=1752545095490,,138.3186967,34.8637058,
183,久星商店,キュウボシショウテン,小売業,500,"1,000円以上会計で500円引き",1,425-0026,静岡県焼津市焼津6-5-7,054-628-3279,"9:00~17:30
基本工場内に誰かが居れば開いております。",https://kyuboshi.com/,,https://firebasestorage.googleapis.com/v0/b/the-coupon.appspot.com/o/coupon%2Fimage%2FgmsHdw0A2EsJoAwc9J6v%2Ffs7khmng?alt=media&token=1ecb23ef-e297-47fa-99d2-68257d6ca08b,,138.302775,34.8799503,
184,スマル水産　焼津さかなセンター店,スマルスイサン　ヤイヅサカナセンターテン,小売業,1000,"2,000円以上会計で1,000円引き",1,425-0091,静岡県焼津市八楠4-13-7,054-627-7905,,https://www.sumaru.com/,,https://firebasestorage.googleapis.com/v0/b/the-coupon.appspot.com/o/coupon%2Fimage%2FgmsHdw0A2EsJoAwc9J6v%2F539kpag2?alt=media&token=fd5bdb92-483c-4d9c-9704-63d15caaa5c1,,138.3094372,34.8547439,
185,麺処 響,メンドコロヒビキ,飲食業,500,"1,000円以上会計で500円引き",1,425-0035,静岡県焼津市東小川6-4-10,,,https://www.mendokoro-hibiki.com/,,https://image.the-coupon.jp/coupon/image/8RoFLigDBciedM6AlXyc/nb3817_1752545109449?v=1752545109841,,138.318584,34.863415,
186,岩本燃料,イワモト　ネンリョウ,小売業,500,"1,000円以上会計で500円引き",1,425-0026,静岡県焼津市焼津5丁目10-2,054-628-4213,,https://iwanen19283.eshizuoka.jp/,,https://firebasestorage.googleapis.com/v0/b/the-coupon.appspot.com/o/coupon%2Fimage%2FgmsHdw0A2EsJoAwc9J6v%2Fexfbqs6w?alt=media&token=dc6dee8a-bc7c-4c47-afcc-e70baa2276b6,,138.3029724,34.8796998,
187,定長商店,サダチョウショウテン,小売業,500,"1,000円以上会計で500円引き",1,425-0091,静岡県焼津市八楠4-13-7,054-627-7927,営業時間９：００〜１７：００,https://www.sakana-center.com/shop/2483/,,https://image.the-coupon.jp/coupon/image/8RoFLigDBciedM6AlXyc/xe2357_1752545125251?v=1752545125621,,138.303567,34.880302,
188,うなぎ丸天,ウナギマルテン,小売業,1000,"2,000円以上会計で1,000円引き",1,425-0091,静岡県焼津市八楠4丁目13-7焼津さかなセンター内,054-627-8905,,https://www.sakana-center.com/shop/2503/,,https://firebasestorage.googleapis.com/v0/b/the-coupon.appspot.com/o/coupon%2Fimage%2FfhmU4woIZSbiizWBXBWQ%2F02_shop.svg?alt=media&token=2b44240e-338b-4fa7-8ee5-8c11a404b9db,,138.2627628,34.8081175,
189,コバヤシ電器,コバヤシデンキ,小売業,1000,"2,000円以上会計で1,000円引き",1,421-0216,静岡県焼津市相川689-1,054-622-1361,,https://ps-hp.jpn.panasonic.com/ps/search/12204851,,https://firebasestorage.googleapis.com/v0/b/the-coupon.appspot.com/o/coupon%2Fimage%2FfhmU4woIZSbiizWBXBWQ%2F02_shop.svg?alt=media&token=2b44240e-338b-4fa7-8ee5-8c11a404b9db,,138.309383,34.854488,
190,一寸ぼうし,イッスンボウシ,飲食業,1000,"2,000円以上会計で1,000円引き",1,425-0035,静岡県焼津市東小川6丁目5-18,054-628-0811,月〜金　17:00〜23:00 　土日：16:00〜23:00   定休日：火曜・水曜,,,https://firebasestorage.googleapis.com/v0/b/the-coupon.appspot.com/o/coupon%2Fimage%2FgmsHdw0A2EsJoAwc9J6v%2Fuos8yhgi?alt=media&token=524101d2-40f8-43ef-92c4-f580e44cbd6c,,138.3196253,34.8710079,
191,にじいろ。,ニジイロ,飲食業,1000,"2,000円以上会計で1,000円引き",1,425-0027,静岡県焼津市栄町2-3-9,054-639-7700,,https://instagram.com/nijiiro.yaizu?igshid=YmMyMTA2M2Y=,,https://firebasestorage.googleapis.com/v0/b/the-coupon.appspot.com/o/coupon%2Fimage%2FgmsHdw0A2EsJoAwc9J6v%2Fbpv1gyly?alt=media&token=910e03c5-d650-48ca-bd77-130b3886b93f,,138.317807,34.85808,
192,柳屋本店　東小川店,ヤナギヤホンテンヒガシコガワテン,小売業,1000,"2,000円以上会計で1,000円引き",1,425-0035,静岡県焼津市東小川2丁目1-10,054-629-3244,,https://www.yanagiya.co.jp/chokubai/,,https://firebasestorage.googleapis.com/v0/b/the-coupon.appspot.com/o/coupon%2Fimage%2FgmsHdw0A2EsJoAwc9J6v%2Fv8oaqfaq?alt=media&token=06d39b31-0e41-4aa2-8d9a-33926306fb9e,,138.3177428,34.8579706,
193,やなぎやカフェ,ヤナギヤカフェ,飲食業,500,"1,000円以上会計で500円引き",1,425-0035,静岡県焼津市東小川2丁目1-10,054-629-3244,,https://yanagiyacafe.com/,,https://firebasestorage.googleapis.com/v0/b/the-coupon.appspot.com/o/coupon%2Fimage%2FgmsHdw0A2EsJoAwc9J6v%2Fpa9k9jyj?alt=media&token=4a89b742-0c5c-4dec-82ad-1030b23a5b05,,138.322409,34.865645,
194,喫茶アルハ,キッサアルハ,小売業,500,"1,000円以上会計で500円引き",1,425-0022,静岡県焼津市本町3丁目9-25,054-628-5545,"10：00〜16：30
定休日　水曜日・木曜日

物販（手作りジャム・国産はちみつ）使用可",,,https://image.the-coupon.jp/coupon/image/8RoFLigDBciedM6AlXyc/dv8967_1752893341700?v=1752893342027,,138.3267066,34.8567762,
195,ととや新兵衛,トトヤシンベエ,飲食業,1000,"2,000円以上会計で1,000円引き",1,425-0032,静岡県焼津市鰯ヶ島136-26うみえ~る焼津2階,054-629-3551,水曜日定休　営業時間月〜金　11：00〜15：00　　土・日　11：00〜15：00　17：00〜21：00,https://totoya-bbq.com/,,https://firebasestorage.googleapis.com/v0/b/the-coupon.appspot.com/o/coupon%2Fimage%2FfhmU4woIZSbiizWBXBWQ%2F01_%20restaurant.svg?alt=media&token=97cefc85-0619-4b73-9c72-d208d29c233a,,138.3058199,34.870296,
196,肉匠 篝(かがり),ニクショウカガリ,飲食業,1000,"2,000円以上会計で1,000円引き",1,425-0082,静岡県焼津市大村2丁目30-20,054-639-7986,,https://nbyw600.gorp.jp/,https://www.instagram.com/nikusyo_kagari/,https://image.the-coupon.jp/coupon/image/8RoFLigDBciedM6AlXyc/rf6086_1752545143656?v=1752545143998,https://image.the-coupon.jp/coupon/image/8RoFLigDBciedM6AlXyc/image2_rf6086_1752545143998?v=1752545144507,138.3141532,34.8618023,
197,焼津 たち吉,ヤイヅタチキチ,飲食業,1000,"2,000円以上会計で1,000円引き",1,425-0026,静岡県焼津市焼津4丁目6番21号,054-627-5771,"（昼）日〜土　11：30〜13：30
（夜）日〜土　17：00〜22：00
（定休日）毎週月曜日（祭日は次の日）",http://www.yaizu-tachikichi.com/honten/,,https://firebasestorage.googleapis.com/v0/b/the-coupon.appspot.com/o/coupon%2Fimage%2FfhmU4woIZSbiizWBXBWQ%2F01_%20restaurant.svg?alt=media&token=97cefc85-0619-4b73-9c72-d208d29c233a,,138.3154654,34.8651764,
198,陽楽坊　晴れ晴れ,ヨウラクボウ　ハレバレ,飲食業,1000,"2,000円以上会計で1,000円引き",1,425-0026,静岡県焼津市焼津2丁目4-4,054-625-8085,,https://nc56500.gorp.jp/,,https://image.the-coupon.jp/coupon/image/8RoFLigDBciedM6AlXyc/tw8818_1752545156359?v=1752545156670,,138.3110276,34.859182,
199,創作料理　がじゅまる,ソウサクリョウリ　ガジュマル,飲食業,500,"1,000円以上会計で500円引き",1,425-0036,静岡県焼津市西小川2-4-19,054-626-3359,"11:30〜14:00 月曜〜金曜
17:30-翌3:00 <定休日> 昼:　土日祝日　夜：日曜日",https://nbvz000.gorp.jp/,,https://firebasestorage.googleapis.com/v0/b/the-coupon.appspot.com/o/coupon%2Fimage%2FfhmU4woIZSbiizWBXBWQ%2F01_%20restaurant.svg?alt=media&token=97cefc85-0619-4b73-9c72-d208d29c233a,,138.282165,34.819054,
200,焼肉 東海苑 大井川,ヤキニクトウカイエンオオイガワ,飲食業,1000,"2,000円以上会計で1,000円引き",1,421-0201,静岡県焼津市上小杉763-3,054-622-8488,,https://toukaienooigawa.gorp.jp/,,https://firebasestorage.googleapis.com/v0/b/the-coupon.appspot.com/o/coupon%2Fimage%2FgmsHdw0A2EsJoAwc9J6v%2Fug75rale?alt=media&token=3f288d69-9b02-406f-88a3-e83ac1c75133,,138.3119076,34.8584408,
201,くつろぎ食房かざ花,クツロギショクボウカザハナ,飲食業,1000,"2,000円以上会計で1,000円引き",1,425-0035,静岡県焼津市東小川2-16-3　2F,054-689-1093,,https://nbvz800.gorp.jp/,,https://firebasestorage.googleapis.com/v0/b/the-coupon.appspot.com/o/coupon%2Fimage%2FgmsHdw0A2EsJoAwc9J6v%2Ftht7hgzn?alt=media&token=13ef3847-2529-4883-a90f-1db5e5ce0b39,,138.3193413,34.8712538,
202,やまもと,ヤマモト,飲食業,1000,"2,000円以上会計で1,000円引き",1,425-0027,静岡県焼津市栄町2-3-18,054-689-4743,,,https://www.instagram.com/yamamoto0416/,https://firebasestorage.googleapis.com/v0/b/the-coupon.appspot.com/o/coupon%2Fimage%2FfhmU4woIZSbiizWBXBWQ%2F01_%20restaurant.svg?alt=media&token=97cefc85-0619-4b73-9c72-d208d29c233a,,138.2880862,34.8654179,
203,そば 一玄,ソバイチゲン,飲食業,500,"1,000円以上会計で500円引き",1,425-0086,静岡県焼津市小土896-7,054-626-8697,昼：11:00〜15:00 夜：17:30〜20:00  定休日：火曜日,,,https://firebasestorage.googleapis.com/v0/b/the-coupon.appspot.com/o/coupon%2Fimage%2FgmsHdw0A2EsJoAwc9J6v%2Fnehxk7ca?alt=media&token=c786bca0-8007-4525-8cef-035fcc58914c,,138.2910579,34.8586465,
204,お照ん友,オテント,飲食業,1000,"2,000円以上会計で1,000円引き",1,425-0074,静岡県焼津市柳新屋831,054-620-2377,17:30-23:00 　定休日：月曜,,,https://firebasestorage.googleapis.com/v0/b/the-coupon.appspot.com/o/coupon%2Fimage%2FfhmU4woIZSbiizWBXBWQ%2F01_%20restaurant.svg?alt=media&token=97cefc85-0619-4b73-9c72-d208d29c233a,,138.3119035,34.8584591,
205,万事快調,バンジカイチョウ,飲食業,1000,"2,000円以上会計で1,000円引き",1,425-0035,静岡県焼津市東小川2-16-3ゼンセイビル１F中,054-639-9610,,https://x.com/banjikaichou,https://www.instagram.com/banjikaichou1128/,https://image.the-coupon.jp/coupon/image/8RoFLigDBciedM6AlXyc/ij7670_1752545175560?v=1752545175922,,138.3174177,34.8696151,
206,1 CHIGO,イチゴー,飲食業,1000,"2,000円以上会計で1,000円引き",1,425-0027,静岡県焼津市栄町6丁目3-19,054-625-9015,,https://1chigo-yaizu.gorp.jp/,,https://firebasestorage.googleapis.com/v0/b/the-coupon.appspot.com/o/coupon%2Fimage%2FfhmU4woIZSbiizWBXBWQ%2F01_%20restaurant.svg?alt=media&token=97cefc85-0619-4b73-9c72-d208d29c233a,,138.3169376,34.8536698,
207,伊駄天本店,イダテンホンテン,飲食業,500,"1,000円以上会計で500円引き",1,425-0035,静岡県焼津市東小川4-10-1,054-687-8924,,https://ramen-idaten.com/,,https://image.the-coupon.jp/coupon/image/8RoFLigDBciedM6AlXyc/ct7014_1752545193219?v=1752545193636,https://image.the-coupon.jp/coupon/image/8RoFLigDBciedM6AlXyc/image2_ct7014_1752545193636?v=1752545194007,138.3169376,34.8536698,
208,Caffe maar,カフェマール,飲食業,500,"1,000円以上会計で500円引き",1,425-0054,静岡県焼津市一色115,090-5102-3257,定休日：　月曜日・火曜日　　　　　ランチ：土曜日・日曜日（11時〜14時）,https://caffe-maar.jimdosite.com/,,https://image.the-coupon.jp/coupon/image/8RoFLigDBciedM6AlXyc/us1789_1752545212603?v=1752545213013,https://image.the-coupon.jp/coupon/image/8RoFLigDBciedM6AlXyc/image2_us1789_1752545213013?v=1752545213501,138.309394,34.861038,
209,炭火焼 居酒屋 みゆき,スミビヤキイザカヤミユキ,飲食業,1000,"2,000円以上会計で1,000円引き",1,425-0036,静岡県焼津市西小川1-11-20,054-685-9642,,https://nc1d300.gorp.jp/,https://www.instagram.com/sumibiyakiizakayamiyuki/,https://image.the-coupon.jp/coupon/image/8RoFLigDBciedM6AlXyc/xe3823_1752545238161?v=1752545238516,https://image.the-coupon.jp/coupon/image/8RoFLigDBciedM6AlXyc/image2_xe3823_1752545238516?v=1752545238904,138.3080693,34.8501284,
210,炭火串焼　酒楽,スミビクシヤキ　シュラク,飲食業,1000,"2,000円以上会計で1,000円引き",1,425-0036,静岡県焼津市西小川8-1-6志桜ビル201,054-631-9459,,https://nc5n200.gorp.jp/,https://www.instagram.com/syuraku_kushiyaki/,https://firebasestorage.googleapis.com/v0/b/the-coupon.appspot.com/o/coupon%2Fimage%2FgmsHdw0A2EsJoAwc9J6v%2F2q4la3ca?alt=media&token=623b884f-750a-4e27-89a3-5e1311d82b02,,138.3106318,34.8641637,
211,フランス菓子　ラ・フォセット,フランスガシ　ラ・フォセット,飲食業,500,"1,000円以上会計で500円引き",1,425-0026,静岡県焼津市焼津2丁目13-7,054-621-5555,,http://la-fossette.com,,https://image.the-coupon.jp/coupon/image/8RoFLigDBciedM6AlXyc/vq1216_1752545257881?v=1752545258221,https://image.the-coupon.jp/coupon/image/8RoFLigDBciedM6AlXyc/image2_vq1216_1752545258221?v=1752545258579,138.3110191,34.8591871,
212,まなとら,マナトラ,飲食業,1000,"2,000円以上会計で1,000円引き",1,425-0036,静岡県焼津市西小川2丁目4-19ジェネス1F,054-631-5915,"月〜土　17:00〜23:00
定休日：日曜日",,,https://firebasestorage.googleapis.com/v0/b/the-coupon.appspot.com/o/coupon%2Fimage%2FfhmU4woIZSbiizWBXBWQ%2F01_%20restaurant.svg?alt=media&token=97cefc85-0619-4b73-9c72-d208d29c233a,,138.3148041,34.843372,
213,炭火焼肉 SUPER和牛 焼肉専門店,スミビヤキニク　スーパーワギュウ　ヤキニクセンモンテン,飲食業,1000,"2,000円以上会計で1,000円引き",1,425-0041,静岡県焼津市石津638,054-623-2929,,http://www.superwagyu.com/,,https://firebasestorage.googleapis.com/v0/b/the-coupon.appspot.com/o/coupon%2Fimage%2FgmsHdw0A2EsJoAwc9J6v%2F6jq2j3bf?alt=media&token=b9aa05c5-3b02-4245-af0f-78ce8398412a,,138.3148041,34.843372,
214,焼肉のかねまる　焼津店,ヤキニクノカネマルヤイヅテン,飲食業,1000,"2,000円以上会計で1,000円引き",1,425-0031,静岡県焼津市小川新町4-1-1,054-631-5529,,https://niku-kanemaru.com/71793/%E7%84%BC%E8%82%89%E3%81%AE%E3%81%8B%E3%81%AD%E3%81%BE%E3%82%8B/%E7%84%BC%E6%B4%A5%E5%BA%97/,,https://firebasestorage.googleapis.com/v0/b/the-coupon.appspot.com/o/coupon%2Fimage%2FfhmU4woIZSbiizWBXBWQ%2F01_%20restaurant.svg?alt=media&token=97cefc85-0619-4b73-9c72-d208d29c233a,,138.3151803,34.862013,
215,四代目肉の良知,ヨンダイメニクノラチ,飲食業,1000,"2,000円以上会計で1,000円引き",1,425-0026,静岡県焼津市焼津4丁目3-7,050-1195-0242,,https://niku-kanemaru.com/71793/%E5%9B%9B%E4%BB%A3%E7%9B%AE%E8%82%89%E3%81%AE%E8%89%AF%E7%9F%A5/,,https://firebasestorage.googleapis.com/v0/b/the-coupon.appspot.com/o/coupon%2Fimage%2FfhmU4woIZSbiizWBXBWQ%2F01_%20restaurant.svg?alt=media&token=97cefc85-0619-4b73-9c72-d208d29c233a,,138.3151803,34.862013,
216,焼肉のかねまる　西焼津店,ヤキニクノカネマルニシヤイヅテン,飲食業,1000,"2,000円以上会計で1,000円引き",1,425-0073,静岡県焼津市小柳津224-1,054-629-8929,,https://niku-kanemaru.com/71793/%E7%84%BC%E8%82%89%E3%81%AE%E3%81%8B%E3%81%AD%E3%81%BE%E3%82%8B/%E8%A5%BF%E7%84%BC%E6%B4%A5%E5%BA%97/,,https://firebasestorage.googleapis.com/v0/b/the-coupon.appspot.com/o/coupon%2Fimage%2FfhmU4woIZSbiizWBXBWQ%2F01_%20restaurant.svg?alt=media&token=97cefc85-0619-4b73-9c72-d208d29c233a,,138.298768,34.859471,
217,ハットリ製茶,ハットリセイチャ,小売業,500,"1,000円以上会計で500円引き",1,425-0071,静岡県焼津市三ケ名787-1,054-629-5057,9時から18時,,https://www.instagram.com/hattoriseicha.yaidu/,https://firebasestorage.googleapis.com/v0/b/the-coupon.appspot.com/o/coupon%2Fimage%2FfhmU4woIZSbiizWBXBWQ%2F02_shop.svg?alt=media&token=2b44240e-338b-4fa7-8ee5-8c11a404b9db,,138.3103659,34.827523,
218,ハンドメイドサロン Violalily,ハンドメイドサロン ヴィオラリリー,その他,500,"1,000円以上会計で500円引き",1,425-0054,静岡県焼津市一色808-1,080-2247-5907,,,https://www.instagram.com/violalily73/,https://image.the-coupon.jp/coupon/image/8RoFLigDBciedM6AlXyc/kc8523_1752545272718?v=1752545273343,,138.2638886,34.8069789,
219,吉津屋商店,ヨシヅヤショウテン,小売業,1000,"2,000円以上会計で1,000円引き",1,421-0216,静岡県焼津市相川1057-1,054-622-3035,,,https://www.instagram.com/yoshizuyasyouten/,https://firebasestorage.googleapis.com/v0/b/the-coupon.appspot.com/o/coupon%2Fimage%2FTfBGvRWVeKHcoq5PasIT%2Flr4394?alt=media&token=a9f8caaa-fb58-41ce-a790-dab800b80cd5,,138.3150162,34.8436287,
220,Dolce Garden W,ドルチェガーデンダブリュウ,飲食業,500,"1,000円以上会計で500円引き",1,425-0041,静岡県焼津市石津2丁目1-4,090-3630-8302,営業時間9時30分〜16時30分(ラストオーダー16時),,https://www.instagram.com/dolcegarden_w/,https://image.the-coupon.jp/coupon/image/8RoFLigDBciedM6AlXyc/ub0837_1752545288905?v=1752545289266,,138.3085084,34.8473365,
221,コハマ小川店,コハマコガワテン,小売業,500,"1,000円以上会計で500円引き",1,425-0037,静岡県焼津市南小川1丁目17番地５,054-656-0070,,,https://www.instagram.com/kohamakogawa/,https://firebasestorage.googleapis.com/v0/b/the-coupon.appspot.com/o/coupon%2Fimage%2FgmsHdw0A2EsJoAwc9J6v%2Ftaofywtj?alt=media&token=10e05fae-b669-4697-910b-041e7cf4102d,,138.2899879,34.8469111,
222,真弥,シンヤ,飲食業,1000,"2,000円以上会計で1,000円引き",1,425-0072,静岡県焼津市大住711-2,054-620-3577,"（昼）9：00〜14：00
（夜）予約
（定休日）水曜日",,https://www.instagram.com/yaizu_shinya/,https://firebasestorage.googleapis.com/v0/b/the-coupon.appspot.com/o/coupon%2Fimage%2FgmsHdw0A2EsJoAwc9J6v%2Futpkfami?alt=media&token=2f413afa-91ce-4f51-b530-de63728912bd,,138.332777,34.839996,
223,ヘアモードスカイ,ヘアモードスカイ,その他,1000,"2,000円以上会計で1,000円引き",1,425-0051,静岡県焼津市田尻北1501-7,054-624-7245,,,,https://firebasestorage.googleapis.com/v0/b/the-coupon.appspot.com/o/coupon%2Fimage%2FTfBGvRWVeKHcoq5PasIT%2Fcs2962?alt=media&token=6af409b7-5307-4446-a906-fc4856dac58a,,138.312935,34.8586222,
224,洋菓子屋アイリー,ヨウガシヤアイリー,飲食業,1000,"2,000円以上会計で1,000円引き",1,425-0035,静岡県焼津市東小川2-17-5,054-620-3800,,,,https://firebasestorage.googleapis.com/v0/b/the-coupon.appspot.com/o/coupon%2Fimage%2FgmsHdw0A2EsJoAwc9J6v%2F1m4j2x7q.jpg?alt=media&token=8c796c57-a4bd-4458-8933-a851e648d9ad,,138.3202952,34.8698005,
225,ハンドメイド＆雑貨のお店　KURISANCHI,ハンドメイドアンドザッカノオミセ　クリサンチ,小売業,1000,"2,000円以上会計で1,000円引き",1,425-0027,静岡県焼津市栄町3-3-32,非公開,,,https://www.instagram.com/kurisanchi/,https://image.the-coupon.jp/coupon/image/8RoFLigDBciedM6AlXyc/ub3273_1752545306542?v=1752545306916,https://image.the-coupon.jp/coupon/image/8RoFLigDBciedM6AlXyc/image2_ub3273_1752545306916?v=1752545307297,138.2975781,34.8659015,
226,RISE,ライズ,その他,500,"1,000円以上会計で500円引き",1,425-0086,静岡県焼津市小土644-7,054-629-8990,,,https://www.instagram.com/explore/,https://firebasestorage.googleapis.com/v0/b/the-coupon.appspot.com/o/coupon%2Fimage%2FgmsHdw0A2EsJoAwc9J6v%2Fic91p5cp?alt=media&token=9b4ba4a6-a6a9-44bb-9bea-fcb9f1470485,,138.2975734,34.8658951,
227,エステルーム Ruby,エステルームルビー,その他,1000,"2,000円以上会計で1,000円引き",1,425-0086,静岡県焼津市小土644-7,054-620-2022,,https://page.line.me/iuu9038p,,https://firebasestorage.googleapis.com/v0/b/the-coupon.appspot.com/o/coupon%2Fimage%2FgmsHdw0A2EsJoAwc9J6v%2Fcphmbyhr?alt=media&token=eeeb9746-aa2c-4219-80e5-f74785cee548,,138.3167112,34.8711937,
228,ムーチョ　メキシカンダイニング,ムーチョ　メキシカンダイニング,飲食業,1000,"2,000円以上会計で1,000円引き",1,425-0027,静岡県焼津市栄町1丁目8-14デイジービル2F,054-269-4134,,,https://www.instagram.com/yaizu.mucho/,https://firebasestorage.googleapis.com/v0/b/the-coupon.appspot.com/o/coupon%2Fimage%2FgmsHdw0A2EsJoAwc9J6v%2Fujfxb9a8?alt=media&token=ae73c4d1-0b73-4d47-af22-30495a9b6c66,,138.319676,34.867137,
229,松屋,マツヤ,小売業,1000,"2,000円以上会計で1,000円引き",1,425-0028,静岡県焼津市栄町5-5-1,054-628-3360,魚屋とランチ、両方利用できます。,,,https://image.the-coupon.jp/coupon/image/8RoFLigDBciedM6AlXyc/kh5109_1752545324976?v=1752545325299,https://image.the-coupon.jp/coupon/image/8RoFLigDBciedM6AlXyc/image2_kh5109_1752545325299?v=1752545325637,138.316432,34.864826,
230,菓子職人リリピット,カシショクニンリリピット,飲食業,500,"1,000円以上会計で500円引き",1,425-0026,静岡県焼津市焼津2-1-7,054-689-1693,,https://www.riripitto.com/,,https://firebasestorage.googleapis.com/v0/b/the-coupon.appspot.com/o/coupon%2Fimage%2FgmsHdw0A2EsJoAwc9J6v%2Fqfb8vmz2?alt=media&token=adc0dcd7-2d9d-490d-b71f-eb314359b08d,,138.3159303,34.8663615,
231,薬のふくち,クスリノフクチ,小売業,1000,"2,000円以上会計で1,000円引き",1,425-0026,静岡県焼津市焼津1-3-21,054-629-3114,"営業時間9：00〜19：００
日曜・祝日定休日",http://fukutids.com/,https://www.instagram.com/kusurinofukuchi/,https://firebasestorage.googleapis.com/v0/b/the-coupon.appspot.com/o/coupon%2Fimage%2FgmsHdw0A2EsJoAwc9J6v%2Fm7jnvuja?alt=media&token=c9042c16-0cb5-4c34-a792-88e3fe8c8813,,138.3159303,34.8663615,
232,中国パレス,チャイナパレス,飲食業,1000,"2,000円以上会計で1,000円引き",1,425-0037,静岡県焼津市南小川1丁目18-4,054-624-9222,"第二弾(1/24〜2/2)のみ参加させて下さい

第一弾(11/22〜12/1)は不参加でお願いします",http://www.chaipare.com/,https://www.instagram.com/chinapalace_official/,https://image.the-coupon.jp/coupon/image/8RoFLigDBciedM6AlXyc/mh4967_1752545346215?v=1752545346618,,138.3187351,34.8714216,
233,ダイニングバーbj,ダイニングバービージェー,飲食業,1000,"2,000円以上会計で1,000円引き",1,425-0027,静岡県焼津市栄町1丁目2-11小林ビル2F,054-625-7620,,,,https://firebasestorage.googleapis.com/v0/b/the-coupon.appspot.com/o/coupon%2Fimage%2FgmsHdw0A2EsJoAwc9J6v%2F64w8wjt4?alt=media&token=f690e98e-6a37-4351-96db-48bec1aafcae,,138.3211591,34.8609497,
234,足平蒲鉾,アシヘイカマボコ,小売業,500,"1,000円以上会計で500円引き",1,425-0022,静岡県焼津市本町6-7-9,054-628-3008,"営業日　火曜〜土曜
営業時間　11：00〜16：00
定休日　日曜・月曜",https://www.ashihei.com/,,https://firebasestorage.googleapis.com/v0/b/the-coupon.appspot.com/o/coupon%2Fimage%2FTfBGvRWVeKHcoq5PasIT%2Ffp9674?alt=media&token=3f095c43-38b1-408b-b422-517d2a7b74ed,,138.3184631,34.87139,
235,たこ焼き＆スマイル,タコヤキアンドスマイル,飲食業,500,"1,000円以上会計で500円引き",1,425-0027,静岡県焼津市栄町1丁目5-17,080-9472-6286,"定休日：月曜日（月曜が祝日の場合は翌日が休業）
営業時間：
火曜日〜土曜日／11時-14時、16時-24時
日曜日、祝日／10時ｰ14時、15時-19時",,https://www.instagram.com/tako__suma/,https://firebasestorage.googleapis.com/v0/b/the-coupon.appspot.com/o/coupon%2Fimage%2FfhmU4woIZSbiizWBXBWQ%2F01_%20restaurant.svg?alt=media&token=97cefc85-0619-4b73-9c72-d208d29c233a,,138.322317,34.85903,
236,川口呉服店,カワグチゴフクテン,小売業,1000,"2,000円以上会計で1,000円引き",1,425-0031,静岡県焼津市小川新町1丁目14-14,054-629-5290,"9:00~18:00
定休日　毎週月曜日",http://www.kawaguchigofukuten.com/,,https://firebasestorage.googleapis.com/v0/b/the-coupon.appspot.com/o/coupon%2Fimage%2FfhmU4woIZSbiizWBXBWQ%2F02_shop.svg?alt=media&token=2b44240e-338b-4fa7-8ee5-8c11a404b9db,,138.3128067,34.8432411,
237,スウィングスポーツ,スウィングスポーツ,小売業,1000,"2,000円以上会計で1,000円引き",1,425-0041,静岡県焼津市石津2-4-7,054-624-7544,"営業時間　10：00〜19：30
定休日　水曜日",https://swing-sports.jimdofree.com/,,https://image.the-coupon.jp/coupon/image/8RoFLigDBciedM6AlXyc/co8944_1752545383573?v=1752545384129,https://image.the-coupon.jp/coupon/image/8RoFLigDBciedM6AlXyc/image2_co8944_1752545384129?v=1752545384355,138.300337,34.85463,
238,杉山安商店,スギヤマヤスショウテン,小売業,1000,"2,000円以上会計で1,000円引き",1,425-0071,静岡県焼津市三ケ名392,070-6580-3012,営業時間　午後1：00〜6：00,https://sugiyasu-uogashi.com/,,https://firebasestorage.googleapis.com/v0/b/the-coupon.appspot.com/o/coupon%2Fimage%2FfhmU4woIZSbiizWBXBWQ%2F02_shop.svg?alt=media&token=2b44240e-338b-4fa7-8ee5-8c11a404b9db,,138.2902429,34.858442,
239,ゴルフドゥ西焼津店,ゴルフドゥニシヤイヅテン,小売業,1000,"2,000円以上会計で1,000円引き",1,425-0074,静岡県焼津市柳新屋843,054-631-7258,6/30　担当者　増田太地　⇒　鈴木　一成へ変更。　　増田,https://www.golfdo.co.jp/tenpo/list/nishiyaizu.html,,https://firebasestorage.googleapis.com/v0/b/the-coupon.appspot.com/o/coupon%2Fimage%2FfhmU4woIZSbiizWBXBWQ%2F02_shop.svg?alt=media&token=2b44240e-338b-4fa7-8ee5-8c11a404b9db,,138.3230669,34.8689846,
240,新屋食堂アヤナイ,アラヤショクドウアヤナイ,飲食業,1000,"2,000円以上会計で1,000円引き",1,425-0022,静岡県焼津市本町1-4-13,054-629-7363,,https://arayashokudouayanai.jp/,,https://image.the-coupon.jp/coupon/image/8RoFLigDBciedM6AlXyc/az7488_1752545398723?v=1752545399153,,138.3101134,34.8453564,
241,SPORTS SHOP Kona,スポーツショップコナ,小売業,1000,"2,000円以上会計で1,000円引き",1,425-0034,静岡県焼津市与惣次１丁目18-29,054-270-3560,,,https://www.instagram.com/sports.shop.kona/,https://firebasestorage.googleapis.com/v0/b/the-coupon.appspot.com/o/coupon%2Fimage%2FgmsHdw0A2EsJoAwc9J6v%2F89vcw3ao?alt=media&token=176279a9-a117-4a0d-bb62-5cf176d394de,,138.3015092,34.8582576,
243,石原水産マリンステーション,イシハラスイサンマリンステーション,小売業,1000,"2,000円以上会計で1,000円引き",1,425-0091,静岡県焼津市八楠2-5-2,054-629-7420,,https://ishiharasuisan.co.jp/,,https://image.the-coupon.jp/coupon/image/8RoFLigDBciedM6AlXyc/nt0673_1752545416280?v=1752545416614,https://image.the-coupon.jp/coupon/image/8RoFLigDBciedM6AlXyc/image2_nt0673_1752545416614?v=1752545416916,138.3170188,34.844292,
244,リラクゼーションサロンASPLIR,リラクゼーシヨンサロン　アスプリール,その他,1000,"2,000円以上会計で1,000円引き",1,425-0041,静岡県焼津市石津3丁目22-6,090-5628-8191,,https://asplir0615.amebaownd.com/,https://www.instagram.com/asplir0615/,https://image.the-coupon.jp/coupon/image/8RoFLigDBciedM6AlXyc/qp7175_1752545436498?v=1752545436830,,138.311339,34.8549213,
245,メチャ安のやおや　すゞや,メチャヤスノヤオヤスズヤ,小売業,500,"1,000円以上会計で500円引き",1,425-0035,静岡県焼津市東小川5丁目12-3,054-628-5487,"月〜土　7：30〜18：00
定休日　毎週日曜日",,,https://firebasestorage.googleapis.com/v0/b/the-coupon.appspot.com/o/coupon%2Fimage%2FfhmU4woIZSbiizWBXBWQ%2F02_shop.svg?alt=media&token=2b44240e-338b-4fa7-8ee5-8c11a404b9db,,138.3107609,34.8400924,
246,トレジュエ,トレジュエ,小売業,500,"1,000円以上会計で500円引き",1,425-0041,静岡県焼津市石津1-19-2,054-397-5053,,https://www.instagram.com/tresjouer/,https://www.instagram.com/tresjouer/,https://image.the-coupon.jp/coupon/image/8RoFLigDBciedM6AlXyc/lh9848_1752545461882?v=1752545462253,https://image.the-coupon.jp/coupon/image/8RoFLigDBciedM6AlXyc/image2_lh9848_1752545462253?v=1752545462591,138.287539,34.8509782,
247,そば屋案山棒,ソバヤアンサンボウ,飲食業,500,"1,000円以上会計で500円引き",1,425-0072,静岡県焼津市大住99,054-627-7222,クーポンは、朝そばと昼そばでお使いいただけます。,,https://www.instagram.com/ansanbow_yukarin/,https://image.the-coupon.jp/coupon/image/8RoFLigDBciedM6AlXyc/kr1857_1752545479922?v=1752545480260,https://image.the-coupon.jp/coupon/image/8RoFLigDBciedM6AlXyc/image2_kr1857_1752545480260?v=1752545480682,138.3245749,34.8731116,
248,PORTERS CAFE,ポーターズカフェ,飲食業,500,"1,000円以上会計で500円引き",1,425-0021,静岡県焼津市中港3-1-16 焼津POTERS 1Fフードコート内,090-1207-5439,,,,https://firebasestorage.googleapis.com/v0/b/the-coupon.appspot.com/o/coupon%2Fimage%2FgmsHdw0A2EsJoAwc9J6v%2F283?alt=media&token=23d9aa6e-6758-451b-91ab-4685dcb50586,,138.3245966,34.8731746,
249,こめふく,コメフク,飲食業,500,"1,000円以上会計で500円引き",1,425-0021,静岡県焼津市中港3-1-16 焼津POTERS 1Fフードコート内,090-3349-5029,,https://sites.google.com/view/komefuku-yaizu/%E3%83%9B%E3%83%BC%E3%83%A0,https://www.instagram.com/komefuku_yaizu/,https://image.the-coupon.jp/coupon/image/8RoFLigDBciedM6AlXyc/ad0908_1752546024395?v=1752546025072,https://image.the-coupon.jp/coupon/image/8RoFLigDBciedM6AlXyc/image2_ad0908_1752546025072?v=1752546025480,138.3247597,34.8732156,
251,大鈴屋豆腐店　焼津店,オオスズヤトウフテン　ヤイヅテン,飲食業,500,"1,000円以上会計で500円引き",1,425-0035,静岡県焼津市東小川8-12-8 A号棟,054-665-6267,,https://www.suruga2525.com/,https://www.instagram.com/oosuzuyatofu/,https://image.the-coupon.jp/coupon/image/8RoFLigDBciedM6AlXyc/pb8924_1752546047085?v=1752546047462,https://image.the-coupon.jp/coupon/image/8RoFLigDBciedM6AlXyc/image2_pb8924_1752546047462?v=1752546047891,138.3052084,34.8806688,
252,名代とんかつ　勝富　焼津インター店,ナダイトンカツ　カツトミ　ヤイズインターテン,飲食業,1000,"2,000円以上会計で1,000円引き",1,425-0091,静岡県焼津市八楠4-12-29,054-620-1003,,http://www.autobacs.net/katsutomi-web/,,https://firebasestorage.googleapis.com/v0/b/the-coupon.appspot.com/o/coupon%2Fimage%2FgmsHdw0A2EsJoAwc9J6v%2F288?alt=media&token=7ddbef47-f172-4de5-9a2e-f94e03847e83,,138.3032547,34.8774314,
253,オートバックス　焼津店,オートバックスヤイヅテン,小売業,1000,"2,000円以上会計で1,000円引き",1,425-0088,静岡県焼津市大覚寺1丁目1番地の3,054-629-2807,,https://www.autobacs.com/store/top/top?store=119005,,https://firebasestorage.googleapis.com/v0/b/the-coupon.appspot.com/o/coupon%2Fimage%2FgmsHdw0A2EsJoAwc9J6v%2F289?alt=media&token=53fda2d3-f803-4ddd-a37a-e9cbb24f49f4,,138.3048023,34.8772615,
254,まいどおおきに焼津八楠食堂,マイドオオキニヤイズヤグスショクドウ,飲食業,500,"1,000円以上会計で500円引き",1,425-0091,静岡県焼津市八楠4-2-3,054-626-7500,,https://www.fujiofood.com/shop_search/shokudo/shop_0861.php,,https://firebasestorage.googleapis.com/v0/b/the-coupon.appspot.com/o/coupon%2Fimage%2FgmsHdw0A2EsJoAwc9J6v%2F290?alt=media&token=ae803655-b83a-4f9f-a024-c645d9016e3e,,138.32017,34.843681,
256,private salon Lino,プライベート　サロン　リノ,その他,1000,"2,000円以上会計で1,000円引き",1,425-0086,静岡県焼津市小土539-5,,,https://lin.ee/T4SkVit,https://www.instagram.com/private_salon_lino_/,https://firebasestorage.googleapis.com/v0/b/the-coupon.appspot.com/o/coupon%2Fimage%2FgmsHdw0A2EsJoAwc9J6v%2F292?alt=media&token=683604b9-b49f-4ff3-893b-ca8eddb69ad7,,138.3008688,34.868965,
258,（株）寺岡銈吉商店,テラオカケイキチショウテン,小売業,1000,"2,000円以上会計で1,000円引き",1,425-0026,静岡県焼津市焼津6丁目4-16,054-628-3669,"平日：10：00-17：00
土曜：10：00-14：00
日曜祝日定休",https://terakei.official.ec/,https://www.instagram.com/mytsukudani3/,https://image.the-coupon.jp/coupon/image/8RoFLigDBciedM6AlXyc/xd5369_1752546110161?v=1752546110488,https://image.the-coupon.jp/coupon/image/8RoFLigDBciedM6AlXyc/image2_xd5369_1752546110488?v=1752546110745,138.3236064,34.8602365,
259,川直　工場直売所,カワナオ　コウジョウチョクバイジョ,小売業,500,"1,000円以上会計で500円引き",1,425-0025,静岡県焼津市城之腰15,054-628-2306,,https://kawanao.buyshop.jp/,https://www.instagram.com/kawanao_yaizu/,https://firebasestorage.googleapis.com/v0/b/the-coupon.appspot.com/o/coupon%2Fimage%2FfhmU4woIZSbiizWBXBWQ%2F02_shop.svg?alt=media&token=2b44240e-338b-4fa7-8ee5-8c11a404b9db,,138.319238,34.825962,
260,ラボコスメSHIBAHARA,ラボコスメ　シバハラ,小売業,1000,"2,000円以上会計で1,000円引き",1,425-0052,静岡県焼津市田尻1685,054-624-5791,"営業時間　9:00-19:00
定休日　火曜日
",http://lifeasart.jp,https://www.instagram.com/labcosmeshibahara/,https://image.the-coupon.jp/coupon/image/8RoFLigDBciedM6AlXyc/rg8886_1752546131479?v=1752546131848,https://image.the-coupon.jp/coupon/image/8RoFLigDBciedM6AlXyc/image2_rg8886_1752546131848?v=1752546132196,138.2930244,34.8696315,
261,Second Life～自然療法～,セカンドライフ　シゼンリョウホウ,その他,1000,"2,000円以上会計で1,000円引き",1,425-0086,静岡県焼津市小土224-2,080-1550-6812,,http://secondlife-relaxation.com,https://www.instagram.com/second_life_relaxation/,https://image.the-coupon.jp/coupon/image/8RoFLigDBciedM6AlXyc/it2613_1752897349471?v=1752897349914,,138.3066291,34.8836845,
263,Fiorita,フィオリータ,飲食業,1000,"2,000円以上会計で1,000円引き",1,425-0028,静岡県焼津市駅北4-7-11,054-621-5366,,,https://www.instagram.com/fiorita1220/,https://image.the-coupon.jp/coupon/image/8RoFLigDBciedM6AlXyc/fj5458_1752546195075?v=1752546195481,https://image.the-coupon.jp/coupon/image/8RoFLigDBciedM6AlXyc/image2_fj5458_1752546195481?v=1752546195860,138.319012,34.870892,
264,大國家,オオクニヤ,小売業,500,"1,000円以上会計で500円引き",1,425-0027,静岡県焼津市栄町1-3-7,054-628-2212,,https://r.goope.jp/ok2212/,,https://image.the-coupon.jp/coupon/image/8RoFLigDBciedM6AlXyc/ig6691_1752898982685?v=1752898983098,,138.3146868,34.8644585,
265,写真のサクライ,シャシンノサクライ,小売業,1000,"2,000円以上会計で1,000円引き",1,425-0026,静岡県焼津市焼津2丁目6-2,054-626-4886,,https://www.shizuokaphoto.com,,https://image.the-coupon.jp/coupon/image/8RoFLigDBciedM6AlXyc/gt0420_1752892185029?v=1752892185481,,138.2990333,34.8696812,
266,ＯＡナガシマ志太店,オーエーナガシマシダテン,小売業,1000,"2,000円以上会計で1,000円引き",1,425-0086,静岡県焼津市小土471-1,054-620-8290,,https://www.zoa.co.jp,,https://image.the-coupon.jp/coupon/image/8RoFLigDBciedM6AlXyc/rl2863_1752892619189?v=1752892619413,,138.3218113,34.8630073,
267,メガネのサトウ,メガネノサトウ,小売業,1000,"2,000円以上会計で1,000円引き",1,425-0022,静岡県焼津市本町5-11-3,054-628-4491,営業時間　9:30~18:00,http://www2.tokai.or.jp/sugar/,,https://image.the-coupon.jp/coupon/image/8RoFLigDBciedM6AlXyc/dk0607_1752893628867?v=1752893629348,,138.321384,34.864715,
269,石窯パン工房パトン　焼津店,イシガマパンコウボウパトン　ヤイヅテン,飲食業,500,"1,000円以上会計で500円引き",1,425-0037,静岡県焼津市南小川2丁目27-1,054-656-0810,,https://paton0810.com,,https://image.the-coupon.jp/coupon/image/8RoFLigDBciedM6AlXyc/iz8628_1752899340532?v=1752899340982,,138.3019585,34.8205485,
270,ケーキショップ　Kettlewhistle,ケーキショップ　ケトルホイッスル,飲食業,500,"1,000円以上会計で500円引き",1,425-0066,静岡県焼津市大島1779-2,054-625-9501,特にありません。,,https://www.instagram.com/kettle_whistle/,https://image.the-coupon.jp/coupon/image/8RoFLigDBciedM6AlXyc/nn4691_1752546229630?v=1752546230003,https://image.the-coupon.jp/coupon/image/8RoFLigDBciedM6AlXyc/image2_nn4691_1752546230003?v=1752546230334,138.3253883,34.8470768,
271,居酒屋ぽぱい,イザカヤポパイ,飲食業,1000,"2,000円以上会計で1,000円引き",1,425-0033,静岡県焼津市小川3346,054-624-8068,,,,https://image.the-coupon.jp/coupon/image/8RoFLigDBciedM6AlXyc/lx4897_1752892373341?v=1752892374211,,138.3205752,34.8710674,
272,母ちゃんの台所ふく,カアチャンノダイドコロフク,飲食業,1000,"2,000円以上会計で1,000円引き",1,425-0027,静岡県焼津市栄町2-7-24,054-631-9862,パン教室の講座代金には使えません,https://oc3ja.hp.peraichi.com/,https://www.instagram.com/baba_no_siro/,https://image.the-coupon.jp/coupon/image/8RoFLigDBciedM6AlXyc/hu5506_1752546267893?v=1752546268335,https://image.the-coupon.jp/coupon/image/8RoFLigDBciedM6AlXyc/image2_hu5506_1752546268335?v=1752546268980,138.322852,34.8630776,
273,クリーニングのみやうち,クリーニングノミヤウチ,その他,500,"1,000円以上会計で500円引き",1,425-0022,静岡県焼津市本町4-19-8,054-628-3842,,https://cleaning-miyauchi.wixsite.com/cleaning-miyauchi,,https://firebasestorage.googleapis.com/v0/b/the-coupon.appspot.com/o/coupon%2Fimage%2FTfBGvRWVeKHcoq5PasIT%2Fps3283?alt=media&token=f0dc97d2-7d5b-4764-99e7-d96b464d8772,,138.3164387,34.8701519,
274,からあげ専門店　鶏笑焼津駅前店,カラアゲセンモンテン　トリショウヤイヅエキマエテン,飲食業,500,"1,000円以上会計で500円引き",1,425-0027,静岡県焼津市栄町1-12-8,054-628-7643,"営業時間
11時〜14時
17時〜20時

火曜日定休日",https://srs-holdings.co.jp/,https://www.instagram.com/torishou.yaizu/,https://image.the-coupon.jp/coupon/image/8RoFLigDBciedM6AlXyc/du0670_1752898353997?v=1752898354299,,138.3028342,34.8408553,
275,洋品のさくらや,ヨウヒンノサクラヤ,小売業,1000,"2,000円以上会計で1,000円引き",1,425-0047,静岡県焼津市東祢宜島１７ー7,054-623-1709,,,,https://image.the-coupon.jp/coupon/image/8RoFLigDBciedM6AlXyc/rc4837_1752546283249?v=1752546283652,,138.3083224,34.8611505,
276,牛阿呆,ウシアホウ,飲食業,1000,"2,000円以上会計で1,000円引き",1,425-0036,静岡県焼津市西小川2-10-19,054-639-6147,,https://ushiahou.com,,https://image.the-coupon.jp/coupon/image/8RoFLigDBciedM6AlXyc/cy1010_1752546296600?v=1752546296931,,138.3083224,34.8611505,
278,オリジナルジュエル宝石箱,オリジナルジュエルホウセキバコ,小売業,1000,"2,000円以上会計で1,000円引き",1,425-0022,静岡県焼津市本町4-2-11,054-627-4114,,,https://www.instagram.com/yaizu.housekibako/,https://image.the-coupon.jp/coupon/image/8RoFLigDBciedM6AlXyc/zd9957_1752546312711?v=1752546313458,https://image.the-coupon.jp/coupon/image/8RoFLigDBciedM6AlXyc/image2_zd9957_1752546313458?v=1752546314048,138.2832922,34.8586687,
279,食事処すずき,ショクジドコロスズキ,飲食業,500,"1,000円以上会計で500円引き",1,425-0075,静岡県焼津市西焼津32-1ラポート102,090-3589-1564,,,,https://firebasestorage.googleapis.com/v0/b/the-coupon.appspot.com/o/coupon%2Fimage%2FfhmU4woIZSbiizWBXBWQ%2F01_%20restaurant.svg?alt=media&token=97cefc85-0619-4b73-9c72-d208d29c233a,,138.2836199,34.8656399,
280,酒蔵いとう,サカグライトウ,小売業,1000,"2,000円以上会計で1,000円引き",1,425-0087,静岡県焼津市保福島1135,054-628-4030,"定休日：月曜日/第二・第四火曜日
営業時間：朝9時〜夜7時まで。",https://www.ito-sake.info/,https://www.instagram.com/ito.saketen/,https://image.the-coupon.jp/coupon/image/8RoFLigDBciedM6AlXyc/vm8166_1752546324735?v=1752546325168,,138.319409,34.833741,
281,ペットの美容室　犬のしっぽ,ペットノビヨウシツ　イヌノシッポ,その他,1000,"2,000円以上会計で1,000円引き",1,425-0058,静岡県焼津市北新田287,054-624-7527,,https://inunosippo.jimdofree.com/,https://www.instagram.com/inunosippo5133/,https://image.the-coupon.jp/coupon/image/8RoFLigDBciedM6AlXyc/it8522_1752894440827?v=1752894441362,,138.3086142,34.8518911,
282,櫻や,サクラヤ,飲食業,1000,"2,000円以上会計で1,000円引き",1,425-0035,静岡県焼津市東小川7丁目19-8,054-621-6100,,,,https://image.the-coupon.jp/coupon/image/8RoFLigDBciedM6AlXyc/pm1454_1752900882258?v=1752900882763,,138.3227847,34.8675905,
283,カルマカフェ　Karma Cafe,カルマカフェ,飲食業,500,"1,000円以上会計で500円引き",1,425-0022,静岡県焼津市本町2-16-45,054-631-5103,,https://www.zentrayoga.com/karma-cafe,https://www.instagram.com/karmacafeom/,https://image.the-coupon.jp/coupon/image/8RoFLigDBciedM6AlXyc/vv0523_1752893978635?v=1752893978996,,138.3228005,34.8675841,
284,ゼントラヨガスタジオ,ゼントラヨガスタジオ,その他,1000,"2,000円以上会計で1,000円引き",1,425-0022,静岡県焼津市本町2-16-45,054-631-5103,,https://www.zentrayoga.com,,https://image.the-coupon.jp/coupon/image/8RoFLigDBciedM6AlXyc/fd1235_1752893022284?v=1752893023125,,138.3034862,34.8540951,
287,ミナトスポーツ,ミナトスポーツ,小売業,1000,"2,000円以上会計で1,000円引き",1,425-0071,静岡県焼津市三ヶ名1341-2,054-628-7738,,,,https://image.the-coupon.jp/coupon/image/8RoFLigDBciedM6AlXyc/fc0779_1752890578111?v=1752890578561,,138.296492,34.796149,
288,べんてん,ベンテン,小売業,1000,"2,000円以上会計で1,000円引き",1,421-0211,静岡県焼津市吉永777,054-622-0107,,,,https://image.the-coupon.jp/coupon/image/8RoFLigDBciedM6AlXyc/qr3185_1752891844686?v=1752891845188,,138.3213297,34.8619558,
289,ルアーショップ・マスオカ,ルアーショップマスオカ,小売業,1000,"2,000円以上会計で1,000円引き",1,425-0022,静岡県焼津市本町5-8-15,054-628-5650,,https://masuoka.link/,,https://image.the-coupon.jp/coupon/image/8RoFLigDBciedM6AlXyc/oq5203_1752900220019?v=1752900220591,,138.2843713,34.8486562,
290,リンクス西焼津ゴルフガーデン,リンクスニシヤイヅゴルフガーデン,その他,500,"1,000円以上会計で500円引き",1,425-0072,静岡県焼津市大住406-1,054-626-6211,"クーポンは売店商品のみ利用可
ICカードへのチャージは利用不可",https://linksnishiyaizugolfgarden.jimdofree.com/,,https://image.the-coupon.jp/coupon/image/8RoFLigDBciedM6AlXyc/qx6455_1752890767110?v=1752890767468,,138.322014,34.865068,
291,美Ｆｒｉｅｎｄｓサカエヤ,ビフレンズサカエヤ,小売業,500,"1,000円以上会計で500円引き",1,425-0022,静岡県焼津市本町3-7-5,054-628-2871,"営業時間　１０時〜18時　（水曜定休）
",https://www.kireie.com/shop/shizuoka/22212/3291/,,https://image.the-coupon.jp/coupon/image/8RoFLigDBciedM6AlXyc/kk2025_1752891737942?v=1752891738438,,138.322014,34.865068,
292,さいとう農園カフェtete,サイトウノウエンカフェテテ,飲食業,1000,"2,000円以上会計で1,000円引き",1,425-0066,静岡県焼津市大島1329,070-8394-6869,,https://www.saitounouen-yaizu.com/,https://www.instagram.com/saito.nouen/,https://image.the-coupon.jp/coupon/image/8RoFLigDBciedM6AlXyc/nw5428_1752546357387?v=1752546357987,https://image.the-coupon.jp/coupon/image/8RoFLigDBciedM6AlXyc/image2_nw5428_1752546357987?v=1752546358321,138.312974,34.8590311,
293,麺のWA,メンノワ,飲食業,500,"1,000円以上会計で500円引き",1,425-0035,静岡県焼津市東小川2-17-13マンション小池Ｃ,,,https://www.instagram.com/men_nowa,https://www.instagram.com/men_nowa/,https://image.the-coupon.jp/coupon/image/8RoFLigDBciedM6AlXyc/fu3058_1752546369879?v=1752546370434,,138.32189,34.8716788,
294,アンビアオートサーヴィス,アンビアオートサーヴィス,その他,1000,"2,000円以上会計で1,000円引き",1,425-0021,静岡県焼津市中港１丁目3-4,054-628-6305,,http://www.ambia.co.jp/autotop.html,,https://image.the-coupon.jp/coupon/image/8RoFLigDBciedM6AlXyc/vp5310_1752891606662?v=1752891607592,,138.3181031,34.8722553,
295,ベルマートキヨスク焼津28号,ベルマートキヨスクヤイヅ２８ゴウ,小売業,500,"1,000円以上会計で500円引き",1,425-0027,静岡県焼津市栄町1-1-1,054-620-8041,,,,https://image.the-coupon.jp/coupon/image/8RoFLigDBciedM6AlXyc/wm1503_1752893465526?v=1752893465756,,138.3181031,34.8722553,
297,和食や　みさき,ワショクヤ　ミサキ,飲食業,1000,"2,000円以上会計で1,000円引き",1,425-0035,静岡県焼津市東小川7-19-6,054-671-1900,ご来店の際にはお電話いただきたいです。またお支払ですが、可能な限り現金にてお願いします。,http://www.wasyokuya-misaki.com,,https://image.the-coupon.jp/coupon/image/8RoFLigDBciedM6AlXyc/fi7982_1752889926856?v=1752889927635,,138.3134407,34.8713947,
298,焼津の小さな整体院,ヤイヅノチイサナセイタイイン,その他,1000,"2,000円以上会計で1,000円引き",1,425-0081,静岡県焼津市大栄町1-3-6,054-628-7010,,https://c-seitai.com/,,https://firebasestorage.googleapis.com/v0/b/the-coupon.appspot.com/o/coupon%2Fimage%2FTfBGvRWVeKHcoq5PasIT%2Fua0314?alt=media&token=f73fa0d5-ffe5-4603-a1e1-60108228b6e6,,138.307605,34.844179,
299,焼肉 宮（MIYA）,ヤキニクミヤ,飲食業,1000,"2,000円以上会計で1,000円引き",1,425-0041,静岡県焼津市石津2-1カネツビル1-D,054-659-8140,,https://www.hotpepper.jp/strJ003582317/,https://www.instagram.com/yakiniku.miya/,https://image.the-coupon.jp/coupon/image/8RoFLigDBciedM6AlXyc/ss3940_1752643833181?v=1752643833906,,138.3197651,34.8643706,
300,光月堂,コウゲツドウ,小売業,500,"1,000円以上会計で500円引き",1,425-0022,静岡県焼津市本町4-1-17,054-629-2331,"水曜日〜日曜日:9:30〜17:30
定休日：月曜・火曜",,,https://firebasestorage.googleapis.com/v0/b/the-coupon.appspot.com/o/coupon%2Fimage%2FfhmU4woIZSbiizWBXBWQ%2F02_shop.svg?alt=media&token=2b44240e-338b-4fa7-8ee5-8c11a404b9db,,138.288711,34.8714897,
301,らーめん まごころ,ラーメンマゴコロ,飲食業,500,"1,000円以上会計で500円引き",1,425-0088,静岡県焼津市大覚寺294-1,054-908-9480,７時30分から１３時20分迄,,,https://firebasestorage.googleapis.com/v0/b/the-coupon.appspot.com/o/coupon%2Fimage%2FfhmU4woIZSbiizWBXBWQ%2F02_shop.svg?alt=media&token=2b44240e-338b-4fa7-8ee5-8c11a404b9db,,138.2917725,34.8446936,
302,リカーズグリーン,リカーズグリーン,小売業,1000,"2,000円以上会計で1,000円引き",1,425-0068,静岡県焼津市中新田251-3,054-624-3210,"営業時間9：00〜20：00
定休日　水曜日",https://green.ocnk.net/,https://www.instagram.com/green.yaizu/,https://image.the-coupon.jp/coupon/image/8RoFLigDBciedM6AlXyc/ol6598_1752546403104?v=1752546403553,https://image.the-coupon.jp/coupon/image/8RoFLigDBciedM6AlXyc/image2_ol6598_1752546403554?v=1752546404078,138.3104778,34.8304933,
303,和人　旬の菜と旨い酒,ワジン　シュンノナトウマイサケ,飲食業,1000,"2,000円以上会計で1,000円引き",1,425-0054,静岡県焼津市一色728-1,054-623-5033,,https://www.wajin-yaizu.com/,,https://firebasestorage.googleapis.com/v0/b/the-coupon.appspot.com/o/coupon%2Fimage%2FfhmU4woIZSbiizWBXBWQ%2F02_shop.svg?alt=media&token=2b44240e-338b-4fa7-8ee5-8c11a404b9db,,138.3104778,34.8304933,
304,文具ランド弘文堂,ブングランドコウブンドウ,小売業,500,"1,000円以上会計で500円引き",1,425-0036,静岡県焼津市西小川3丁目15-5,054-628-8546,"営業時間　平日８時-18時半　土曜日8時-18時　
定休日　日曜日　＊郵便切手は対象外",,,https://image.the-coupon.jp/coupon/image/8RoFLigDBciedM6AlXyc/eg1709_1752546418185?v=1752546418587,,138.297426,34.8627796,
305,スポーツショップトータス,スポーツショップトータス,小売業,1000,"2,000円以上会計で1,000円引き",1,425-0077,静岡県焼津市五ケ堀之内834-3,054-626-3333,"営業時間　１０：００〜１８：００　
定休日　水曜日　木曜日",http://tortoise-jp.com/,https://www.instagram.com/akirakameyama/,https://image.the-coupon.jp/coupon/image/8RoFLigDBciedM6AlXyc/pn9391_1752546436238?v=1752546436444,https://image.the-coupon.jp/coupon/image/8RoFLigDBciedM6AlXyc/image2_pn9391_1752546436444?v=1752546436666,138.3098209,34.8505031,
306,食彩酒房　えびすけ,ショクサイシュボウ　エビスケ,飲食業,1000,"2,000円以上会計で1,000円引き",1,425-0035,静岡県焼津市東小川8丁目5-33,054-629-1158,17:30〜23:00 定休日：月曜日　月に1回、月曜・火曜日の連休あります。,,,https://firebasestorage.googleapis.com/v0/b/the-coupon.appspot.com/o/coupon%2Fimage%2FfhmU4woIZSbiizWBXBWQ%2F02_shop.svg?alt=media&token=2b44240e-338b-4fa7-8ee5-8c11a404b9db,,138.3098209,34.8505031,
307,東京薬局,トウキョウヤッキョク,小売業,1000,"2,000円以上会計で1,000円引き",1,425-0027,静岡県焼津市栄町3丁目7番9号,054-628-2370,"営業時間　平日：8：30〜18：00　土曜日：8：30〜15：00
休　　日　：　日曜日・祝日",https://www.yaizu-tokyoyakkyoku.com/,https://www.instagram.com/tokyoyakkyoku.tokyoblossom/,https://firebasestorage.googleapis.com/v0/b/the-coupon.appspot.com/o/coupon%2Fimage%2FfhmU4woIZSbiizWBXBWQ%2F02_shop.svg?alt=media&token=2b44240e-338b-4fa7-8ee5-8c11a404b9db,,138.3040533,34.8803856,
308,ジェリーズポップコーン　焼津インター店,ジェリーズポップコーン　ヤイズインターテン,小売業,500,"1,000円以上会計で500円引き",1,425-0091,静岡県焼津市八楠4丁目13-7　焼津さかなセンターバス駐車場付近,,,,https://www.instagram.com/jerrys_popcorn_812/,https://image.the-coupon.jp/coupon/image/8RoFLigDBciedM6AlXyc/bc3944_1752546449341?v=1752546449666,,138.311388,34.858957,
309,炭火串焼　輪,スミビクシヤキ　リン,飲食業,1000,"2,000円以上会計で1,000円引き",1,425-0036,静岡県焼津市西小川2-2-6,054-627-9171,,,,https://firebasestorage.googleapis.com/v0/b/the-coupon.appspot.com/o/coupon%2Fimage%2FfhmU4woIZSbiizWBXBWQ%2F02_shop.svg?alt=media&token=2b44240e-338b-4fa7-8ee5-8c11a404b9db,,138.2910294,34.845772,
310,VIVI　サカエヤ,ヴィヴィ　サカエヤ,小売業,1000,"2,000円以上会計で1,000円引き",1,425-0072,静岡県焼津市大住1053,054-624-7977,,,,https://firebasestorage.googleapis.com/v0/b/the-coupon.appspot.com/o/coupon%2Fimage%2FfhmU4woIZSbiizWBXBWQ%2F02_shop.svg?alt=media&token=2b44240e-338b-4fa7-8ee5-8c11a404b9db,,138.290369,34.864468,
312,セブンイレブン　焼津3丁目店,セブンイレブンヤイズサンチョウメテン,小売業,500,"1,000円以上会計で500円引き",1,425-0026,静岡県焼津市焼津3丁目9-26,054-626-5338,24時間営業,,,https://image.the-coupon.jp/coupon/image/8RoFLigDBciedM6AlXyc/hf8288_1752897716071?v=1752897716619,,138.3006807,34.8291525,
313,セブンイレブン　焼津三和店,セブンイレブンヤイズミワテン,小売業,500,"1,000円以上会計で500円引き",1,425-0064,静岡県焼津市三和1047,054-623-1153,24時間営業,,,https://image.the-coupon.jp/coupon/image/8RoFLigDBciedM6AlXyc/kj6621_1752897930911?v=1752897931621,,138.2891546,34.8501191,
314,セブンイレブン　焼津大住店,セブンイレブンヤイズオオズミテン,小売業,500,"1,000円以上会計で500円引き",1,425-0072,静岡県焼津市大住59-1,054-626-4438,24時間営業,,,https://image.the-coupon.jp/coupon/image/8RoFLigDBciedM6AlXyc/jz4153_1752898061543?v=1752898061957,,138.3075718,34.8441256,
315,焼津整体院そら,ヤイズセイタイインソラ,その他,1000,"2,000円以上会計で1,000円引き",1,425-0041,静岡県焼津市石津2-1カネツビル1-C,080-4214-5899,月曜〜土曜　9:00〜21:00 　定休日：毎週日曜日,https://seitaisora.studio.site/,https://www.instagram.com/yaizuseitaisora/,https://firebasestorage.googleapis.com/v0/b/the-coupon.appspot.com/o/coupon%2Fimage%2FfhmU4woIZSbiizWBXBWQ%2F02_shop.svg?alt=media&token=2b44240e-338b-4fa7-8ee5-8c11a404b9db,,138.321534,34.864098,
317,和菓子処　昇栄堂,ワガシドコロ　ショウエイドウ,小売業,500,"1,000円以上会計で500円引き",1,425-0077,静岡県焼津市五ケ堀之内436,054-628-6413,,,,https://image.the-coupon.jp/coupon/image/8RoFLigDBciedM6AlXyc/eb0136_1752722657207?v=1752722657713,,138.3080113,34.8486265,
318,メガネ赤札堂　焼津店,メガネアカフダドウヤイヅテン,小売業,1000,"2,000円以上会計で1,000円引き",1,425-0033,静岡県焼津市小川4014-2,054-639-5200,,https://www.megane-akafudado.com/store/yaizu.html,,https://firebasestorage.googleapis.com/v0/b/the-coupon.appspot.com/o/coupon%2Fimage%2FfhmU4woIZSbiizWBXBWQ%2F02_shop.svg?alt=media&token=2b44240e-338b-4fa7-8ee5-8c11a404b9db,,138.3111428,34.8595577,
319,焼津谷島屋登呂田店,ヤイヅヤジマヤ　トロタテン,小売業,500,"1,000円以上会計で500円引き",1,425-0036,静岡県焼津市西小川2-1-8,054-629-4848,金券類でのクーポン利用は不可,https://x.com/yaizuyajimaya,,https://image.the-coupon.jp/coupon/image/8RoFLigDBciedM6AlXyc/bm6022_1752898799029?v=1752898799448,,138.3041107,34.8797864,
320,切身・漬魚専門店　魚・魚(to・to),キリミツケウオセンモンテン　トト,小売業,500,"1,000円以上会計で500円引き",1,425-0091,静岡県焼津市八楠4-15-28,054-628-0781,定休日：日曜〜水曜・祝日（木曜不定休）　繁忙期（7月、12月等）は月曜、火曜日の営業もあり（詳しくはホームページ・Instagramにてご案内）,https://imaru-toto.com/,https://www.instagram.com/toto1010_yaizu/,https://image.the-coupon.jp/coupon/image/8RoFLigDBciedM6AlXyc/yu4496_1752890297959?v=1752890298852,,138.318723,34.871009,
321,C・E・R・A和香,セラワコウ,小売業,1000,"2,000円以上会計で1,000円引き",1,425-0027,静岡県焼津市栄町1-4-1,054-628-4459,,http://www.cerawako.com/,,https://image.the-coupon.jp/coupon/image/8RoFLigDBciedM6AlXyc/qr6021_1752889780976?v=1752889781236,,138.319454,34.865454,
322,有限会社徳田屋,トクダヤ,小売業,1000,"2,000円以上会計で1,000円引き",1,425-0026,静岡県焼津市焼津6-2-16,054-628-2748,,,,https://image.the-coupon.jp/coupon/image/8RoFLigDBciedM6AlXyc/ra7429_1752546480218?v=1752546480614,,138.307605,34.844179,
323,喜助家,キスケヤ,飲食業,500,"1,000円以上会計で500円引き",1,425-0041,静岡県焼津市黒石二丁目2-1カネツビル1階1-B,090-2260-3103,,,https://www.instagram.com/kisukeya_rush/,https://image.the-coupon.jp/coupon/image/8RoFLigDBciedM6AlXyc/sq9682_1752546501504?v=1752546501833,https://image.the-coupon.jp/coupon/image/8RoFLigDBciedM6AlXyc/image2_sq9682_1752546501833?v=1752546502190,138.3133137,34.8584665,
324,餃子番長,ギョウザバンチョウ,飲食業,1000,"2,000円以上会計で1,000円引き",1,425-0035,静岡県焼津市東小川2-11-15,054-629-1598,,https://gyouzabannchou.owst.jp/,,https://firebasestorage.googleapis.com/v0/b/the-coupon.appspot.com/o/coupon%2Fimage%2FfhmU4woIZSbiizWBXBWQ%2F02_shop.svg?alt=media&token=2b44240e-338b-4fa7-8ee5-8c11a404b9db,,138.2926022,34.8548971,
325,シーカープ,シーカープ,飲食業,1000,"2,000円以上会計で1,000円引き",1,425-0077,静岡県焼津市五ケ堀之内1458-1,054-620-1116,"（昼）月〜金　11：00〜14：00　　土曜日・祝日　11：00〜22：00
（夜）月〜金　17：00〜22：00
（定休日）毎週日曜日",,https://www.instagram.com/c.carp_yaizu_shizuoka/,https://firebasestorage.googleapis.com/v0/b/the-coupon.appspot.com/o/coupon%2Fimage%2FfhmU4woIZSbiizWBXBWQ%2F02_shop.svg?alt=media&token=2b44240e-338b-4fa7-8ee5-8c11a404b9db,,138.3176971,34.8742071,
326,Desir,デジー,その他,1000,"2,000円以上会計で1,000円引き",1,425-0028,静岡県焼津市駅北4丁目1-18 Alivio 101号室,054-625-8280,,https://beauty.hotpepper.jp/kr/slnH000494657/?cstt=6,https://www.instagram.com/desir.nail/,https://image.the-coupon.jp/coupon/image/8RoFLigDBciedM6AlXyc/wv1985_1752896843688?v=1752896844073,,138.3110121,34.8591681,
327,天ぷら割烹　齋とう,テンプラカッポウ　サイトウ,飲食業,1000,"2,000円以上会計で1,000円引き",1,425-0036,静岡県焼津市西小川2-4-19 ジュネス登呂田101,054-397-6753,定休日変更あり……定休日：火曜日、第二・第四月曜日   (月曜日が祝日の場合は営業),https://www.tenpurasaitou.com/,,https://firebasestorage.googleapis.com/v0/b/the-coupon.appspot.com/o/coupon%2Fimage%2FfhmU4woIZSbiizWBXBWQ%2F02_shop.svg?alt=media&token=2b44240e-338b-4fa7-8ee5-8c11a404b9db,,138.3178097,34.8404108,
328,菓子屋ミラベル,カシヤミラベル,小売業,1000,"2,000円以上会計で1,000円引き",1,425-0041,静岡県焼津市石津4丁目15-15,054-639-7961,"営業時間：10:00〜18:00
定休日：木曜日(木曜が祝日の場合、別曜日)",https://mirabelle.co.jp/,https://www.instagram.com/mirabelle.co.jp/,https://image.the-coupon.jp/coupon/image/8RoFLigDBciedM6AlXyc/mx4542_1752546531519?v=1752546532198,,138.306422,34.878214,
329,酒ゃビック焼津店,サカヤビックヤイヅテン,小売業,1000,"2,000円以上会計で1,000円引き",1,425-0091,静岡県焼津市八楠3丁目11-8,054-629-5267,営業時間１０：００〜２０：００,https://www.sakayabic.co.jp/store/100121.html,,https://image.the-coupon.jp/coupon/image/8RoFLigDBciedM6AlXyc/wu0397_1752896580952?v=1752896581284,,138.31154,34.859395,
330,酒ゃビック西小川店,サカヤビックニシコガワテン,小売業,1000,"2,000円以上会計で1,000円引き",1,425-0036,静岡県焼津市西小川2丁目1-17,054-620-9751,営業時間10：00〜20：00,https://sakayabic.co.jp/store/100142.html,,https://firebasestorage.googleapis.com/v0/b/the-coupon.appspot.com/o/coupon%2Fimage%2FfhmU4woIZSbiizWBXBWQ%2F02_shop.svg?alt=media&token=2b44240e-338b-4fa7-8ee5-8c11a404b9db,,138.31154,34.859395,
331,川直　焼津さかなセンター店,カワナオ　ヤイヅサカナセンターテン,小売業,500,"1,000円以上会計で500円引き",1,425-0091,静岡県焼津市八楠4-13-7,054-627-7928,,https://kawanao.shopinfo.jp/,https://www.instagram.com/kawanao_yaizu/,https://firebasestorage.googleapis.com/v0/b/the-coupon.appspot.com/o/coupon%2Fimage%2FgmsHdw0A2EsJoAwc9J6v%2F61885d88?alt=media&token=5d4e1bdd-ff20-443e-9567-431af52ddf8a,,138.325786,34.873942,
332,食事処　かどや,ショクジドコロ　カドヤ,飲食業,1000,"2,000円以上会計で1,000円引き",1,425-0021,焼津市中港3-4-31,054-628-4951,"営業時間　昼　11時〜13時30分LO
　　　　　夜　17時〜19時30分LO

7/28日（月）7/29日（火）お休みです。",,,https://firebasestorage.googleapis.com/v0/b/the-coupon.appspot.com/o/coupon%2Fimage%2FgmsHdw0A2EsJoAwc9J6v%2Fedv6asna?alt=media&token=62fbc595-5c6a-4027-accb-8620e50f6123,,138.2768998,34.8121145,
333,Bijou doux,ヴィジュ　ドゥ,小売業,500,"1,000円以上会計で500円引き",1,421-0205,焼津市宗高1427-3,054-664-4567,,,https://www.instagram.com/bijou_doux/,https://image.the-coupon.jp/coupon/image/8RoFLigDBciedM6AlXyc/ig4588_1752546545889?v=1752546546287,,138.307366,34.881732,
334,きさらぎ,キサラギ,飲食業,1000,"2,000円以上会計で1,000円引き",1,425-0091,焼津市八楠2-25-13,054-627-8426,"平日　　11:00〜13:30 16:00〜21:30
日、祝　11:00〜13:30 16:00〜20:30",,https://www.instagram.com/kisaragi_komomo/,https://image.the-coupon.jp/coupon/image/8RoFLigDBciedM6AlXyc/tz7938_1752546560185?v=1752546560582,https://image.the-coupon.jp/coupon/image/8RoFLigDBciedM6AlXyc/image2_tz7938_1752546560582?v=1752546560957,138.3060501,34.8427707,
335,ラヴィエベル,ラヴィエベル,小売業,500,"1,000円以上会計で500円引き",1,425-0038,焼津市黒石2丁目3番地の14,054-623-7203,定休日：毎週月、火（休日は営業）,lavieestbelle2002.com,,https://image.the-coupon.jp/coupon/image/8RoFLigDBciedM6AlXyc/la5161_1752901205893?v=1752901206587,,138.3072743,34.8442326,
336,食楽　えんや,ショクラク　エンヤ,飲食業,1000,"2,000円以上会計で1,000円引き",1,425-0041,焼津市石津1-9-17,054-623-0151,,,https://www.instagram.com/yaizu_enya/,https://firebasestorage.googleapis.com/v0/b/the-coupon.appspot.com/o/coupon%2Fimage%2FgmsHdw0A2EsJoAwc9J6v%2Fqkl63m9q?alt=media&token=ee1b0c0d-e62b-44b3-a098-b49772a5cef6,,138.3108092,34.8426141,
337,ISO,イソ,飲食業,1000,"2,000円以上会計で1,000円引き",1,425-0028,焼津市駅北2丁目14-11ロイヤルハイツ,054-628-9430,,,,https://image.the-coupon.jp/coupon/image/8RoFLigDBciedM6AlXyc/fg0928_1752546572783?v=1752546573183,,138.32027,34.869248,
339,スギヤマ時計店,スギヤマトケイテン,小売業,500,"1,000円以上会計で500円引き",1,425-0027,焼津市栄町6-2-1,054-628-4576,水曜定休,http://www2.wbs.ne.jp/~s-watch/,,https://firebasestorage.googleapis.com/v0/b/the-coupon.appspot.com/o/coupon%2Fimage%2FTfBGvRWVeKHcoq5PasIT%2Fjw4743?alt=media&token=07404d71-3605-41c9-a770-c94440247ebd,,138.2640248,34.8070894,
340,うさぎとこむぎ,ウサギトコムギ,飲食業,500,"1,000円以上会計で500円引き",1,421-0216,焼津市相川1057-1,054-622-3035,,,https://www.instagram.com/usagitokomugi/,https://image.the-coupon.jp/coupon/image/8RoFLigDBciedM6AlXyc/qw4349_1752546638117?v=1752546638700,,138.3166722,34.8722126,
341,西島薬局,ニシジマヤッキョク,小売業,1000,"2,000円以上会計で1,000円引き",1,425-0028,焼津市駅北2-6-11,054-628-7061,処方せん以外利用可能,,,https://image.the-coupon.jp/coupon/image/8RoFLigDBciedM6AlXyc/vk3143_1752546657410?v=1752546657807,,138.3166722,34.8722126,
342,ファッションサロン　花ぞの,ファッションサロン　ハナゾノ,小売業,1000,"2,000円以上会計で1,000円引き",1,425-0026,静岡県焼津市焼津5-1-1,054-628-1641,営業日　火〜土(10:00〜17:30),,,https://image.the-coupon.jp/coupon/image/8RoFLigDBciedM6AlXyc/dg3731_1752546670764?v=1752546671119,,138.2907143,34.8336074,
343,とうそん焼津店,トウソンヤイヅテン,飲食業,500,"1,000円以上会計で500円引き",1,425-0036,焼津市西小川4-16-6,054-628-8166,"営業時間10:00から15:00（ラストオーダー14:30)
水曜日定休",www.towson-shizuoka.com,https://www.instagram.com/towsonramen/,https://image.the-coupon.jp/coupon/image/8RoFLigDBciedM6AlXyc/ug3635_1752546683348?v=1752546683768,,138.303878,34.845295,
344,地酒　やすだや,ジザケ　ヤスダヤ,小売業,1000,"2,000円以上会計で1,000円引き",1,425-0055,焼津市道原1181-2,054-623-3093,"休日　毎日曜日と第2.と第3月曜日
営業時間　AM9：00〜P M19:00",,,https://image.the-coupon.jp/coupon/image/8RoFLigDBciedM6AlXyc/an6141_1752890418830?v=1752890419252,,138.304531,34.879255,
345,アップル車検クラシマ,アップルシャケンクラシマ,その他,1000,"2,000円以上会計で1,000円引き",1,425-0091,静岡県焼津市八楠4-9-10,054-627-2255,営業時間は9：00〜17：30,info@kurara-cars.jp,,https://image.the-coupon.jp/coupon/image/8RoFLigDBciedM6AlXyc/vf0181_1752546701060?v=1752546701331,https://image.the-coupon.jp/coupon/image/8RoFLigDBciedM6AlXyc/image2_vf0181_1752546701331?v=1752546701750,138.304531,34.879255,
346,韓の食卓イェッコル,カンノショクタクイェッコル,飲食業,1000,"2,000円以上会計で1,000円引き",1,425-0036,焼津市西小川2-1-6,054-637-9199,11月22日は半年前から貸切の予約が入っていますので当店は23日から開始したいと思います,,https://www.instagram.com/yetgol.yaizu/,https://firebasestorage.googleapis.com/v0/b/the-coupon.appspot.com/o/coupon%2Fimage%2FfhmU4woIZSbiizWBXBWQ%2F01_%20restaurant.svg?alt=media&token=97cefc85-0619-4b73-9c72-d208d29c233a,,138.3343837,34.8807383,
347,あたびーcafe,アタビーカフェ,飲食業,500,"1,000円以上会計で500円引き",1,425-0012,焼津市浜当目4-13-18,054-639-6768,,,https://www.instagram.com/atabee0409/,https://image.the-coupon.jp/coupon/image/8RoFLigDBciedM6AlXyc/dr7111_1752546715240?v=1752546715552,https://image.the-coupon.jp/coupon/image/8RoFLigDBciedM6AlXyc/image2_dr7111_1752546715552?v=1752546715903,138.3109072,34.8637808,
348,マルイチ　焼津本店,マルイチ　ヤイヅホンテン,小売業,1000,"2,000円以上会計で1,000円引き",1,425-0026,静岡県焼津市焼津3-9-37,054-628-4101,,https://www.maruichi-kagu.co.jp,https://www.instagram.com/maruichikagu/,https://firebasestorage.googleapis.com/v0/b/the-coupon.appspot.com/o/coupon%2Fimage%2FgmsHdw0A2EsJoAwc9J6v%2Falxwa14g?alt=media&token=4b7f6a9e-146d-4214-92b1-3891dd9a3fb0,,138.31854,34.873334,
349,ちゆう,チユウ,飲食業,1000,"2,000円以上会計で1,000円引き",1,425-0028,焼津市駅北1丁目5-1コーポ松永102,054-330-1751,,https://www.chiyu-yaizu.com/,,https://firebasestorage.googleapis.com/v0/b/the-coupon.appspot.com/o/coupon%2Fimage%2FfhmU4woIZSbiizWBXBWQ%2F01_%20restaurant.svg?alt=media&token=97cefc85-0619-4b73-9c72-d208d29c233a,,138.308572,34.851578,
350,パッケージプラザ ヤマムラ,パッケージプラザ ヤマムラ,小売業,1000,"2,000円以上会計で1,000円引き",1,425-0035,静岡県焼津市東小川7-17-13,054-627-4020,"営業時間：月曜日〜土曜日（9時開店 〜 18時30分閉店）
定  休 日：日曜日
※祝祭日：10時開店 〜 17時分閉店",https://shimojima.jp/shop/store/storedetail.aspx?store=715619,,https://image.the-coupon.jp/coupon/image/8RoFLigDBciedM6AlXyc/xl0596_1752546733311?v=1752546733558,,138.3126203,34.8602564,
351,ジョイフルパル,ジョイフルパル,小売業,1000,"2,000円以上会計で1,000円引き",1,425-0036,静岡県焼津市西小川1-2-1,054-629-5188,"営業時間：９：３０〜１９：３０
一部クーポン使用不可のものがございます。（商品券、工事代金、作業工賃等）
お客様都合による返品・交換はできません。（但し、初期不良等の場合は対応させていただきます）
",https://www.joyfulpal.com/,https://www.instagram.com/joyfulpalyaizu/,https://firebasestorage.googleapis.com/v0/b/the-coupon.appspot.com/o/coupon%2Fimage%2FgmsHdw0A2EsJoAwc9J6v%2Fp7609zlq?alt=media&token=a04587b2-95ae-4477-87c2-04db521a9213,,138.3239,34.8703,
352,大漁　やまちゃん,タイリョウ　ヤマチャン,飲食業,1000,"2,000円以上会計で1,000円引き",1,425-0021,焼津市中港2-7-2,054-629-1919,"昼11時〜14時(ラストオーダー13時半)
夜17時〜21時(ラストオーダー20時半)
日曜日、祭日は夜1時間早く閉めます。
",,https://www.instagram.com/tai_ryamachiyan/,https://firebasestorage.googleapis.com/v0/b/the-coupon.appspot.com/o/coupon%2Fimage%2FgmsHdw0A2EsJoAwc9J6v%2Ffea3mayu?alt=media&token=8fdd07f3-ca11-4a86-9f10-b5898492f9be,,138.3229717,34.868232,
353,TUNALABO,ツナラボ,小売業,1000,"2,000円以上会計で1,000円引き",1,425-0022,静岡県焼津市本町1-10-4,054-625-8408,"対象商品は「おつな」のみです。
他社製品、ギフトボックス、袋などは対象外です。",https://otuna.tokyo/tunalabo,https://www.instagram.com/tunalabo/,https://image.the-coupon.jp/coupon/image/8RoFLigDBciedM6AlXyc/pj2001_1752546754179?v=1752546754539,https://image.the-coupon.jp/coupon/image/8RoFLigDBciedM6AlXyc/image2_pj2001_1752546754539?v=1752546754918,138.3211338,34.863768,
354,100% Jamaica Blue Mountain Coffee & Chocolate LENY,レニー,小売業,1000,"2,000円以上会計で1,000円引き",1,425-0022,焼津市本町4-710-19,054-625-8770,"平日：9:00-18:00　定休日：水曜日
土日・祝：7:00-18:00",https://leny.coffee/,https://www.instagram.com/leny.yaizu/,https://image.the-coupon.jp/coupon/image/8RoFLigDBciedM6AlXyc/rq0196_1752546766652?v=1752546767133,,138.288686,34.852425,
355,すしせい,スシセイ,飲食業,1000,"2,000円以上会計で1,000円引き",1,425-0073,静岡県焼津市小柳津536番地の1,054-374-1980,,http://www.susisei.com,https://www.instagram.com/sushisei0543741980/,https://firebasestorage.googleapis.com/v0/b/the-coupon.appspot.com/o/coupon%2Fimage%2FfhmU4woIZSbiizWBXBWQ%2F01_%20restaurant.svg?alt=media&token=97cefc85-0619-4b73-9c72-d208d29c233a,,138.288686,34.852425,
356,酒肴本丸駅前栄町店,サケサカナホンマルエキマエサカエチョウテン,飲食業,1000,"2,000円以上会計で1,000円引き",1,425-0027,焼津市栄町1丁目3-6,0549-08-9936,,,,https://image.the-coupon.jp/coupon/image/8RoFLigDBciedM6AlXyc/ln7106_1752546789354?v=1752546789842,https://image.the-coupon.jp/coupon/image/8RoFLigDBciedM6AlXyc/image2_ln7106_1752546789842?v=1752546790151,138.3037099,34.8452016,
357,アンティーク&カフェバー　古町,アンティークアンドカフェバー　コマチ,飲食業,1000,"2,000円以上会計で1,000円引き",1,425-0055,焼津市道原1182-2,054-624-5986,,,,https://image.the-coupon.jp/coupon/image/8RoFLigDBciedM6AlXyc/do7267_1752546800495?v=1752546801002,,138.266983,34.811835,
358,アロエ食品株式会社,アロエショクヒンカブシキガイシャ,その他,1000,"2,000円以上会計で1,000円引き",1,421-0218,静岡県焼津市下江留2208,054-622-5566,"● 弊社休業日： 第2.第4土曜日、日曜日、祝日　　  令和7年7月26日(土)、27日(日)、8月3日(日)は定休日です。
● 平日の営業時間： 8：30　〜　17：00",https.www.aloe-foods.co.jp,https://www.instagram.com/aloe_foods/,https://firebasestorage.googleapis.com/v0/b/the-coupon.appspot.com/o/coupon%2Fimage%2FTfBGvRWVeKHcoq5PasIT%2Fac0151?alt=media&token=5cb2231f-16e7-482a-bb55-580273d28b0a,,138.3267391,34.8568392,
359,やいづとくさんプラザ,ヤイヅトクサンプラザ,小売業,500,"1,000円以上会計で500円引き",1,425-0032,焼津市鰯ケ島136-26,054-626-1561,,https://www.yaizu-uonaka.or.jp/plaza/,,https://firebasestorage.googleapis.com/v0/b/the-coupon.appspot.com/o/coupon%2Fimage%2FgmsHdw0A2EsJoAwc9J6v%2Fjnfq0lcq?alt=media&token=1601cc18-8cf7-4221-8ead-e3e4f0554149,,138.3030198,34.880822,
360,まぐろ食堂にぎり部,マグロショクドウニギリブ,飲食業,1000,"2,000円以上会計で1,000円引き",1,425-0091,静岡県焼津市八楠4-13-7,,,https://uoni.co.jp,,https://firebasestorage.googleapis.com/v0/b/the-coupon.appspot.com/o/coupon%2Fimage%2FTfBGvRWVeKHcoq5PasIT%2Fvu6536?alt=media&token=5d549928-a403-4c2f-8ec1-772dbcac3eeb,,138.3030198,34.880822,
361,魚二水産株式会社,ウオニスイサン,小売業,1000,"2,000円以上会計で1,000円引き",1,425-0091,静岡県焼津市八楠4-13-7,054-627-0222,"9:00-17:00
隔週水曜日休日",https://uoni.co.jp,https://www.instagram.com/yaizu_maguronouoni/,https://image.the-coupon.jp/coupon/image/8RoFLigDBciedM6AlXyc/qe1274_1752907170395?v=1752907171011,,138.2914158,34.8644069,
362,シジカフェ,シジカフェ,飲食業,500,"1,000円以上会計で500円引き",1,425-0077,静岡県焼津市五ケ堀之内24-27,050-5469-6193,"営業日　　土曜日、日曜日
休　日　　月曜日〜金曜日
営業時間　土曜日　11:30〜20:30
　　　　　日曜日　8:30〜14:30
営業日、営業時間は変わることがあります。詳しくはInstagramにてご確認下さい。",,https://www.instagram.com/shizi_cafe/,https://image.the-coupon.jp/coupon/image/8RoFLigDBciedM6AlXyc/tv7920_1752546816875?v=1752546817159,https://image.the-coupon.jp/coupon/image/8RoFLigDBciedM6AlXyc/image2_tv7920_1752546817159?v=1752546817619,138.3074952,34.8821997,
363,麺屋日出次,メンヤヒデツグ,飲食業,500,"1,000円以上会計で500円引き",1,425-0091,焼津市八楠2-22-8,080-1567-0477,,,,https://firebasestorage.googleapis.com/v0/b/the-coupon.appspot.com/o/coupon%2Fimage%2FTfBGvRWVeKHcoq5PasIT%2Fxr3364?alt=media&token=2ccb21ca-06a6-47db-a2c7-3ab430f4bf31,,138.3037287,34.881146,
364,まぐろ食堂,マグロショクドウ,飲食業,1000,"2,000円以上会計で1,000円引き",1,425-0091,静岡県焼津市八楠4-13-7さかなセンターサービス棟B-1,054-627-0228,,https://uoni.co.jp,https://www.instagram.com/maguro_shokudou/,https://firebasestorage.googleapis.com/v0/b/the-coupon.appspot.com/o/coupon%2Fimage%2FTfBGvRWVeKHcoq5PasIT%2Fhb2658?alt=media&token=4132ddc9-e6bd-420d-880a-9ced05ebd6d4,,138.3381271,34.8965558,
366,手づくりの和洋菓子　桃林堂,テヅクリノワヨウガシ　トウリンドウ,小売業,1000,"2,000円以上会計で1,000円引き",1,421-0205,静岡県焼津市宗高1280,054-622-0027,,https://r.goope.jp/tohrindoh/,,https://image.the-coupon.jp/coupon/image/8RoFLigDBciedM6AlXyc/lc5407_1752546854286?v=1752546855069,,138.291991,34.85841,
367,マツデンとよだてん,マツデントヨダテン,小売業,1000,"2,000円以上会計で1,000円引き",1,425-0074,焼津市柳新屋821-1,054-629-6262,営業時間　AM9：00からAM6：30,,,https://firebasestorage.googleapis.com/v0/b/the-coupon.appspot.com/o/coupon%2Fimage%2FfhmU4woIZSbiizWBXBWQ%2F02_shop.svg?alt=media&token=2b44240e-338b-4fa7-8ee5-8c11a404b9db,,138.291991,34.85841,
368,魚家,トトヤ,飲食業,1000,"2,000円以上会計で1,000円引き",1,425-0055,静岡県焼津市道原３アイスペースB,054-623-7505,,https//yaizu-totoya.com/,,https://firebasestorage.googleapis.com/v0/b/the-coupon.appspot.com/o/coupon%2Fimage%2FgmsHdw0A2EsJoAwc9J6v%2F58zbgsa5?alt=media&token=cbb9bb99-e534-4e6e-815b-2eacbbab50a0,,138.319929,34.863126,
369,岡村家具店,オカムラカグテン,小売業,1000,"2,000円以上会計で1,000円引き",1,425-0022,静岡県焼津市本町５−１−８,054-628-2221,"営業時間：１０：００〜１９：００
水曜日定休",https://www.ok-kagu.com/,https://www.instagram.com/okamurakagu/,https://image.the-coupon.jp/coupon/image/8RoFLigDBciedM6AlXyc/hl7137_1752546872765?v=1752546873102,https://image.the-coupon.jp/coupon/image/8RoFLigDBciedM6AlXyc/image2_hl7137_1752546873102?v=1752546873437,138.3075154,34.8380773,
371,キーマン静岡,キーマンシズオカ,小売業,500,"1,000円以上会計で500円引き",1,425-0047,焼津市東祢宜島20-1,054-668-9506,,https://www.keyman-s.com/,,https://image.the-coupon.jp/coupon/image/8RoFLigDBciedM6AlXyc/nk0204_1752546938650?v=1752546939105,https://image.the-coupon.jp/coupon/image/8RoFLigDBciedM6AlXyc/image2_nk0204_1752546939105?v=1752546939474,138.319067,34.8671065,
372,石原商店,イシハラショウテン,飲食業,500,"1,000円以上会計で500円引き",1,425-0027,焼津市栄町5-5-11,054-628-4629,"営業開始　　10:00
営業終了時間　　夕方(売切次第)
※デジタルクーポン祭開催期間中、予約をお勧めします。",,https://www.instagram.com/ishiharatoriniku/,https://firebasestorage.googleapis.com/v0/b/the-coupon.appspot.com/o/coupon%2Fimage%2FgmsHdw0A2EsJoAwc9J6v%2Fvnlqy29y?alt=media&token=f1e9a1e3-cd41-475b-90f7-35cdac946af9,,138.2896943,34.8491924,
373,レプラス,レプラス,その他,1000,"2,000円以上会計で1,000円引き",1,425-0072,静岡県焼津市大住595-3 カサフェリス,054-639-6190,全日,,,https://image.the-coupon.jp/coupon/image/8RoFLigDBciedM6AlXyc/ov3552_1752546956965?v=1752546957554,https://image.the-coupon.jp/coupon/image/8RoFLigDBciedM6AlXyc/image2_ov3552_1752546957554?v=1752546957855,138.308622,34.859866,
374,おおとも接骨院,オオトモセッコツイン,その他,500,"1,000円以上会計で500円引き",1,425-0036,静岡県焼津市焼津市西小川2-7-8コーポラスやまだ1階東号室,054-620-1828,自費施術　鍼治療のみ利用可,https://www.otomo-sekkotsuin.net/sp/,https://www.instagram.com/otomomedical/,https://image.the-coupon.jp/coupon/image/8RoFLigDBciedM6AlXyc/rm1999_1752546979833?v=1752546980239,https://image.the-coupon.jp/coupon/image/8RoFLigDBciedM6AlXyc/image2_rm1999_1752546980239?v=1752546980633,138.3016441,34.8686246,
375,おおとも接骨院小土院,オオトモセッコツインコヒジイン,その他,500,"1,000円以上会計で500円引き",1,425-0086,静岡県焼津市焼津市小土556-1,054-625-9861,自費施術　鍼治療のみ利用可,https://www.otomo-sekkotsuin.net/sp/,https://www.instagram.com/otomomedical/,https://image.the-coupon.jp/coupon/image/8RoFLigDBciedM6AlXyc/lw9934_1752546997936?v=1752546998304,https://image.the-coupon.jp/coupon/image/8RoFLigDBciedM6AlXyc/image2_lw9934_1752546998304?v=1752546998617,138.291703,34.799957,
376,魚池のお魚屋ベンちゃん,ウオイケノオサカナヤベンチャン,小売業,1000,"2,000円以上会計で1,000円引き",1,421-0211,静岡県焼津市吉永823-1,054-622-4306,,,,https://firebasestorage.googleapis.com/v0/b/the-coupon.appspot.com/o/coupon%2Fimage%2FgmsHdw0A2EsJoAwc9J6v%2Fn3pyf88z?alt=media&token=c9160cfd-abd2-46b7-a582-0a226fb0082c,,138.3102388,34.8586161,
377,ほろよい屋,ホロヨイヤ,飲食業,1000,"2,000円以上会計で1,000円引き",1,425-0036,静岡県焼津市西小川3-2-13,054-625-9080,"定休日毎週木曜日　　ランチはやってません。　　pm4時から営業してます。
　　　第3水曜日",,,https://image.the-coupon.jp/coupon/image/8RoFLigDBciedM6AlXyc/sc2334_1752547022312?v=1752547022660,,138.3102388,34.8586161,
378,甲羅組　2号店,コウラグミ　ニゴウテン,小売業,1000,"2,000円以上会計で1,000円引き",1,425-0091,静岡県焼津市八楠4-13-7,054-631-5533,,https://denshoku-corp.jp/business/realstore/,https://www.instagram.com/kouragumi_yaizu/,https://image.the-coupon.jp/coupon/image/8RoFLigDBciedM6AlXyc/vr2995_1752900631115?v=1752900631416,,138.3029372,34.8803175,
379,さらふぁん,サラファン,小売業,1000,"2,000円以上会計で1,000円引き",1,425-0075,焼津市西焼津8-5,054-620-3131,"営業時間

月、土　14時〜16時

火、木、金　10時半〜16時",http://www.sarafan2014.com/,https://www.instagram.com/sarafan_2014/,https://image.the-coupon.jp/coupon/image/8RoFLigDBciedM6AlXyc/od9375_1752547042788?v=1752547043333,https://image.the-coupon.jp/coupon/image/8RoFLigDBciedM6AlXyc/image2_od9375_1752547043333?v=1752547043752,138.2858039,34.8593023,
380,台所屋　二軒目,ダイドコロヤ　ニケンメ,飲食業,1000,"2,000円以上会計で1,000円引き",1,425-0075,焼津市西焼津25-1 二階,054-621-3395,,,,https://image.the-coupon.jp/coupon/image/8RoFLigDBciedM6AlXyc/ac3171_1752904369063?v=1752904369908,,138.3033597,34.8799085,
381,SAKURAファーム,サクラファーム,小売業,500,"1,000円以上会計で500円引き",1,425-0091,焼津市八楠4-13-7,054-621-5502,,sakura502.jp,https://www.instagram.com/yaizu.sakura_farm171007/,https://firebasestorage.googleapis.com/v0/b/the-coupon.appspot.com/o/coupon%2Fimage%2FgmsHdw0A2EsJoAwc9J6v%2Fqa2ch94s?alt=media&token=ac7ac385-1191-4487-a85f-6de32a9dddda,,138.3192055,34.8710398,
382,丸子,マルコ,飲食業,1000,"2,000円以上会計で1,000円引き",1,425-0027,静岡県焼津市栄町1-3-3,054-620-6011,,,,https://image.the-coupon.jp/coupon/image/8RoFLigDBciedM6AlXyc/ng5689_1752547075066?v=1752547075399,,138.3090004,34.8611315,
383,美容室kokochi,ビヨウシツココチ,その他,1000,"2,000円以上会計で1,000円引き",1,425-0036,焼津市西小川1丁目11-6,054-357-5630,,,,https://firebasestorage.googleapis.com/v0/b/the-coupon.appspot.com/o/coupon%2Fimage%2FTfBGvRWVeKHcoq5PasIT%2Fav3429?alt=media&token=c2d10436-301d-48d0-891e-11c6cff6c9a9,,138.3090004,34.8611315,
384,はや,ハヤ,飲食業,1000,"2,000円以上会計で1,000円引き",1,425-0026,焼津市焼津3-1-25,054-628-3288,,,,https://image.the-coupon.jp/coupon/image/8RoFLigDBciedM6AlXyc/ke5887_1752899742604?v=1752899743242,,138.314432,34.867662,
385,ピーターパン小麦市場,ピーターパンコムギイチバ,小売業,500,"1,000円以上会計で500円引き",1,425-0026,静岡県焼津市焼津１丁目10-26,054-620-8200,営業時間　7：30〜18：00,http://www.peaterpan.jp/,https://www.instagram.com/peaterpan.winwin/,https://firebasestorage.googleapis.com/v0/b/the-coupon.appspot.com/o/coupon%2Fimage%2FTfBGvRWVeKHcoq5PasIT%2Fxe7648?alt=media&token=ad88da16-edd5-4478-ab2c-eda1dbb7ec15,,138.2976145,34.8754503,
386,スギ薬局大覚寺店,スギヤッキョクダイカクジテン,小売業,500,"1,000円以上会計で500円引き",1,425-0088,静岡県焼津市大覚寺二丁目２５番地の７,054-621-0035,,https://www.sugi-net.jp/,https://www.instagram.com/drug_sugi/,https://firebasestorage.googleapis.com/v0/b/the-coupon.appspot.com/o/coupon%2Fimage%2FTfBGvRWVeKHcoq5PasIT%2For3326?alt=media&token=70724132-076f-49da-8055-078205055cc2,,138.3155097,34.8541908,
387,スギドラッグ焼津東小川店,スギドラッグヤイヅヒガシコガワテン,小売業,500,"1,000円以上会計で500円引き",1,425-0035,静岡県焼津市東小川３丁目２０番地の５,054-620-7111,,https://www.sugi-net.jp/,https://www.instagram.com/drug_sugi/,https://firebasestorage.googleapis.com/v0/b/the-coupon.appspot.com/o/coupon%2Fimage%2FTfBGvRWVeKHcoq5PasIT%2Fnl4393?alt=media&token=fc74e5d6-d8cc-4ddb-9420-9c0f9f0f8d6b,,138.3179428,34.8810744,
388,インド料理ガンジー,インドリョウリガンジー,飲食業,500,"1,000円以上会計で500円引き",1,425-0014,静岡県焼津市中里314-2,054-626-0332,"営業時間　11-15　17-22
他のクーポンと併用不可",https://ohsama-curry.com/,,https://firebasestorage.googleapis.com/v0/b/the-coupon.appspot.com/o/coupon%2Fimage%2FTfBGvRWVeKHcoq5PasIT%2Foa5074?alt=media&token=d32787b8-02d9-4d80-a0b2-9dc24ed0a59c,,138.321422,34.8665217,
390,青宇宙,アオソラ,飲食業,1000,"2,000円以上会計で1,000円引き",1,425-0034,静岡県焼津市与惣次1-13-16,054-689-3316,,,,https://firebasestorage.googleapis.com/v0/b/the-coupon.appspot.com/o/coupon%2Fimage%2FgmsHdw0A2EsJoAwc9J6v%2Fejs1e5h1?alt=media&token=7d0b5cb2-e878-48ff-869b-0ced2b1cfccf,,138.290822,34.84764,
391,セイブストア伊万里,セイブストアイマリ,小売業,1000,"2,000円以上会計で1,000円引き",1,425-0072,焼津市大住679番地,054-629-5417,営業時間  9:00-18:30,,,https://firebasestorage.googleapis.com/v0/b/the-coupon.appspot.com/o/coupon%2Fimage%2FTfBGvRWVeKHcoq5PasIT%2Fdc1724?alt=media&token=9d26b41f-3d48-41bf-8e41-7331b4c9cb08,,138.290822,34.84764,
392,炉ばた家かっぱ,ロバタヤカッパ,飲食業,1000,"2,000円以上会計で1,000円引き",1,425-0043,焼津市石津中町22-13,054-6240078,,,,https://firebasestorage.googleapis.com/v0/b/the-coupon.appspot.com/o/coupon%2Fimage%2FfhmU4woIZSbiizWBXBWQ%2F01_%20restaurant.svg?alt=media&token=97cefc85-0619-4b73-9c72-d208d29c233a,,138.3236412,34.868448,
393,ネイルサロンマホネイル,ネイルサロンマホネイル,その他,1000,"2,000円以上会計で1,000円引き",1,425-0022,静岡県焼津市本町1-9-10,,"ご予約受付日
火・水・金・日曜日

ご予約受付時間
〜10:00〜13:00
〜14:00〜17:00
〜18:00〜21:00

焼津駅より徒歩15分
駐車場あり

ご予約空き状況はインスタグラムで更新中
新規のお客様のご予約はインスタグラムのDMからお待ちしております♪",,https://www.instagram.com/mahonail2023/,https://image.the-coupon.jp/coupon/image/8RoFLigDBciedM6AlXyc/il2311_1752547108414?v=1752547108798,https://image.the-coupon.jp/coupon/image/8RoFLigDBciedM6AlXyc/image2_il2311_1752547108798?v=1752547109143,138.279588,34.793613,
394,港湾オートタイヤサービス,コウワンオートタイヤサービス,その他,1000,"2,000円以上会計で1,000円引き",1,421-0214,静岡県焼津市中島817-1,054-622-1677,クーポンは法定費用及び税金は使用不可,http://www.Korean-tire.com,,https://image.the-coupon.jp/coupon/image/8RoFLigDBciedM6AlXyc/qb0977_1752547120496?v=1752547120846,https://image.the-coupon.jp/coupon/image/8RoFLigDBciedM6AlXyc/image2_qb0977_1752547120847?v=1752547121188,138.2974338,34.8548857,
395,kamika,カミカ,その他,1000,"2,000円以上会計で1,000円引き",1,425-0071,焼津市三ケ名360-9,054-626-5212,,https://kamika-salon.com/,,https://image.the-coupon.jp/coupon/image/8RoFLigDBciedM6AlXyc/yn2709_1752547134433?v=1752547134875,,138.2793052,34.7973218,
396,カネジュウ食品株式会社,カネジュウショクヒン,その他,500,"1,000円以上会計で500円引き",1,421-0211,静岡県焼津市吉永７−１,054-622-5515,,https://kanejyu.com/,https://www.instagram.com/kanejyu_miso/,https://image.the-coupon.jp/coupon/image/8RoFLigDBciedM6AlXyc/bn5056_1752547148658?v=1752547149079,https://image.the-coupon.jp/coupon/image/8RoFLigDBciedM6AlXyc/image2_bn5056_1752547149079?v=1752547149496,138.323059,34.868948,
397,北斗理容室　HOKUTO,ホクトリヨウシツ　ホクト,その他,1000,"2,000円以上会計で1,000円引き",1,425-0022,静岡県焼津市本町1-4-14,054-628-3043,8:30~17:00,,,https://image.the-coupon.jp/coupon/image/8RoFLigDBciedM6AlXyc/om6908_1752547160106?v=1752547160435,,138.286075,34.839547,
398,松葉畳店,マツバタタミテン,その他,1000,"2,000円以上会計で1,000円引き",1,425-0068,静岡県焼津市中新田1005-5,054-624-9669,"定休日（日・月・祝日）
営業時間　9:30 - 17:00",http://www.matsubatatamiten.jp,https://www.instagram.com/matsubatatamiten/,https://image.the-coupon.jp/coupon/image/8RoFLigDBciedM6AlXyc/cc5415_1752547175380?v=1752547175738,https://image.the-coupon.jp/coupon/image/8RoFLigDBciedM6AlXyc/image2_cc5415_1752547175738?v=1752547176005,138.284175,34.820903,
399,hair salon felice,ヘアサロン　フェリーチェ,その他,1000,"2,000円以上会計で1,000円引き",1,425-0066,静岡県焼津市大島640-1,070-8339-3678,,https://felice1207.amebaownd.com/,https://www.instagram.com/hair_salon__felice/,https://image.the-coupon.jp/coupon/image/8RoFLigDBciedM6AlXyc/uk1069_1752547187260?v=1752547187666,,138.3243152,34.8612068,
401,新村指圧治療院,シンムラシアツチリョウイン,その他,1000,"2,000円以上会計で1,000円引き",1,425-0055,静岡県焼津市道原1270-1,054-623-5808,"営業時間:9:00〜19:00
定休日:火曜日",,,https://image.the-coupon.jp/coupon/image/8RoFLigDBciedM6AlXyc/fn5518_1752547211225?v=1752547211651,,138.2964444,34.8294893,
402,静岡福祉大学売店「りとるりりぃなるせ」,リトルリリィナルセ,小売業,500,"1,000円以上会計で500円引き",1,425-0063,焼津市本中根549-1,054-623-1414,土日休み,,https://www.instagram.com/little_lily_naruse/,https://image.the-coupon.jp/coupon/image/8RoFLigDBciedM6AlXyc/fw7928_1752547226990?v=1752547227480,https://image.the-coupon.jp/coupon/image/8RoFLigDBciedM6AlXyc/image2_fw7928_1752547227480?v=1752547227890,138.3170394,34.8696452,
403,ミート田中,ミートタナカ,飲食業,1000,"2,000円以上会計で1,000円引き",1,425-0027,静岡県焼津市栄町6-7-23 フォレスト一階,050-8884-9208,,https://www.meat-tanaka.com,https://www.instagram.com/meat.tanaka0928/,https://firebasestorage.googleapis.com/v0/b/the-coupon.appspot.com/o/coupon%2Fimage%2FgmsHdw0A2EsJoAwc9J6v%2F4jfwt41b?alt=media&token=b9445f79-9054-44fb-97fc-69f928705181,,138.3041523,34.7915633,
404,あとりえMOMO,アトリエモモ,飲食業,1000,"2,000円以上会計で1,000円引き",1,421-0211,静岡県焼津市吉永1937-1,054-622-2262,10時から18時30分　お休みは1月1日のみ,,,https://firebasestorage.googleapis.com/v0/b/the-coupon.appspot.com/o/coupon%2Fimage%2FfhmU4woIZSbiizWBXBWQ%2F01_%20restaurant.svg?alt=media&token=97cefc85-0619-4b73-9c72-d208d29c233a,,138.279943,34.816654,
405,さふらん手芸店,サフランシュゲイテン,小売業,500,"1,000円以上会計で500円引き",1,421-0201,静岡県焼津市上小杉350番地,054-622-6868,10:00〜18:00  定休日：毎週日曜日と水曜日,,,https://firebasestorage.googleapis.com/v0/b/the-coupon.appspot.com/o/coupon%2Fimage%2FfhmU4woIZSbiizWBXBWQ%2F02_shop.svg?alt=media&token=2b44240e-338b-4fa7-8ee5-8c11a404b9db,,138.3081987,34.8520494,
406,東海道写楽焼津小川店,トウカイドウシャラクヤイヅコガワテン,小売業,1000,"2,000円以上会計で1,000円引き",1,425-0036,静岡県焼津市西小川7丁目1-4,054-626-3434,"平日：10：00〜よる 6：30
土日祝：10：00〜よる 7：00
毎週木曜定休※祝日などは営業になります",https://www.t-sharaku.jp/index.html,https://www.instagram.com/toukaido_sharaku/,https://image.the-coupon.jp/coupon/image/8RoFLigDBciedM6AlXyc/py5439_1752547245283?v=1752547245634,https://image.the-coupon.jp/coupon/image/8RoFLigDBciedM6AlXyc/image2_py5439_1752547245634?v=1752547245956,138.3081987,34.8520494,
407,SUMARU SAUNA,スマルサウナ,その他,500,"1,000円以上会計で500円引き",1,425-0021,焼津市中港3丁目1-16,054-330-8283,,https://sumaru-sauna.jp/,https://www.instagram.com/sumaru_sauna/,https://image.the-coupon.jp/coupon/image/8RoFLigDBciedM6AlXyc/ix3984_1752550473844?v=1752550474302,,138.300056,34.84687,
408,和食さと　焼津店,ワショクサト　ヤイズテン,飲食業,1000,"2,000円以上会計で1,000円引き",1,425-0046,焼津市三右衛門新373-1,054-656-0701,,,,https://image.the-coupon.jp/coupon/image/8RoFLigDBciedM6AlXyc/gw5091_1752550490350?v=1752550490729,,138.2857886,34.8592831,
410,跳丸,トビマル,小売業,500,"1,000円以上会計で500円引き",1,425-0076,静岡県焼津市小屋敷599-4,090-3309-7941,"休業日11/24(日)11/25(月)※臨時休業あり。
他は12:00~20:00営業
生体見学・ご購入希望の方はあらかじめインスタグラムDM、ホームページのお問い合わせフォームまたは電話にてお問い合わせ下さい。(完全予約制)
小動物用フードのみお求めの方はご予約不要",https://tobimaru0219.crayonsite.net/,https://www.instagram.com/tobimaru_shizuoka0219/,https://image.the-coupon.jp/coupon/image/8RoFLigDBciedM6AlXyc/yj1946_1752550960429?v=1752550961092,https://image.the-coupon.jp/coupon/image/8RoFLigDBciedM6AlXyc/image2_yj1946_1752550961092?v=1752550961679,138.3204097,34.8690261,
411,肉の石割,ニクノイシワリ,小売業,500,"1,000円以上会計で500円引き",1,425-0027,焼津市栄町4-3-6,054-629-0298,,,,https://image.the-coupon.jp/coupon/image/8RoFLigDBciedM6AlXyc/ad2197_1752551004135?v=1752551004519,https://image.the-coupon.jp/coupon/image/8RoFLigDBciedM6AlXyc/image2_ad2197_1752551004519?v=1752551004886,138.3204097,34.8690261,
412,日宏,ニッコー,小売業,500,"1,000円以上会計で500円引き",1,425-0091,静岡県焼津市八楠4-13-7,054-627-7906,営業時間  9:00~17:00,,,https://firebasestorage.googleapis.com/v0/b/the-coupon.appspot.com/o/coupon%2Fimage%2FfhmU4woIZSbiizWBXBWQ%2F02_shop.svg?alt=media&token=2b44240e-338b-4fa7-8ee5-8c11a404b9db,,138.319524,34.8226952,
413,発酵のおやつとごはん　こよみ,ハッコウノオヤツトゴハン　コヨミ,小売業,500,"1,000円以上会計で500円引き",1,425-0052,焼津市田尻1792 クラフトBASE,070-3855-8550,営業日・営業時間はインスタグラムでご確認ください,,https://www.instagram.com/hakko_koyomi/,https://image.the-coupon.jp/coupon/image/8RoFLigDBciedM6AlXyc/cl2322_1752551021641?v=1752551022045,,138.309237,34.8539719,
414,鐘庵東小川店,ショウアンヒガシコガワテン,飲食業,500,"1,000円以上会計で500円引き",1,425-0035,焼津市東小川6-5-13,054-620-5226,,,,https://image.the-coupon.jp/coupon/image/8RoFLigDBciedM6AlXyc/nq3168_1752551040295?v=1752551040684,https://image.the-coupon.jp/coupon/image/8RoFLigDBciedM6AlXyc/image2_nq3168_1752551040684?v=1752551041039,138.3227652,34.8674574,
417,Muguet~first salon~,ミュゲ　ファーストサロン,その他,1000,"2,000円以上会計で1,000円引き",1,425-0086,静岡県焼津市小土939-5 パレドール小土A 101号室,054-397-7455,,https://beauty.hotpepper.jp/kr/slnH000715543/,https://www.instagram.com/muguet_first.salon_/,https://image.the-coupon.jp/coupon/image/8RoFLigDBciedM6AlXyc/mb5684_1752906687533?v=1752906687862,,138.309008,34.85323,
418,NEST焼津,ネストヤイヅ,小売業,1000,"2,000円以上会計で1,000円引き",1,425-0035,焼津市東小川6−6−4,054-626-7100,"営業時間　11：00〜19：00
定休日　水曜日（一部変更あり）",http://www.mihoharaya.co.jp,,https://image.the-coupon.jp/coupon/image/8RoFLigDBciedM6AlXyc/bj4089_1752551093891?v=1752551094178,,138.2839877,34.823023,
419,セブンイレブン焼津大島店,セブンイレブンヤイヅオオシマテン,小売業,1000,"2,000円以上会計で1,000円引き",1,425-0066,焼津市大島597,054-624-7792,,,,https://v2.the-coupon.jp/coupon/02_shop.svg,,138.3181983,34.831239,
420,蕎麦屋　わびすけ,ソバヤ　ワビスケ,飲食業,500,"1,000円以上会計で500円引き",1,425-0052,静岡県焼津市田尻235-1,054-623-0858,,http://www.soba-wabisuke.com/,,https://v2.the-coupon.jp/coupon/02_shop.svg,,138.2630136,34.8037749,
421,キキとコキリ,キキトコキリ,その他,500,"1,000円以上会計で500円引き",1,421-0216,焼津市相川939番地,,"営業日　土.日.月曜
営業時間　10時〜17時",,https://www.instagram.com/kiki_kokiri/,https://image.the-coupon.jp/coupon/image/8RoFLigDBciedM6AlXyc/mu6760_1752551121856?v=1752551122235,,138.3017273,34.8747751,
422,筋膜整体Monteciero,キンマクセイタイモンテシエロ,その他,1000,"2,000円以上会計で1,000円引き",1,425-0088,焼津市大覚寺3-14-25,090-6764-7236,"営業時間　9:00〜18:00
定休日　　日　月　祝",https://monteciero.com/,https://www.instagram.com/monteciero/,https://image.the-coupon.jp/coupon/image/8RoFLigDBciedM6AlXyc/pc3209_1752551136057?v=1752551136537,,138.324347,34.865454,
423,ポルト,ポルト,小売業,500,"1,000円以上会計で500円引き",1,425-0026,焼津市焼津859-21,054-628-3899,"定休日：日曜日
営業時間　10:00〜19:00",http://porto-kaneden.com,,https://image.the-coupon.jp/coupon/image/8RoFLigDBciedM6AlXyc/ah4774_1752551150305?v=1752551150489,,138.3087144,34.8537405,
424,和食麺処サガミ　焼津西小川店,ワショクメンドコロサガミ　ヤイヅニシコガワテン,飲食業,1000,"2,000円以上会計で1,000円引き",1,425-0036,静岡県焼津市西小川４丁目２−１,054-626-1080,"営業時間：11：00〜22：00（ラストオーダー21：30）
利用条件：クーポンの条件と同じ",https://www.sagami.co.jp/,,https://v2.the-coupon.jp/coupon/02_shop.svg,,138.2737214,34.8105464,
425,TSUTAYAグランリバー大井川店,ツタヤグランリバーオオイガワテン,小売業,500,"1,000円以上会計で500円引き",1,421-0218,静岡県焼津市下江留1433−1,054-664-0880,,https://store-tsutaya.tsite.jp/store/detail?storeId=4129,,https://image.the-coupon.jp/coupon/image/8RoFLigDBciedM6AlXyc/qy7537_1752551175879?v=1752551176087,,138.2737214,34.8105464,
426,リストランテ　ダルピーノ,リストランテ　ダルピーノ,飲食業,1000,"2,000円以上会計で1,000円引き",1,425-0027,焼津市栄町2丁目4-4,054-631-7873,,https://dalpino-jp.com,,https://image.the-coupon.jp/coupon/image/8RoFLigDBciedM6AlXyc/st3524_1752551222991?v=1752551223381,,138.2988233,34.8797286,
427,ミルフィオーリ,ミルフィオーリ,飲食業,1000,"2,000円以上会計で1,000円引き",1,425-0091,静岡県焼津市八楠4-38-18,054-626-5253,,http://ristorante-millefiori.com/,https://www.instagram.com/r_millefiori/,https://image.the-coupon.jp/coupon/image/8RoFLigDBciedM6AlXyc/ex2155_1752551208353?v=1752551208691,,138.3062688,34.8535501,
428,Ｘｉｂｉ,シビ,飲食業,1000,"2,000円以上会計で1,000円引き",1,425-0036,静岡県焼津市西小川4-15-5 2F,054-397-8176,"ランチ営業が始まりました
",https://maps.app.goo.gl/MU9i3dzknJ5FX4H27?g_st=com.google.maps.preview.copy,https://www.instagram.com/xibi1022/,https://image.the-coupon.jp/coupon/image/8RoFLigDBciedM6AlXyc/bw6774_1752551237942?v=1752551238318,,138.319881,34.862954,
429,かまだ青果店,カマダセイカテン,小売業,500,"1,000円以上会計で500円引き",1,425-0022,焼津市本町5丁目1-12,054-628-3562,,,,https://image.the-coupon.jp/coupon/image/8RoFLigDBciedM6AlXyc/gs0454_1752551253867?v=1752551254171,,138.290153,34.847787,
430,ジョイプラザ焼津店,ジョイプラザヤイヅテン,小売業,1000,"2,000円以上会計で1,000円引き",1,425-0072,焼津市大住683-7,054-639-5830,"営業時間　10:00〜19:00
",https://www.joyplaza.net,,https://v2.the-coupon.jp/coupon/02_shop.svg,,138.305978,34.883627,
431,ジョイプラザ焼津インター店,ジョイプラザヤイヅインターテン,小売業,1000,"2,000円以上会計で1,000円引き",1,425-0091,焼津市八楠1-11-9,054-621-5055,"営業時間　10:00〜19:00
定休日　水曜日",https://www.joyplaza.net,,https://v2.the-coupon.jp/coupon/02_shop.svg,,138.3031452,34.8800706,
432,北海道のおさかな屋さん,ホッカイドウノオサカナヤサン,小売業,500,"1,000円以上会計で500円引き",1,425-0091,静岡県焼津市八楠4丁目13-7　焼津さかなセンター内,,,,https://www.instagram.com/yaizu_hokkaido_shop/,https://image.the-coupon.jp/coupon/image/8RoFLigDBciedM6AlXyc/zx6478_1752551274620?v=1752551274931,,138.3095524,34.8609905,
433,健美堂接骨院,ケンビドウセッコツイン,その他,500,"1,000円以上会計で500円引き",1,425-0036,静岡県焼津市西小川1-11-3　Ｆレイヤー１F,054-621-3039,,http://www.kenbiseitai.com/index.html,,https://image.the-coupon.jp/coupon/image/8RoFLigDBciedM6AlXyc/ib8947_1752551287121?v=1752551287470,,138.311002,34.852739,
436,やまや山もと商店,ヤマヤヤマモトショウテン,小売業,1000,"2,000円以上会計で1,000円引き",1,425-0091,静岡県焼津市八楠4ｰ13ｰ7焼津さかなセンター内,054-628-8822,,,,https://firebasestorage.googleapis.com/v0/b/the-coupon.appspot.com/o/coupon%2Fimage%2FfhmU4woIZSbiizWBXBWQ%2F02_shop.svg?alt=media&token=2b44240e-338b-4fa7-8ee5-8c11a404b9db,,138.303567,34.880302,
437,てっか丼山もと,テッカドンヤマモト,飲食業,1000,"2,000円以上会計で1,000円引き",1,425-0091,静岡県焼津市八楠4ｰ13ｰ7,054-628-8822,,,,https://firebasestorage.googleapis.com/v0/b/the-coupon.appspot.com/o/coupon%2Fimage%2FgmsHdw0A2EsJoAwc9J6v%2Fohr7i8su?alt=media&token=693750d1-1ae8-4750-b5e4-21ca77d6719a,,138.303567,34.880302,
438,cafe Baumkronen,カフェ バウムクローネン,飲食業,1000,"2,000円以上会計で1,000円引き",1,425-0065,静岡県焼津市惣右衛門732-2,054-659-4679,"営業時間 平日11：00〜15：00(L.O14:30)/17:00〜22:00(L.O21:00)、土日祝8:00〜22:00(L.O21:00)
クーポンは11:00以降のみ利用可",https://cafebaumkronen.wixsite.com/cafe-baumkronen,https://www.instagram.com/cafe.baumkronen/,https://image.the-coupon.jp/coupon/image/8RoFLigDBciedM6AlXyc/ac4544_1752038268531?v=1752038268849,,138.3140868,34.817725,
439,Patisserie AO,パティスリーアオ,飲食業,1000,"2,000円以上会計で1,000円引き",1,425-0036,静岡県焼津市西小川2-11-17シャルマン�UB,054-629-7820,,https://www.patisserieao.com,,https://image.the-coupon.jp/coupon/image/8RoFLigDBciedM6AlXyc/ae8016_1752038853672?v=1752038853977,,138.3076373,34.8616003,
440,美容鍼灸サロンSachi-幸-,ビヨウシンキュウサロンサチ,その他,1000,"2,000円以上会計で1,000円引き",1,425-0028,静岡県焼津市駅北4丁目1-18 Alivio102,070-9078-0386,"営業日：月・火・水・木・金・土・祝
定休日：日曜日
営業時間：10:00〜20:30
【クーポンは施術のみ利用可】
※商品の購入には利用不可",https://www.salonsachi.com,,https://image.the-coupon.jp/coupon/image/8RoFLigDBciedM6AlXyc/ae9803_1752039048256?v=1752039048735,,138.3176844,34.8742059,
441,インド料理ガンガジ,インドリョウリガンガジ,飲食業,1000,"2,000円以上会計で1,000円引き",1,425-0074,静岡県焼津市柳新屋８９１−１,054-908-8704,,https://www.indiancurrygangaji.net/72385/,,https://image.the-coupon.jp/coupon/image/8RoFLigDBciedM6AlXyc/au3589_1752037895115?v=1752037895561,,138.288747,34.8588011,
442,PEAK,ピーク,小売業,1000,"2,000円以上会計で1,000円引き",1,425-0041,静岡県焼津市石津2丁目21-21,054-637-9525,"営業時間
平日：12:30〜19:00
土日：11:00〜18:00
定休日：火曜日、祝日    ",http://peak2.info,,https://image.the-coupon.jp/coupon/image/8RoFLigDBciedM6AlXyc/av7553_1752039006026?v=1752039006211,,138.313548,34.8411664,
443,パティスリーノアン,パティスリーノアン,飲食業,1000,"2,000円以上会計で1,000円引き",1,421-0211,静岡県焼津市吉永1423-3,054-659-7737,,,https://www.instagram.com/paris_noan/,https://image.the-coupon.jp/coupon/image/8RoFLigDBciedM6AlXyc/bn7705_1752038928871?v=1752038929165,,138.3009855,34.7899284,
444,リトルエンゼル　小川店,リトルエンゼル　コガワテン,小売業,1000,"2,000円以上会計で1,000円引き",1,425-0036,静岡県焼津市西小川4-2-3,054-627-3050,"営業時間　10時〜19時
定休日　水曜日",http://www.yaizu-uogashi.jp,,https://image.the-coupon.jp/coupon/image/8RoFLigDBciedM6AlXyc/bv1250_1752039387885?v=1752039388203,,138.308519,34.853366,
445,リトルエンゼル　昭和通り店,リトルエンゼル　ショウワトオリテン,小売業,1000,"2,000円以上会計で1,000円引き",1,425-0022,静岡県焼津市本町4-10-17,054-627-4977,"営業時間　　10時〜16時30分
定休日　　　火・水曜日",https://www.yaizu-uogashi.jp/,,https://image.the-coupon.jp/coupon/image/8RoFLigDBciedM6AlXyc/cb1026_1752039413579?v=1752039414018,,138.3216166,34.8634258,
446,クリーニングあすなろ,クリーニングアスナロ,その他,1000,"2,000円以上会計で1,000円引き",1,425-0028,静岡県焼津市駅北3-6-15,054-628-7618,"AM7:30〜PM7:00
定休日   日曜日・祝日",,,https://image.the-coupon.jp/coupon/image/8RoFLigDBciedM6AlXyc/cd4398_1752038337018?v=1752038337400,,138.31566,34.876161,
447,めぐちゃんち,メグチャンチ,飲食業,500,"1,000円以上会計で500円引き",1,425-0026,静岡県焼津市焼津４丁目11-2,080-3065-2705,,,https://www.instagram.com/meguchanchi_9.6/,https://image.the-coupon.jp/coupon/image/8RoFLigDBciedM6AlXyc/ch5363_1752039206493?v=1752039206899,,138.3135404,34.8619294,
448,SB石津接骨院,エスビーイシズセッコツイン,その他,1000,"2,000円以上会計で1,000円引き",1,425-0047,静岡県焼津市東祢宜島7-31,054-639-5911,クーポンは自費施術のみご利用いただけます。,https://sb-ishizu.com,,https://image.the-coupon.jp/coupon/image/8RoFLigDBciedM6AlXyc/cp4289_1752038177039?v=1752038177457,,138.3110045,34.8386041,
449,西小川 松永鍼灸院,ニシコガワ マツナガシンキュウイン,その他,1000,"2,000円以上会計で1,000円引き",1,425-0036,静岡県焼津市西小川3-9-1,054-628-9090,,,,https://image.the-coupon.jp/coupon/image/8RoFLigDBciedM6AlXyc/dj4079_1752803776485?v=1752803777243,,138.307367,34.855902,
450,株式会社カネセイ水産焼津さかなセンター店,カネセイスイサンヤイヅサカナセンターテン,小売業,500,"1,000円以上会計で500円引き",1,425-0091,静岡県焼津市八楠4-13-7,054-627-8907,,http://www.kanesei-center.com,https://www.instagram.com/kaneseisakana/,https://image.the-coupon.jp/coupon/image/8RoFLigDBciedM6AlXyc/dk5888_1752038251831?v=1752038252185,,138.303584,34.88041,
451,ペンギン村,ペンギンムラ,飲食業,500,"1,000円以上会計で500円引き",1,425-0052,静岡県焼津市田尻1366,054-624-3799,クーポンは飲食全てで使えます。,,,https://image.the-coupon.jp/coupon/image/8RoFLigDBciedM6AlXyc/dm1145_1752039114124?v=1752039114440,,138.334958,34.831976,
452,のっけ家焼津さかなセンター店,ノッケヤヤイヅサカナセンターテン,飲食業,1000,"2,000円以上会計で1,000円引き",1,425-0091,静岡県焼津市八楠4-13-7,054-627-3355,,https://nokkeya.com/index.html,https://www.instagram.com/nokkeya/,https://image.the-coupon.jp/coupon/image/8RoFLigDBciedM6AlXyc/du0377_1752038839578?v=1752038839996,,138.304464,34.880904,
453,ダイニングカラオケバー　A bientot,ダイニングカラオケバー　ア・ビアント,飲食業,1000,"2,000円以上会計で1,000円引き",1,425-0036,静岡県焼津市西小川1丁目3-10パーク西小川101,054-628-3050,,,,https://firebasestorage.googleapis.com/v0/b/the-coupon.appspot.com/o/coupon%2Fimage%2FfhmU4woIZSbiizWBXBWQ%2F01_%20restaurant.svg?alt=media&token=97cefc85-0619-4b73-9c72-d208d29c233a,,138.3111444,34.8600161,
454,やいま整骨院,ヤイマセイコツイン,その他,500,"1,000円以上会計で500円引き",1,425-0026,静岡県焼津市焼津1-6-9FKビル102,054-629-3005,"〜 営業時間（予約対象時間も含む）
平日（月・火・木・金）：8:30〜12:00 / 16:00〜20:00
水曜・土曜：8:30〜12:00（午後休診）
日曜・祝日：休診
予約施術時間（完全予約制）：13:30〜16:00（水曜は16:00〜20:00も受付）

〜 デジタルクーポン利用条件
自由診療・予約診療のみ対象
ご利用金額：1,000円以上

以下はクーポン対象外：
〜 保険診療のみ
〜 お灸のみ",https://yaima2010.com/,https://www.instagram.com/yaima.seikotu/,https://image.the-coupon.jp/coupon/image/8RoFLigDBciedM6AlXyc/eo7565_1752039238067?v=1752039238353,,138.3154453,34.8666645,
455,不二家ドンキホーテ大覚寺店,フジヤドンキホーテダイカクジテン,小売業,1000,"2,000円以上会計で1,000円引き",1,425-0088,静岡県焼津市大覚寺2-27-1,054-621-0015,"営業時間
10:00〜19:00年中無休",,https://www.instagram.com/fujiya_megadonki/,https://image.the-coupon.jp/coupon/image/8RoFLigDBciedM6AlXyc/es3471_1752039063370?v=1752039063668,,138.298773,34.875819,
456,asitubo cafe hana,アシツボカフェ　ハナ,その他,1000,"2,000円以上会計で1,000円引き",1,425-0091,静岡県焼津市八楠4-22-15,090-8958-0168,"足ツボ、ボディケア、オイルマッサージ、フェイシャル
基本料金30分2000円より利用可",,https://www.instagram.com/mikikomatsushima/,https://image.the-coupon.jp/coupon/image/8RoFLigDBciedM6AlXyc/es5149_1752037772161?v=1752037772537,,138.301112,34.8801208,
457,Daisy Cocktails,デイジーカクテルズ,飲食業,500,"1,000円以上会計で500円引き",1,425-0027,静岡県焼津市栄町6-3-17,054-626-1030,ランチ営業は木曜日〜日曜日。,https://www.daisy-cocktails.com,https://www.instagram.com/daisy__cocktails/,https://image.the-coupon.jp/coupon/image/8RoFLigDBciedM6AlXyc/ev0578_1752038733057?v=1752038733583,,138.3173707,34.8694757,
458,ブルーベリーガーデンやいづ,ブルーベリーガーデンヤイヅ,その他,1000,"2,000円以上会計で1,000円引き",1,425-0054,静岡県焼津市一色30,080-8040-9465,"ブルーベリー狩り（�@食べ放題 �Aパック詰め放題）には事前のご予約が必要です。
営業日　水・木　10:30〜16:30　　土・日　9:30〜17:30",https://www.bbyaizu.com/,,https://image.the-coupon.jp/coupon/image/8RoFLigDBciedM6AlXyc/ey8639_1752039090122?v=1752039090542,,138.3085632,34.8244476,
459,魚民　焼津南口駅前店,ウオタミ　ヤイヅミナミグチエキマエテン,飲食業,1000,"2,000円以上会計で1,000円引き",1,425-0027,静岡県焼津市栄町2-2-21　アンビ･ア パークビル 1階,054-626-8788,"【営業時間】
日曜日〜木曜日、祝日：17:00〜24:00
金曜日、土曜日：17:00〜26:00
",https://www.monteroza.co.jp/shop.html?shop=802656,,https://firebasestorage.googleapis.com/v0/b/the-coupon.appspot.com/o/coupon%2Fimage%2FfhmU4woIZSbiizWBXBWQ%2F01_%20restaurant.svg?alt=media&token=97cefc85-0619-4b73-9c72-d208d29c233a,,138.3191911,34.8715583,
460,鮨　一八,スシ　イッパチ,飲食業,1000,"2,000円以上会計で1,000円引き",1,425-0071,静岡県焼津市三ケ名1690-4,054-628-1745,クーポンは店舗ディナーのみ利用可,,,https://image.the-coupon.jp/coupon/image/8RoFLigDBciedM6AlXyc/fm6041_1752038569387?v=1752038569791,,138.30855,34.864434,
461,花ぞの,ハナゾノ,小売業,1000,"2,000円以上会計で1,000円引き",1,425-0026,静岡県焼津市焼津5丁目1-1,054-628-1641,"営業時間　火〜土　10:00〜17:30
　　　　　日曜日　10:00〜14:00(不定休)
　　　　　月曜日　休日",@022xehzq,,https://image.the-coupon.jp/coupon/image/8RoFLigDBciedM6AlXyc/fx8300_1752038943084?v=1752038943503,,138.3192806,34.8634499,
462,日の出SECOND,ヒノデセカンド,飲食業,1000,"2,000円以上会計で1,000円引き",1,425-0035,静岡県焼津市東小川2-17-13マンション小池１階A,070-8562-5979,,,,https://image.the-coupon.jp/coupon/image/8RoFLigDBciedM6AlXyc/fx9629_1752039029234?v=1752039029591,,138.312902,34.8590844,
463,株式会社一イ大畑食品大住店,イチニンベンオオハタショクヒンオオズミテン,小売業,500,"1,000円以上会計で500円引き",1,425-0072,静岡県焼津市大住106-2,054-625-8803,"営業時間　10:00〜17:00
定休日　日曜・祭日",https://www.ichininben.com,,https://image.the-coupon.jp/coupon/image/8RoFLigDBciedM6AlXyc/fz7358_1752038059603?v=1752038059982,,138.2895443,34.8511366,
464,株式会社一イ大畑食品下小田店,イチニンベンオオハタショクヒンシモオダテン,小売業,500,"1,000円以上会計で500円引き",1,425-0059,静岡県焼津市下小田上町26-3,054-625-8803,"営業時間　9:00〜17:30
定休日　日曜・祭日",https://www.ichininben.com,,https://image.the-coupon.jp/coupon/image/8RoFLigDBciedM6AlXyc/gb7328_1752038074850?v=1752038075226,,138.31195,34.8376179,
465,三福,サンプク,小売業,500,"1,000円以上会計で500円引き",1,425-0072,静岡県焼津市大住130-4,080-3626-7935,,,,https://image.the-coupon.jp/coupon/image/8RoFLigDBciedM6AlXyc/gh0271_1752038548427?v=1752038548867,,138.2909493,34.8503135,
466,石津マート,イシヅマート,小売業,500,"1,000円以上会計で500円引き",1,425-0042,静岡県焼津市石津港町31-3,054-624-7757,"［営業時間］9:00〜19:00
［定休日］日曜日、月曜日、祝日",,https://www.instagram.com/ishizumart/,https://image.the-coupon.jp/coupon/image/8RoFLigDBciedM6AlXyc/gu6813_1752037868393?v=1752037868784,,138.326436,34.842576,
467,大坪水産　本社工場,オオツボスイサン　ホンシャコウジョウ,小売業,500,"1,000円以上会計で500円引き",1,421-0212,静岡県焼津市利右衛門391-1,054-664-2442,,http://www.otsubo-suisan.co.jp/,https://www.instagram.com/otsubo.suisan/,https://image.the-coupon.jp/coupon/image/8RoFLigDBciedM6AlXyc/gv5085_1752038204022?v=1752038204329,,138.2873496,34.7920784,
468,セブンーイレブン焼津越後島店,セブンーイレブンヤイヅエチゴジマテン,小売業,500,"1,000円以上会計で500円引き",1,425-0092,静岡県焼津市越後島360-1,054-627-9558,,,,https://firebasestorage.googleapis.com/v0/b/the-coupon.appspot.com/o/coupon%2Fimage%2FfhmU4woIZSbiizWBXBWQ%2F02_shop.svg?alt=media&token=2b44240e-338b-4fa7-8ee5-8c11a404b9db,,138.2963837,34.8852407,
469,セブンーイレブン焼津八楠４丁目店,セブンーイレブンヤイヅヤグスヨンチョウメテン,小売業,500,"1,000円以上会計で500円引き",1,425-0091,静岡県焼津市八楠４丁目11-19,054-629-0875,,,,https://firebasestorage.googleapis.com/v0/b/the-coupon.appspot.com/o/coupon%2Fimage%2FfhmU4woIZSbiizWBXBWQ%2F02_shop.svg?alt=media&token=2b44240e-338b-4fa7-8ee5-8c11a404b9db,,138.3058639,34.8797596,
470,セブンーイレブン焼津インター店,セブンーイレブンヤイヅインターテン,小売業,500,"1,000円以上会計で500円引き",1,425-0091,静岡県焼津市八楠４丁目14-3,054-620-1790,,,,https://firebasestorage.googleapis.com/v0/b/the-coupon.appspot.com/o/coupon%2Fimage%2FfhmU4woIZSbiizWBXBWQ%2F01_%20restaurant.svg?alt=media&token=97cefc85-0619-4b73-9c72-d208d29c233a,,138.3027951,34.8812543,
472,lulu room,ルル　ルーム,その他,1000,"2,000円以上会計で1,000円引き",1,425-0036,静岡県焼津市西小川2丁目11-16,050-8884-9190,,https://beauty.hotpepper.jp/kr/slnH000737941/?cstt=9,https://www.instagram.com/lulu_room/,https://firebasestorage.googleapis.com/v0/b/the-coupon.appspot.com/o/coupon%2Fimage%2FfhmU4woIZSbiizWBXBWQ%2F02_shop.svg?alt=media&token=2b44240e-338b-4fa7-8ee5-8c11a404b9db,,138.3075732,34.8616292,
473,マーブル洋菓子店,マーブルヨウガシテン,飲食業,500,"1,000円以上会計で500円引き",1,425-0072,静岡県焼津市大住101-2,054-627-2130,"営業時間
10:30〜18:00",https://fujieda.mypl.net/shop/00000378478/access,https://www.instagram.com/marble.2024.9/,https://image.the-coupon.jp/coupon/image/8RoFLigDBciedM6AlXyc/ie1838_1752039171831?v=1752039172338,,138.288389,34.8510703,
474,セブンイレブン焼津坂本店,セブンイレブンヤイヅサカモトテン,小売業,500,"1,000円以上会計で500円引き",1,425-0004,静岡県焼津市坂本３７４番地１号,054-629-6248,"24時間営業
タバコ、郵便商品、POSAカード、公共料金等払込等　一部利用不可",,,https://firebasestorage.googleapis.com/v0/b/the-coupon.appspot.com/o/coupon%2Fimage%2FfhmU4woIZSbiizWBXBWQ%2F01_%20restaurant.svg?alt=media&token=97cefc85-0619-4b73-9c72-d208d29c233a,,138.3103954,34.8905905,
475,スタジオピクチャーズ,スタジオピクチャーズ,その他,1000,"2,000円以上会計で1,000円引き",1,425-0086,静岡県焼津市小土1140-11,054-621-2558,"営業時間9:30〜19:00
定休日　木曜日
DPプリント、証明写真には使用できません。",http://s-pictures6512.juno.bindsite.jp/,https://www.instagram.com/pikuchiyazu/,https://image.the-coupon.jp/coupon/image/8RoFLigDBciedM6AlXyc/iy9292_1752038584879?v=1752038585294,,138.291486,34.862299,
476,パン曜日,パンヨウビ,小売業,500,"1,000円以上会計で500円引き",1,425-0062,静岡県焼津市中根新田643の2,,"金曜日のみ営業
11時〜18時(または完売にて終了)",,https://www.instagram.com/greenpanyoubi/,https://image.the-coupon.jp/coupon/image/8RoFLigDBciedM6AlXyc/jb0014_1752038990497?v=1752038990691,,138.293404,34.8339387,
477,アイメガネ焼津石津店,アイメガネヤイヅイシヅテン,小売業,1000,"2,000円以上会計で1,000円引き",1,425-0041,静岡県焼津市石津3丁目19-16,054-656-0001,"営業時間10:00〜19:00
年中無休
",https://www.aimegane.com/shop/shizuoka/708/,https://www.instagram.com/aimegane_389/,https://image.the-coupon.jp/coupon/image/8RoFLigDBciedM6AlXyc/je5348_1752037750206?v=1752037750654,,138.3154849,34.8433181,
478,lit.,リット,その他,1000,"2,000円以上会計で1,000円引き",1,425-0076,静岡県焼津市小屋敷358,054-625-8820,"9時〜21時
物販のみ使用不可",https://beauty.hotpepper.jp/slnH000743859,,https://image.the-coupon.jp/coupon/image/8RoFLigDBciedM6AlXyc/ji7106_1752039370744?v=1752039371118,,138.2853204,34.8619921,
479,ボディケアスペース 理楽館,ボディケアスペース リラクカン,その他,1000,"2,000円以上会計で1,000円引き",1,425-0036,静岡県焼津市西小川7丁目1-1 第二大ヤブビル101号,054-620-6770,"・営業時間/10:00〜19:00（当日最終受付/17:00）

・定休日/毎週火曜日＆金曜日

・TEL予約（受付/9:40〜17:00）もインターネット予約（24時間）もできます。

・現金払いでもPayPay決済、及びスマート支払いでもOKです。",http://www.relax-kan.com/,https://www.instagram.com/rilax_kan/,https://image.the-coupon.jp/coupon/image/8RoFLigDBciedM6AlXyc/jn2142_1752039144234?v=1752039144527,,138.308322,34.852528,
480,金寿し地魚定,キンズシジザカナテイ,飲食業,1000,"2,000円以上会計で1,000円引き",1,425-0021,静岡県焼津市中港2-4-18,054-620-9933,"夜営業17時から20時ラストオーダー迄
毎週水曜日木曜日夜営業定休日となります。　”ランチ営業にクーポンは利用できません”　
",https://www.jlzakana-tei,https://www.instagram.com/jizakanatei/,https://image.the-coupon.jp/coupon/image/8RoFLigDBciedM6AlXyc/kl2372_1752038314532?v=1752038315007,,138.3238678,34.8721313,
481,CheesePige焼津本店,チーズピゲヤイヅホンテン,小売業,1000,"2,000円以上会計で1,000円引き",1,425-0036,静岡県焼津市西小川2-4-9,054-639-5518,,https://cheesepige.jp,https://www.instagram.com/cheese.pige/,https://image.the-coupon.jp/coupon/image/8RoFLigDBciedM6AlXyc/gb7051_1752883969879?v=1752883970749,,138.3103659,34.8595838,
482,わかくさ,ワカクサ,小売業,1000,"2,000円以上会計で1,000円引き",1,421-0211,静岡県焼津市吉永1171-1,054-622-0110,,,,https://image.the-coupon.jp/coupon/image/8RoFLigDBciedM6AlXyc/nf2390_1752884038366?v=1752884038807,,138.296042,34.794041,
483,PIGE CAFE焼津駅前店,ピゲカフェヤイヅエキマエテン,飲食業,500,"1,000円以上会計で500円引き",1,425-0027,静岡県焼津市栄町4-1-6,054-625-9931,,https://cheesepige.jp/cookiepige/,https://www.instagram.com/pige_cafe/,https://image.the-coupon.jp/coupon/image/8RoFLigDBciedM6AlXyc/qp6148_1752884662285?v=1752884662998,,138.3196831,34.8702324,
484,betobento ベトナムバインミー専門店,ベトベントベトナムバインミーセンモンテン,飲食業,500,"1,000円以上会計で500円引き",1,425-0071,静岡県焼津市三ケ名826-1,080-7428-2916,,https://betobento.biz-option.com/,https://www.instagram.com/Betobento8261/,https://image.the-coupon.jp/coupon/image/8RoFLigDBciedM6AlXyc/mr8164_1752884742733?v=1752884743331,,138.3008299,34.859205,
485,セブン-イレブン焼津三ヶ名南店,セブン-イレブンヤイヅサンガミョウミナミテン,小売業,500,"1,000円以上会計で500円引き",1,425-0071,静岡県焼津市三ケ名字金剛作289-1,054-620-6026,,,,https://image.the-coupon.jp/coupon/image/8RoFLigDBciedM6AlXyc/oy5512_1752888639505?v=1752888639817,,138.300212,34.8538458,
486,みどりのお店ポメゾン,ミドリノオミセポメゾン,小売業,1000,"2,000円以上会計で1,000円引き",1,421-0216,静岡県焼津市相川638-2,054-622-7787,"【営業時間】
園芸　9:00〜18:00
カフェ　10:00〜18:00（ラストオーダー17:00）
園芸、カフェ両方で利用可能",https://pomaison.com/,https://www.instagram.com/pomaison/,https://image.the-coupon.jp/coupon/image/8RoFLigDBciedM6AlXyc/wi7356_1752884808733?v=1752884809109,,138.264967,34.806855,
487,パエザーノ,パエザーノ,飲食業,1000,"2,000円以上会計で1,000円引き",1,421-0205,静岡県焼津市宗高1510-3,054-662-2260,,,https://www.instagram.com/parsano1999/,https://image.the-coupon.jp/coupon/image/8RoFLigDBciedM6AlXyc/rl0892_1752884853973?v=1752884854634,,138.2766216,34.8141421,
488,ハピネス,ハピネス,その他,1000,"2,000円以上会計で1,000円引き",1,425-0072,静岡県焼津市大住130-4,090-8671-6941,,,,https://image.the-coupon.jp/coupon/image/8RoFLigDBciedM6AlXyc/ak7243_1752885044021?v=1752885044816,,138.2909493,34.8503135,
489,マックスバリュグランリバー大井川店,マックスバリュグランリバーオオイガワテン,小売業,1000,"2,000円以上会計で1,000円引き",1,421-0218,静岡県焼津市下江留1424-1,054-664-0889,"マックスバリュグランリバー大井川店でのみ利用可能です。
店内クリーニング店「シルキー」ではご利用いただけません。
店頭催事業者さま、「焼鳥」、「餃子」ではご利用いただけません。",https://www.mv-tokai.co.jp/store/14497/,,https://image.the-coupon.jp/coupon/image/8RoFLigDBciedM6AlXyc/hj6608_1752885238341?v=1752885239048,,138.2746272,34.8099732,
490,とこやさん,トコヤサン,その他,500,"1,000円以上会計で500円引き",1,425-0064,静岡県焼津市三和1166-2,054-623-3065,"営業時間
9:00〜18:30
9:00〜12:00(木曜日)
定休日　月曜日、木曜日の午後",,,https://image.the-coupon.jp/coupon/image/8RoFLigDBciedM6AlXyc/ne4753_1752885294309?v=1752885294872,,138.2979348,34.8276773,
491,セブン-イレブン焼津市石津西店,セブン-イレブンヤイヅイシヅニシテン,小売業,500,"1,000円以上会計で500円引き",1,425-0034,静岡県焼津市与惣次2丁目16-1,054-624-1633,,,,https://image.the-coupon.jp/coupon/image/8RoFLigDBciedM6AlXyc/xc3089_1752885373269?v=1752885374097,,138.3112417,34.8452237,
492,ドラッグストアコスモス焼津本町店,ドラッグストアコスモスヤイヅホンマチテン,小売業,500,"1,000円以上会計で500円引き",1,425-0022,静岡県焼津市本町5-5-5,054-621-3110,,https://www.cosmospc.co.jp/,,https://image.the-coupon.jp/coupon/image/8RoFLigDBciedM6AlXyc/bn2745_1752888589929?v=1752888590163,,138.3207552,34.8619852,
493,ドラッグストアコスモス石津店,ドラッグストアコスモスイシヅテン,小売業,500,"1,000円以上会計で500円引き",1,425-0041,静岡県焼津市石津1-20-3,054-631-7666,,https://www.cosmospc.co.jp/,,https://image.the-coupon.jp/coupon/image/8RoFLigDBciedM6AlXyc/ty5091_1752888686465?v=1752888686662,,138.3106676,34.8409388,
494,杏林堂薬局　焼津与惣次店,キョウリンドウヤッキョク　ヤイヅヨソウジテン,小売業,1000,"2,000円以上会計で1,000円引き",1,425-0034,静岡県焼津市与惣次1-3-5,054-656-1711,営業時間　9:00 - 22:00,https://www.kyorindo.co.jp/,,https://image.the-coupon.jp/coupon/image/8RoFLigDBciedM6AlXyc/ku3260_1752885479356?v=1752885479951,,138.3119776,34.8461842,
495,杏林堂薬局　焼津大住店,キョウリンドウヤッキョク　ヤイヅオオズミテン,小売業,1000,"2,000円以上会計で1,000円引き",1,425-0072,静岡県焼津市大住673,054-621-5711,営業時間　9:00 - 21:45,https://www.kyorindo.co.jp/,,https://image.the-coupon.jp/coupon/image/8RoFLigDBciedM6AlXyc/lt2187_1752885495549?v=1752885496053,,138.2913752,34.8474242,
496,杏林堂薬局　西焼津駅北店,キョウリンドウヤッキョク　ニシヤイヅエキキタテン,小売業,1000,"2,000円以上会計で1,000円引き",1,425-0076,静岡県焼津市小屋敷385,054-621-1411,営業時間　9:00 - 21:45,https://www.kyorindo.co.jp/,,https://image.the-coupon.jp/coupon/image/8RoFLigDBciedM6AlXyc/yd6352_1752885585212?v=1752885585759,,138.2848513,34.86095,
497,ピオン焼津店,ピオンヤイヅテン,小売業,1000,"2,000円以上会計で1,000円引き",1,425-0041,静岡県焼津市石津1丁目9番7,054-631-6215,営業時間10：00〜19：00,https://pionlife.com/,https://www.instagram.com/life_design_pion/,https://image.the-coupon.jp/coupon/image/8RoFLigDBciedM6AlXyc/fp7093_1752885641188?v=1752885641580,,138.3110774,34.8426554,
498,ウエルシア焼津南店,ウエルシアヤイヅミナミテン,小売業,1000,"2,000円以上会計で1,000円引き",1,425-0034,静岡県焼津市与惣次1-26-5,054-623-8534,処方箋の自己負担金の支払いには使用できません。,https://store.welcia.co.jp/welcia/spot/detail?code=7022D&category=01.02.06.12.18.20,,https://image.the-coupon.jp/coupon/image/8RoFLigDBciedM6AlXyc/vs4901_1752888708745?v=1752888708962,,138.3083974,34.8446073,
499,セブンイレブン焼津1丁目店,セブンイレブンヤイヅイッチョウメテン,小売業,500,"1,000円以上会計で500円引き",1,425-0026,静岡県焼津市焼津1丁目4-18,054-628-6757,クーポンは9:00-21:00のみ利用可,,,https://image.the-coupon.jp/coupon/image/8RoFLigDBciedM6AlXyc/zo1304_1752885729556?v=1752885730167,,138.316375,34.8667265,
500,セブンイレブン焼津本町3丁目店,セブンイレブンヤイヅホンマチサンチョウメテン,小売業,500,"1,000円以上会計で500円引き",1,425-0022,静岡県焼津市本町三丁目2-1,054-628-0107,,,,https://image.the-coupon.jp/coupon/image/8RoFLigDBciedM6AlXyc/bl8607_1752885789956?v=1752885790553,,138.3202301,34.8654828,
501,ウエルシア焼津田尻北店,ウエルシアヤイヅタジリキタテン,小売業,1000,"2,000円以上会計で1,000円引き",1,425-0051,静岡県焼津市田尻北261,054-656-1188,処方箋の自己負担金の支払いには利用できません。,https://store.welcia.co.jp/welcia/spot/detail?code=7093D&lang=ja&category=01.02.06.12.18.20,,https://image.the-coupon.jp/coupon/image/8RoFLigDBciedM6AlXyc/jx4205_1752888733169?v=1752888733427,,138.3254602,34.8328459,
502,ウエルシア焼津八楠店,ウエルシアヤイヅヤグステン,小売業,1000,"2,000円以上会計で1,000円引き",1,425-0091,静岡県焼津市八楠2-29-6,054-620-9388,処方箋の自己負担金の支払いには使用できません。,https://store.welcia.co.jp/welcia/spot/detail?code=7120D&lang=ja&category=01.02.06.12.18.20,,https://image.the-coupon.jp/coupon/image/8RoFLigDBciedM6AlXyc/qs9730_1752888750265?v=1752888750494,,138.3079865,34.880475,
503,ウエルシア焼津駅店,ウエルシアヤイヅエキテン,小売業,1000,"2,000円以上会計で1,000円引き",1,425-0027,静岡県焼津市栄町1-1-1,054-620-0868,処方箋の自己負担金の支払いには使用できません。,https://store.welcia.co.jp/welcia/spot/detail?code=7135D&lang=ja&category=01.02.06.12.18.20,,https://image.the-coupon.jp/coupon/image/8RoFLigDBciedM6AlXyc/db6952_1752888768025?v=1752888768261,,138.3183899,34.8719482,
504,ウエルシア焼津小柳津店,ウエルシアヤイヅオヤイヅテン,小売業,1000,"2,000円以上会計で1,000円引き",1,425-0073,静岡県焼津市小柳津218-1,054-629-8814,処方箋の自己負担金の支払いには使用できません。,https://store.welcia.co.jp/welcia/spot/detail?code=7145D,,https://image.the-coupon.jp/coupon/image/8RoFLigDBciedM6AlXyc/uf3461_1752888803201?v=1752888803463,,138.2829336,34.8535074,
505,ウエルシア焼津三ヶ名店,ウエルシアヤイヅサンガミョウテン,小売業,1000,"2,000円以上会計で1,000円引き",1,425-0071,静岡県焼津市三ケ名794,054-620-7038,処方箋の自己負担金の支払いには使用できません。,https://store.welcia.co.jp/welcia/spot/detail?code=7209D&lang=ja&category=01.02.06.12.18.20,,https://image.the-coupon.jp/coupon/image/8RoFLigDBciedM6AlXyc/ka5980_1752888819633?v=1752888819910,,138.299465,34.8596753,
506, ウエルシア焼津塩津店,ウエルシアヤイヅシオツテン,小売業,1000,"2,000円以上会計で1,000円引き",1,425-0085,静岡県焼津市塩津61-1,054-621-4555,処方箋の自己負担金の支払いには使用できません。,https://store.welcia.co.jp/welcia/spot/detail?code=7213D&lang=ja&category=01.02.06.12.18.20,,https://image.the-coupon.jp/coupon/image/8RoFLigDBciedM6AlXyc/oy7823_1752888854305?v=1752888854544,,138.3057004,34.8687042,
507, ウエルシアグランリバー焼津大井川店,ウエルシアグランリバーヤイヅオオイガワテン,小売業,1000,"2,000円以上会計で1,000円引き",1,421-0218,静岡県焼津市下江留1444-1,054-6640850,処方箋の自己負担金の支払いには使用できません。,https://store.welcia.co.jp/welcia/spot/detail?code=7240D&lang=ja&category=01.02.06.12.18.20,,https://image.the-coupon.jp/coupon/image/8RoFLigDBciedM6AlXyc/xc0615_1752888897689?v=1752888897994,,138.2749245,34.8113771,
508,スマイルビューティー，K,スマイルビューティーケイ,小売業,1000,"2,000円以上会計で1,000円引き",1,425-0086,静岡県焼津市小土1131番地の1,054-621-7788,"営業時間10:00〜19:00
定休日　毎週水曜日、木曜日",sbk4949.p-kit.com,,https://image.the-coupon.jp/coupon/image/8RoFLigDBciedM6AlXyc/pg8207_1752885870588?v=1752885871003,,138.2889153,34.862512,
509,ウエルシア焼津下小田店,ウエルシアヤイヅシモオダテン,小売業,1000,"2,000円以上会計で1,000円引き",1,425-0059,静岡県焼津市下小田上町25-4,054-656-1760,処方箋の自己負担金の支払いには使用できません。,https://store.welcia.co.jp/welcia/spot/detail?code=7246D&lang=ja&category=01.02.06.12.18.20,,https://image.the-coupon.jp/coupon/image/8RoFLigDBciedM6AlXyc/ik3409_1752888921281?v=1752888921495,,138.31253,34.8378996,
510,ウエルシア焼津東小川店,ウエルシアヤイヅヒガシコガワテン,小売業,1000,"2,000円以上会計で1,000円引き",1,425-0035,静岡県焼津市東小川2-2-6,054-621-5211,処方箋の自己負担金の支払いには使用できません。,https://store.welcia.co.jp/welcia/spot/detail?code=7256D&lang=ja&category=01.02.06.12.18.20,,https://image.the-coupon.jp/coupon/image/8RoFLigDBciedM6AlXyc/ru7852_1752888937064?v=1752888937296,,138.3175654,34.8566861,
511,ウエルシア薬局焼津ねぎ島店,ウエルシアヤイヅネギシマテン,小売業,1000,"2,000円以上会計で1,000円引き",1,425-0047,静岡県焼津市東祢宜島16-4,054-623-0933,処方箋の自己負担金の支払いには使用できません。,https://store.welcia.co.jp/welcia/spot/detail?code=7304D&lang=ja&category=01.02.06.12.18.20,,https://image.the-coupon.jp/coupon/image/8RoFLigDBciedM6AlXyc/wj2508_1752888951337?v=1752888951584,,138.3025248,34.8434316,
512,ウエルシア薬局焼津新焼津店,ウエルシアヤッキョクヤイヅシンヤイヅテン,小売業,1000,"2,000円以上会計で1,000円引き",1,425-0026,静岡県焼津市焼津4-6-20,054-621-3788,処方箋の自己負担金の支払いには使用できません。,https://store.welcia.co.jp/welcia/spot/detail?code=7903C&lang=ja&category=01.02.06.12.18.20,,https://image.the-coupon.jp/coupon/image/8RoFLigDBciedM6AlXyc/yv5194_1752888967793?v=1752888968028,,138.3139328,34.8618789,
513,ウエルシア薬局焼津与惣次店,ウエルシアヤッキョクヤイヅヨソウジテン,小売業,1000,"2,000円以上会計で1,000円引き",1,425-0034,静岡県焼津市与惣次1-10-11,054-656-1537,処方箋の自己負担金の支払いには使用できません。,https://store.welcia.co.jp/welcia/spot/detail?code=7912C&lang=ja&category=01.02.06.12.18.20,,https://image.the-coupon.jp/coupon/image/8RoFLigDBciedM6AlXyc/bn7035_1752888985704?v=1752888986076,,138.3099277,34.8455898,
514,ウエルシア焼津三ケ名東店,ウエルシアヤイヅサンガミョウヒガシテン,小売業,1000,"2,000円以上会計で1,000円引き",1,425-0071,静岡県焼津市三ケ名1100-6,054-625-7256,処方箋の自己負担金の支払いには使用できません。,https://store.welcia.co.jp/welcia/spot/detail?code=7359D&lang=ja&category=01.02.06.12.18.20,,https://image.the-coupon.jp/coupon/image/8RoFLigDBciedM6AlXyc/vs3642_1752889009376?v=1752889009600,,138.307494,34.862887,
515,クリエイトエス・ディー焼津三ヶ名店,クリエイトエス・ディーヤイヅサンガミョウテン,小売業,1000,"2,000円以上会計で1,000円引き",1,425-0071,静岡県焼津市三ケ名218,054-621-0511,"タバコ購入にはご利用いただけません。
税込み2000円以上のお会計でご使用いただけます。",https://www.create-sd.co.jp/,https://www.instagram.com/create_sd_official/,https://image.the-coupon.jp/coupon/image/8RoFLigDBciedM6AlXyc/qh6170_1752886612067?v=1752886612341,,138.2992771,34.8534652,
516,クリエイトエスディー焼津下小田店,クリエイトエスディーヤイヅシモオダ,小売業,1000,"2,000円以上会計で1,000円引き",1,425-0059,静岡県焼津市下小田上町 2-3,054-656-3161,"タバコのご購入には使用いただけません。
税込み2000円以上のお会計でご使用いただけます。",https://www.create-sd.co.jp/,https://www.instagram.com/create_sd_official/,https://image.the-coupon.jp/coupon/image/8RoFLigDBciedM6AlXyc/ta8326_1752886776059?v=1752886776617,,138.3173516,34.8379298,
517,ENEOS焼津インターSS,エネオスヤイヅインターエスエス,小売業,1000,"2,000円以上会計で1,000円引き",1,425-0091,静岡県焼津市八楠3-3-3,054-628-3716,"営業時間：7:00-19:00（日曜定休）
利用条件に関する注意：給油や洗車、オイル交換など当店のメニュー各種にご利用いただけます。給油の場合は、2000円以上のご利用になりそうか、給油前にあらかじめスタッフと共に確認させていただきます。1000円クーポン分については各種提携ポイント(VポイントやRポイント等)の付与はありません。",https://www.makita-oil.co.jp/%E3%82%AB%E3%83%BC%E3%83%A9%E3%82%A4%E3%83%95/eneos%E7%84%BC%E6%B4%A5%E3%82%A4%E3%83%B3%E3%82%BF%E3%83%BCss,https://www.instagram.com/eneos_yaizu_inter_ss/,https://image.the-coupon.jp/coupon/image/8RoFLigDBciedM6AlXyc/ud4039_1752886868156?v=1752886868525,,138.310938,34.878313,
518,クリエイトエス・ディー焼津小土店,クリエイトエス・ディーヤイヅコヒジテン,小売業,1000,"2,000円以上会計で1,000円引き",1,425-0086,静岡県焼津市小土 270-17,054-621-3151,"タバコのご購入には使用いただけません。
税込み2000円以上のお会計でご使用いただけます。",https://www.create-sd.co.jp/,https://www.instagram.com/create_sd_official/,https://image.the-coupon.jp/coupon/image/8RoFLigDBciedM6AlXyc/xy9217_1752887177243?v=1752887177844,,138.293923,34.8688367,
519,クリエイトエスディー焼津四丁目店,クリエイトエスディーヤイヅヨンチョウメテン,小売業,1000,"2,000円以上会計で1,000円引き",1,425-0026,静岡県焼津市焼津 4-7-26,054-621-5021,"タバコのご購入には使用いただけません。
税込み2000円以上のお会計でご使用いただけます。",https://www.create-sd.co.jp/,https://www.instagram.com/create_sd_official/,https://image.the-coupon.jp/coupon/image/8RoFLigDBciedM6AlXyc/fa1860_1752887459634?v=1752887460471,,138.3146324,34.8638755,
520,ビジネスホテル大井川,ビジネスホテルオオイガワ,宿泊業,500,"1,000円以上会計で500円引き",1,421-0214,静岡県焼津市中島452-1,080-5100-2445,,https://bhoigawa.com,https://www.instagram.com/bhoigawa/,https://image.the-coupon.jp/coupon/image/8RoFLigDBciedM6AlXyc/mj0523_1752887523986?v=1752887524468,,138.2768804,34.7916288,
521,松の井指圧・鍼・灸院,マツノイシアツ・ハリ・キュウイン,その他,1000,"2,000円以上会計で1,000円引き",1,425-0035,静岡県焼津市東小川４丁目１８?１０,054-628-4594,"クーポンは施術のみ利用可
予約制",,,https://image.the-coupon.jp/coupon/image/8RoFLigDBciedM6AlXyc/ew4387_1752889033657?v=1752889033893,,138.3154265,34.8534154,
522,又八商店,マタハチショウテン,小売業,500,"1,000円以上会計で500円引き",1,425-0027,静岡県焼津市5-10-25,080-4778-3156,"営業時間11：30〜18：00
定休日：毎週木曜",,https://www.instagram.com/matahachi_syoten/,https://image.the-coupon.jp/coupon/image/8RoFLigDBciedM6AlXyc/kp9736_1752887992042?v=1752887992244,,138.3238554,34.876337,
523,株式会社サスナ,サスナ,小売業,1000,"2,000円以上会計で1,000円引き",1,425-0014,静岡県焼津市中里824番地,054-627-5525,"営業日：月曜日〜金曜日
営業時間：9:00〜16:30",https://www.sasuna.co.jp/,https://www.instagram.com/sasuna014127/,https://image.the-coupon.jp/coupon/image/8RoFLigDBciedM6AlXyc/zi0412_1752888230426?v=1752888231077,,138.3131503,34.8818627,
524,アロマリンパマッサージサロン　和?なごみ?,アロマリンパマッサージサロン　ナゴミ,その他,1000,"2,000円以上会計で1,000円引き",1,425-0059,静岡県焼津市下小田上町18-16,090-7312-4007,,https://beauty.hotpepper.jp/kr/slnH000732629,,https://image.the-coupon.jp/coupon/image/8RoFLigDBciedM6AlXyc/qn2380_1752888422089?v=1752888422794,,138.3162797,34.8372811,
525,ひかり鍼灸接骨院 イオン焼津院,ヒカリハリキュウセッコツイン　イオンヤイヅイン,その他,500,"1,000円以上会計で500円引き",1,425-0045,静岡県焼津市祢宜島555,054-623-7222,"【午前】9:00～12:00,【午後】14:00～19:00 年中無休",,,,,138.3162797,34.8372811,
526,ひかり鍼灸接骨院 食鮮館タイヨー小土院,ヒカリハリキュウセッコツイン　ショクセンカンタイヨーコヒジイン,その他,500,"1,000円以上会計で500円引き",1,425-0086,静岡県焼津市小土270-16,054-626-2266,"【午前】9:00～12:00,【午後】15:00～20:00 土曜日は休み、日曜・祝日：【午前】9:00～12:00,【午後】14:00～17:00",,,,,138.2928635,34.8688455,
527,ひかり鍼灸接骨院 田子重田尻院,ヒカリハリキュウセッコツイン　タゴジュウタジリイン,その他,500,"2,000円以上会計で1,000円引き",1,425-0052,静岡県焼津市田尻421,054-623-5533,"【午前】9:00～12:00,【午後】14:00～19:00 　土曜・日曜・祝日：【午前】9:00～12:00,【午後】14:00～17:00",,,,,138.2928635,34.8688455,
,,,,,,,,,,,,,,,,,
,,,,,,,,,,,,,,,,,
,,,,,,,,,,,,,,,,,
,,,,,,,,,,,,,,,,,
,,,,,,,,,,,,,,,,,
,,,,,,,,,,,,,,,,,
,,,,,,,,,,,,,,,,,
,,,,,,,,,,,,,,,,,
,,,,,,,,,,,,,,,,,
,,,,,,,,,,,,,,,,,
,,,,,,,,,,,,,,,,,
,,,,,,,,,,,,,,,,,
,,,,,,,,,,,,,,,,,
,,,,,,,,,,,,,,,,,
,,,,,,,,,,,,,,,,,
,,,,,,,,,,,,,,,,,
,,,,,,,,,,,,,,,,,
,,,,,,,,,,,,,,,,,
,,,,,,,,,,,,,,,,,
,,,,,,,,,,,,,,,,,
,,,,,,,,,,,,,,,,,
,,,,,,,,,,,,,,,,,
,,,,,,,,,,,,,,,,,
,,,,,,,,,,,,,,,,,
,,,,,,,,,,,,,,,,,
,,,,,,,,,,,,,,,,,
,,,,,,,,,,,,,,,,,
,,,,,,,,,,,,,,,,,
,,,,,,,,,,,,,,,,,
,,,,,,,,,,,,,,,,,
,,,,,,,,,,,,,,,,,
,,,,,,,,,,,,,,,,,
,,,,,,,,,,,,,,,,,
,,,,,,,,,,,,,,,,,
,,,,,,,,,,,,,,,,,
,,,,,,,,,,,,,,,,,
,,,,,,,,,,,,,,,,,
,,,,,,,,,,,,,,,,,
,,,,,,,,,,,,,,,,,
,,,,,,,,,,,,,,,,,
,,,,,,,,,,,,,,,,,
,,,,,,,,,,,,,,,,,
,,,,,,,,,,,,,,,,,
,,,,,,,,,,,,,,,,,
,,,,,,,,,,,,,,,,,
,,,,,,,,,,,,,,,,,
,,,,,,,,,,,,,,,,,
,,,,,,,,,,,,,,,,,
,,,,,,,,,,,,,,,,,
,,,,,,,,,,,,,,,,,
,,,,,,,,,,,,,,,,,
,,,,,,,,,,,,,,,,,
,,,,,,,,,,,,,,,,,
,,,,,,,,,,,,,,,,,
,,,,,,,,,,,,,,,,,
,,,,,,,,,,,,,,,,,
,,,,,,,,,,,,,,,,,
,,,,,,,,,,,,,,,,,
,,,,,,,,,,,,,,,,,
,,,,,,,,,,,,,,,,,
,,,,,,,,,,,,,,,,,
,,,,,,,,,,,,,,,,,
,,,,,,,,,,,,,,,,,
,,,,,,,,,,,,,,,,,
,,,,,,,,,,,,,,,,,
,,,,,,,,,,,,,,,,,
,,,,,,,,,,,,,,,,,
,,,,,,,,,,,,,,,,,
,,,,,,,,,,,,,,,,,
,,,,,,,,,,,,,,,,,
,,,,,,,,,,,,,,,,,
,,,,,,,,,,,,,,,,,
,,,,,,,,,,,,,,,,,
,,,,,,,,,,,,,,,,,
,,,,,,,,,,,,,,,,,
,,,,,,,,,,,,,,,,,
,,,,,,,,,,,,,,,,,
,,,,,,,,,,,,,,,,,
,,,,,,,,,,,,,,,,,
,,,,,,,,,,,,,,,,,
,,,,,,,,,,,,,,,,,
,,,,,,,,,,,,,,,,,
,,,,,,,,,,,,,,,,,
,,,,,,,,,,,,,,,,,
,,,,,,,,,,,,,,,,,
,,,,,,,,,,,,,,,,,
,,,,,,,,,,,,,,,,,
,,,,,,,,,,,,,,,,,
,,,,,,,,,,,,,,,,,
,,,,,,,,,,,,,,,,,
,,,,,,,,,,,,,,,,,
,,,,,,,,,,,,,,,,,
,,,,,,,,,,,,,,,,,
,,,,,,,,,,,,,,,,,
,,,,,,,,,,,,,,,,,
,,,,,,,,,,,,,,,,,
,,,,,,,,,,,,,,,,,
,,,,,,,,,,,,,,,,,
,,,,,,,,,,,,,,,,,
,,,,,,,,,,,,,,,,,
,,,,,,,,,,,,,,,,,
,,,,,,,,,,,,,,,,,
,,,,,,,,,,,,,,,,,
,,,,,,,,,,,,,,,,,
,,,,,,,,,,,,,,,,,
,,,,,,,,,,,,,,,,,
,,,,,,,,,,,,,,,,,
,,,,,,,,,,,,,,,,,
,,,,,,,,,,,,,,,,,
,,,,,,,,,,,,,,,,,
,,,,,,,,,,,,,,,,,
,,,,,,,,,,,,,,,,,
,,,,,,,,,,,,,,,,,
,,,,,,,,,,,,,,,,,
,,,,,,,,,,,,,,,,,
,,,,,,,,,,,,,,,,,
,,,,,,,,,,,,,,,,,
,,,,,,,,,,,,,,,,,
,,,,,,,,,,,,,,,,,
,,,,,,,,,,,,,,,,,
,,,,,,,,,,,,,,,,,
,,,,,,,,,,,,,,,,,
,,,,,,,,,,,,,,,,,
,,,,,,,,,,,,,,,,,
,,,,,,,,,,,,,,,,,
,,,,,,,,,,,,,,,,,
,,,,,,,,,,,,,,,,,
,,,,,,,,,,,,,,,,,
,,,,,,,,,,,,,,,,,
,,,,,,,,,,,,,,,,,
,,,,,,,,,,,,,,,,,
,,,,,,,,,,,,,,,,,
,,,,,,,,,,,,,,,,,
,,,,,,,,,,,,,,,,,
,,,,,,,,,,,,,,,,,
,,,,,,,,,,,,,,,,,
,,,,,,,,,,,,,,,,,
,,,,,,,,,,,,,,,,,
,,,,,,,,,,,,,,,,,
,,,,,,,,,,,,,,,,,
,,,,,,,,,,,,,,,,,
,,,,,,,,,,,,,,,,,
,,,,,,,,,,,,,,,,,
,,,,,,,,,,,,,,,,,
,,,,,,,,,,,,,,,,,
,,,,,,,,,,,,,,,,,
,,,,,,,,,,,,,,,,,
,,,,,,,,,,,,,,,,,
,,,,,,,,,,,,,,,,,
,,,,,,,,,,,,,,,,,
,,,,,,,,,,,,,,,,,
,,,,,,,,,,,,,,,,,
,,,,,,,,,,,,,,,,,
,,,,,,,,,,,,,,,,,
,,,,,,,,,,,,,,,,,
,,,,,,,,,,,,,,,,,
,,,,,,,,,,,,,,,,,
,,,,,,,,,,,,,,,,,
,,,,,,,,,,,,,,,,,
,,,,,,,,,,,,,,,,,
,,,,,,,,,,,,,,,,,
,,,,,,,,,,,,,,,,,
,,,,,,,,,,,,,,,,,
,,,,,,,,,,,,,,,,,
,,,,,,,,,,,,,,,,,
,,,,,,,,,,,,,,,,,
,,,,,,,,,,,,,,,,,
,,,,,,,,,,,,,,,,,
,,,,,,,,,,,,,,,,,
,,,,,,,,,,,,,,,,,
,,,,,,,,,,,,,,,,,
,,,,,,,,,,,,,,,,,
,,,,,,,,,,,,,,,,,
,,,,,,,,,,,,,,,,,
,,,,,,,,,,,,,,,,,
,,,,,,,,,,,,,,,,,
,,,,,,,,,,,,,,,,,
,,,,,,,,,,,,,,,,,
,,,,,,,,,,,,,,,,,
,,,,,,,,,,,,,,,,,
,,,,,,,,,,,,,,,,,
,,,,,,,,,,,,,,,,,
,,,,,,,,,,,,,,,,,
,,,,,,,,,,,,,,,,,
,,,,,,,,,,,,,,,,,
,,,,,,,,,,,,,,,,,
,,,,,,,,,,,,,,,,,
,,,,,,,,,,,,,,,,,
,,,,,,,,,,,,,,,,,
,,,,,,,,,,,,,,,,,
,,,,,,,,,,,,,,,,,
,,,,,,,,,,,,,,,,,
,,,,,,,,,,,,,,,,,
,,,,,,,,,,,,,,,,,
,,,,,,,,,,,,,,,,,
,,,,,,,,,,,,,,,,,
,,,,,,,,,,,,,,,,,
,,,,,,,,,,,,,,,,,
,,,,,,,,,,,,,,,,,
,,,,,,,,,,,,,,,,,
,,,,,,,,,,,,,,,,,
,,,,,,,,,,,,,,,,,
,,,,,,,,,,,,,,,,,
,,,,,,,,,,,,,,,,,
,,,,,,,,,,,,,,,,,
,,,,,,,,,,,,,,,,,
,,,,,,,,,,,,,,,,,
,,,,,,,,,,,,,,,,,
,,,,,,,,,,,,,,,,,
,,,,,,,,,,,,,,,,,
,,,,,,,,,,,,,,,,,
,,,,,,,,,,,,,,,,,
,,,,,,,,,,,,,,,,,
,,,,,,,,,,,,,,,,,
,,,,,,,,,,,,,,,,,
,,,,,,,,,,,,,,,,,
,,,,,,,,,,,,,,,,,
,,,,,,,,,,,,,,,,,
,,,,,,,,,,,,,,,,,
,,,,,,,,,,,,,,,,,
,,,,,,,,,,,,,,,,,
,,,,,,,,,,,,,,,,,
,,,,,,,,,,,,,,,,,
,,,,,,,,,,,,,,,,,
,,,,,,,,,,,,,,,,,
,,,,,,,,,,,,,,,,,
,,,,,,,,,,,,,,,,,
,,,,,,,,,,,,,,,,,
,,,,,,,,,,,,,,,,,
,,,,,,,,,,,,,,,,,
,,,,,,,,,,,,,,,,,
,,,,,,,,,,,,,,,,,
,,,,,,,,,,,,,,,,,
,,,,,,,,,,,,,,,,,
,,,,,,,,,,,,,,,,,
,,,,,,,,,,,,,,,,,
,,,,,,,,,,,,,,,,,
,,,,,,,,,,,,,,,,,
,,,,,,,,,,,,,,,,,
,,,,,,,,,,,,,,,,,
,,,,,,,,,,,,,,,,,
,,,,,,,,,,,,,,,,,
,,,,,,,,,,,,,,,,,
,,,,,,,,,,,,,,,,,
,,,,,,,,,,,,,,,,,
,,,,,,,,,,,,,,,,,
,,,,,,,,,,,,,,,,,
,,,,,,,,,,,,,,,,,
,,,,,,,,,,,,,,,,,
,,,,,,,,,,,,,,,,,
,,,,,,,,,,,,,,,,,
,,,,,,,,,,,,,,,,,
,,,,,,,,,,,,,,,,,
,,,,,,,,,,,,,,,,,
,,,,,,,,,,,,,,,,,
,,,,,,,,,,,,,,,,,
,,,,,,,,,,,,,,,,,
,,,,,,,,,,,,,,,,,
,,,,,,,,,,,,,,,,,
,,,,,,,,,,,,,,,,,
,,,,,,,,,,,,,,,,,
,,,,,,,,,,,,,,,,,
,,,,,,,,,,,,,,,,,
,,,,,,,,,,,,,,,,,
,,,,,,,,,,,,,,,,,
,,,,,,,,,,,,,,,,,
,,,,,,,,,,,,,,,,,
,,,,,,,,,,,,,,,,,
,,,,,,,,,,,,,,,,,
,,,,,,,,,,,,,,,,,
,,,,,,,,,,,,,,,,,
,,,,,,,,,,,,,,,,,
,,,,,,,,,,,,,,,,,
,,,,,,,,,,,,,,,,,
,,,,,,,,,,,,,,,,,
,,,,,,,,,,,,,,,,,
,,,,,,,,,,,,,,,,,
,,,,,,,,,,,,,,,,,
,,,,,,,,,,,,,,,,,
,,,,,,,,,,,,,,,,,
,,,,,,,,,,,,,,,,,
,,,,,,,,,,,,,,,,,
,,,,,,,,,,,,,,,,,
,,,,,,,,,,,,,,,,,
,,,,,,,,,,,,,,,,,
,,,,,,,,,,,,,,,,,
,,,,,,,,,,,,,,,,,
,,,,,,,,,,,,,,,,,
,,,,,,,,,,,,,,,,,
,,,,,,,,,,,,,,,,,
,,,,,,,,,,,,,,,,,
,,,,,,,,,,,,,,,,,
,,,,,,,,,,,,,,,,,
,,,,,,,,,,,,,,,,,
,,,,,,,,,,,,,,,,,
,,,,,,,,,,,,,,,,,
,,,,,,,,,,,,,,,,,
,,,,,,,,,,,,,,,,,
,,,,,,,,,,,,,,,,,
,,,,,,,,,,,,,,,,,
,,,,,,,,,,,,,,,,,
,,,,,,,,,,,,,,,,,
,,,,,,,,,,,,,,,,,
,,,,,,,,,,,,,,,,,
,,,,,,,,,,,,,,,,,
,,,,,,,,,,,,,,,,,
,,,,,,,,,,,,,,,,,
,,,,,,,,,,,,,,,,,
,,,,,,,,,,,,,,,,,
,,,,,,,,,,,,,,,,,
,,,,,,,,,,,,,,,,,
,,,,,,,,,,,,,,,,,
,,,,,,,,,,,,,,,,,
,,,,,,,,,,,,,,,,,
,,,,,,,,,,,,,,,,,
,,,,,,,,,,,,,,,,,
,,,,,,,,,,,,,,,,,
,,,,,,,,,,,,,,,,,
,,,,,,,,,,,,,,,,,
,,,,,,,,,,,,,,,,,
,,,,,,,,,,,,,,,,,
,,,,,,,,,,,,,,,,,
,,,,,,,,,,,,,,,,,
,,,,,,,,,,,,,,,,,
,,,,,,,,,,,,,,,,,
,,,,,,,,,,,,,,,,,
,,,,,,,,,,,,,,,,,
,,,,,,,,,,,,,,,,,
,,,,,,,,,,,,,,,,,
,,,,,,,,,,,,,,,,,
,,,,,,,,,,,,,,,,,
,,,,,,,,,,,,,,,,,
,,,,,,,,,,,,,,,,,
,,,,,,,,,,,,,,,,,
,,,,,,,,,,,,,,,,,
,,,,,,,,,,,,,,,,,
,,,,,,,,,,,,,,,,,
,,,,,,,,,,,,,,,,,
,,,,,,,,,,,,,,,,,
,,,,,,,,,,,,,,,,,
,,,,,,,,,,,,,,,,,
,,,,,,,,,,,,,,,,,
,,,,,,,,,,,,,,,,,
,,,,,,,,,,,,,,,,,
,,,,,,,,,,,,,,,,,
,,,,,,,,,,,,,,,,,
,,,,,,,,,,,,,,,,,
,,,,,,,,,,,,,,,,,
,,,,,,,,,,,,,,,,,
,,,,,,,,,,,,,,,,,
,,,,,,,,,,,,,,,,,
,,,,,,,,,,,,,,,,,
,,,,,,,,,,,,,,,,,
,,,,,,,,,,,,,,,,,
,,,,,,,,,,,,,,,,,
,,,,,,,,,,,,,,,,,
,,,,,,,,,,,,,,,,,
,,,,,,,,,,,,,,,,,
,,,,,,,,,,,,,,,,,
,,,,,,,,,,,,,,,,,
,,,,,,,,,,,,,,,,,
,,,,,,,,,,,,,,,,,
,,,,,,,,,,,,,,,,,
,,,,,,,,,,,,,,,,,
,,,,,,,,,,,,,,,,,
,,,,,,,,,,,,,,,,,
,,,,,,,,,,,,,,,,,
,,,,,,,,,,,,,,,,,
,,,,,,,,,,,,,,,,,
,,,,,,,,,,,,,,,,,
,,,,,,,,,,,,,,,,,
,,,,,,,,,,,,,,,,,
,,,,,,,,,,,,,,,,,
,,,,,,,,,,,,,,,,,
,,,,,,,,,,,,,,,,,
,,,,,,,,,,,,,,,,,
,,,,,,,,,,,,,,,,,
,,,,,,,,,,,,,,,,,
,,,,,,,,,,,,,,,,,
,,,,,,,,,,,,,,,,,
,,,,,,,,,,,,,,,,,
,,,,,,,,,,,,,,,,,
,,,,,,,,,,,,,,,,,
,,,,,,,,,,,,,,,,,
,,,,,,,,,,,,,,,,,
,,,,,,,,,,,,,,,,,
,,,,,,,,,,,,,,,,,
,,,,,,,,,,,,,,,,,
,,,,,,,,,,,,,,,,,
,,,,,,,,,,,,,,,,,
,,,,,,,,,,,,,,,,,
,,,,,,,,,,,,,,,,,
,,,,,,,,,,,,,,,,,
,,,,,,,,,,,,,,,,,
,,,,,,,,,,,,,,,,,
,,,,,,,,,,,,,,,,,
,,,,,,,,,,,,,,,,,
,,,,,,,,,,,,,,,,,
,,,,,,,,,,,,,,,,,
,,,,,,,,,,,,,,,,,
,,,,,,,,,,,,,,,,,
,,,,,,,,,,,,,,,,,
,,,,,,,,,,,,,,,,,
,,,,,,,,,,,,,,,,,
,,,,,,,,,,,,,,,,,
,,,,,,,,,,,,,,,,,
,,,,,,,,,,,,,,,,,
,,,,,,,,,,,,,,,,,
,,,,,,,,,,,,,,,,,
,,,,,,,,,,,,,,,,,
,,,,,,,,,,,,,,,,,
,,,,,,,,,,,,,,,,,
,,,,,,,,,,,,,,,,,
,,,,,,,,,,,,,,,,,
,,,,,,,,,,,,,,,,,
,,,,,,,,,,,,,,,,,
,,,,,,,,,,,,,,,,,
,,,,,,,,,,,,,,,,,
,,,,,,,,,,,,,,,,,
,,,,,,,,,,,,,,,,,
,,,,,,,,,,,,,,,,,
,,,,,,,,,,,,,,,,,
,,,,,,,,,,,,,,,,,
,,,,,,,,,,,,,,,,,
,,,,,,,,,,,,,,,,,
,,,,,,,,,,,,,,,,,
,,,,,,,,,,,,,,,,,
,,,,,,,,,,,,,,,,,
,,,,,,,,,,,,,,,,,
,,,,,,,,,,,,,,,,,
,,,,,,,,,,,,,,,,,
,,,,,,,,,,,,,,,,,
,,,,,,,,,,,,,,,,,
,,,,,,,,,,,,,,,,,
,,,,,,,,,,,,,,,,,
,,,,,,,,,,,,,,,,,
,,,,,,,,,,,,,,,,,
,,,,,,,,,,,,,,,,,
,,,,,,,,,,,,,,,,,
,,,,,,,,,,,,,,,,,
,,,,,,,,,,,,,,,,,
,,,,,,,,,,,,,,,,,
,,,,,,,,,,,,,,,,,
,,,,,,,,,,,,,,,,,
,,,,,,,,,,,,,,,,,
,,,,,,,,,,,,,,,,,
,,,,,,,,,,,,,,,,,
,,,,,,,,,,,,,,,,,
,,,,,,,,,,,,,,,,,
,,,,,,,,,,,,,,,,,
,,,,,,,,,,,,,,,,,
,,,,,,,,,,,,,,,,,
,,,,,,,,,,,,,,,,,
,,,,,,,,,,,,,,,,,
,,,,,,,,,,,,,,,,,
,,,,,,,,,,,,,,,,,
,,,,,,,,,,,,,,,,,
,,,,,,,,,,,,,,,,,
,,,,,,,,,,,,,,,,,
,,,,,,,,,,,,,,,,,
,,,,,,,,,,,,,,,,,
,,,,,,,,,,,,,,,,,
,,,,,,,,,,,,,,,,,
,,,,,,,,,,,,,,,,,
,,,,,,,,,,,,,,,,,
,,,,,,,,,,,,,,,,,
,,,,,,,,,,,,,,,,,
,,,,,,,,,,,,,,,,,
,,,,,,,,,,,,,,,,,
,,,,,,,,,,,,,,,,,
,,,,,,,,,,,,,,,,,
,,,,,,,,,,,,,,,,,
,,,,,,,,,,,,,,,,,
,,,,,,,,,,,,,,,,,
,,,,,,,,,,,,,,,,,
,,,,,,,,,,,,,,,,,
,,,,,,,,,,,,,,,,,
,,,,,,,,,,,,,,,,,
,,,,,,,,,,,,,,,,,
,,,,,,,,,,,,,,,,,
,,,,,,,,,,,,,,,,,
,,,,,,,,,,,,,,,,,
,,,,,,,,,,,,,,,,,
,,,,,,,,,,,,,,,,,
,,,,,,,,,,,,,,,,,
,,,,,,,,,,,,,,,,,
,,,,,,,,,,,,,,,,,
,,,,,,,,,,,,,,,,,
,,,,,,,,,,,,,,,,,
,,,,,,,,,,,,,,,,,
,,,,,,,,,,,,,,,,,
,,,,,,,,,,,,,,,,,
,,,,,,,,,,,,,,,,,
,,,,,,,,,,,,,,,,,
,,,,,,,,,,,,,,,,,
,,,,,,,,,,,,,,,,,
,,,,,,,,,,,,,,,,,
,,,,,,,,,,,,,,,,,
,,,,,,,,,,,,,,,,,
,,,,,,,,,,,,,,,,,
,,,,,,,,,,,,,,,,,
,,,,,,,,,,,,,,,,,
,,,,,,,,,,,,,,,,,
,,,,,,,,,,,,,,,,,
,,,,,,,,,,,,,,,,,
,,,,,,,,,,,,,,,,,
,,,,,,,,,,,,,,,,,
,,,,,,,,,,,,,,,,,
,,,,,,,,,,,,,,,,,
,,,,,,,,,,,,,,,,,
,,,,,,,,,,,,,,,,,
,,,,,,,,,,,,,,,,,
,,,,,,,,,,,,,,,,,
,,,,,,,,,,,,,,,,,
,,,,,,,,,,,,,,,,,
,,,,,,,,,,,,,,,,,
,,,,,,,,,,,,,,,,,
,,,,,,,,,,,,,,,,,
,,,,,,,,,,,,,,,,,
,,,,,,,,,,,,,,,,,
,,,,,,,,,,,,,,,,,
,,,,,,,,,,,,,,,,,
,,,,,,,,,,,,,,,,,
,,,,,,,,,,,,,,,,,
,,,,,,,,,,,,,,,,,
,,,,,,,,,,,,,,,,,
,,,,,,,,,,,,,,,,,
,,,,,,,,,,,,,,,,,
,,,,,,,,,,,,,,,,,
,,,,,,,,,,,,,,,,,
,,,,,,,,,,,,,,,,,
,,,,,,,,,,,,,,,,,
,,,,,,,,,,,,,,,,,
,,,,,,,,,,,,,,,,,
,,,,,,,,,,,,,,,,,
,,,,,,,,,,,,,,,,,
,,,,,,,,,,,,,,,,,
,,,,,,,,,,,,,,,,,
,,,,,,,,,,,,,,,,,
,,,,,,,,,,,,,,,,,
,,,,,,,,,,,,,,,,,
,,,,,,,,,,,,,,,,,
,,,,,,,,,,,,,,,,,
,,,,,,,,,,,,,,,,,
,,,,,,,,,,,,,,,,,
,,,,,,,,,,,,,,,,,
,,,,,,,,,,,,,,,,,
,,,,,,,,,,,,,,,,,
,,,,,,,,,,,,,,,,,
,,,,,,,,,,,,,,,,,
,,,,,,,,,,,,,,,,,
,,,,,,,,,,,,,,,,,
,,,,,,,,,,,,,,,,,
,,,,,,,,,,,,,,,,,
,,,,,,,,,,,,,,,,,
,,,,,,,,,,,,,,,,,
,,,,,,,,,,,,,,,,,
,,,,,,,,,,,,,,,,,
,,,,,,,,,,,,,,,,,
,,,,,,,,,,,,,,,,,
,,,,,,,,,,,,,,,,,
,,,,,,,,,,,,,,,,,
,,,,,,,,,,,,,,,,,
,,,,,,,,,,,,,,,,,
,,,,,,,,,,,,,,,,,
,,,,,,,,,,,,,,,,,
,,,,,,,,,,,,,,,,,
,,,,,,,,,,,,,,,,,
,,,,,,,,,,,,,,,,,
,,,,,,,,,,,,,,,,,
,,,,,,,,,,,,,,,,,
,,,,,,,,,,,,,,,,,
,,,,,,,,,,,,,,,,,
,,,,,,,,,,,,,,,,,
,,,,,,,,,,,,,,,,,
,,,,,,,,,,,,,,,,,
,,,,,,,,,,,,,,,,,
,,,,,,,,,,,,,,,,,
,,,,,,,,,,,,,,,,,
,,,,,,,,,,,,,,,,,
,,,,,,,,,,,,,,,,,
,,,,,,,,,,,,,,,,,
,,,,,,,,,,,,,,,,,
,,,,,,,,,,,,,,,,,
,,,,,,,,,,,,,,,,,
,,,,,,,,,,,,,,,,,
,,,,,,,,,,,,,,,,,
,,,,,,,,,,,,,,,,,
,,,,,,,,,,,,,,,,,
,,,,,,,,,,,,,,,,,
,,,,,,,,,,,,,,,,,
,,,,,,,,,,,,,,,,,
,,,,,,,,,,,,,,,,,
,,,,,,,,,,,,,,,,,
,,,,,,,,,,,,,,,,,
,,,,,,,,,,,,,,,,,
,,,,,,,,,,,,,,,,,
,,,,,,,,,,,,,,,,,
,,,,,,,,,,,,,,,,,
,,,,,,,,,,,,,,,,,
,,,,,,,,,,,,,,,,,
,,,,,,,,,,,,,,,,,
,,,,,,,,,,,,,,,,,
,,,,,,,,,,,,,,,,,
,,,,,,,,,,,,,,,,,
,,,,,,,,,,,,,,,,,
,,,,,,,,,,,,,,,,,
,,,,,,,,,,,,,,,,,
,,,,,,,,,,,,,,,,,
,,,,,,,,,,,,,,,,,
,,,,,,,,,,,,,,,,,
,,,,,,,,,,,,,,,,,
,,,,,,,,,,,,,,,,,
,,,,,,,,,,,,,,,,,
,,,,,,,,,,,,,,,,,
,,,,,,,,,,,,,,,,,
,,,,,,,,,,,,,,,,,
,,,,,,,,,,,,,,,,,
,,,,,,,,,,,,,,,,,
,,,,,,,,,,,,,,,,,
,,,,,,,,,,,,,,,,,
,,,,,,,,,,,,,,,,,
,,,,,,,,,,,,,,,,,
,,,,,,,,,,,,,,,,,
,,,,,,,,,,,,,,,,,
,,,,,,,,,,,,,,,,,
,,,,,,,,,,,,,,,,,
,,,,,,,,,,,,,,,,,
,,,,,,,,,,,,,,,,,
,,,,,,,,,,,,,,,,,
,,,,,,,,,,,,,,,,,
,,,,,,,,,,,,,,,,,
,,,,,,,,,,,,,,,,,
,,,,,,,,,,,,,,,,,
,,,,,,,,,,,,,,,,,
,,,,,,,,,,,,,,,,,
,,,,,,,,,,,,,,,,,
,,,,,,,,,,,,,,,,,
,,,,,,,,,,,,,,,,,
,,,,,,,,,,,,,,,,,
,,,,,,,,,,,,,,,,,
,,,,,,,,,,,,,,,,,
,,,,,,,,,,,,,,,,,
,,,,,,,,,,,,,,,,,
,,,,,,,,,,,,,,,,,
,,,,,,,,,,,,,,,,,
,,,,,,,,,,,,,,,,,
,,,,,,,,,,,,,,,,,
,,,,,,,,,,,,,,,,,
,,,,,,,,,,,,,,,,,
,,,,,,,,,,,,,,,,,
,,,,,,,,,,,,,,,,,
,,,,,,,,,,,,,,,,,
,,,,,,,,,,,,,,,,,
,,,,,,,,,,,,,,,,,
,,,,,,,,,,,,,,,,,
,,,,,,,,,,,,,,,,,
,,,,,,,,,,,,,,,,,
,,,,,,,,,,,,,,,,,
,,,,,,,,,,,,,,,,,
,,,,,,,,,,,,,,,,,
,,,,,,,,,,,,,,,,,
,,,,,,,,,,,,,,,,,
,,,,,,,,,,,,,,,,,
,,,,,,,,,,,,,,,,,
,,,,,,,,,,,,,,,,,
,,,,,,,,,,,,,,,,,
,,,,,,,,,,,,,,,,,
,,,,,,,,,,,,,,,,,
,,,,,,,,,,,,,,,,,
,,,,,,,,,,,,,,,,,
,,,,,,,,,,,,,,,,,
,,,,,,,,,,,,,,,,,
,,,,,,,,,,,,,,,,,
,,,,,,,,,,,,,,,,,
,,,,,,,,,,,,,,,,,
,,,,,,,,,,,,,,,,,
,,,,,,,,,,,,,,,,,
,,,,,,,,,,,,,,,,,
,,,,,,,,,,,,,,,,,
,,,,,,,,,,,,,,,,,
,,,,,,,,,,,,,,,,,
,,,,,,,,,,,,,,,,,
,,,,,,,,,,,,,,,,,
,,,,,,,,,,,,,,,,,
,,,,,,,,,,,,,,,,,
,,,,,,,,,,,,,,,,,
,,,,,,,,,,,,,,,,,
,,,,,,,,,,,,,,,,,
,,,,,,,,,,,,,,,,,
,,,,,,,,,,,,,,,,,
,,,,,,,,,,,,,,,,,
,,,,,,,,,,,,,,,,,
,,,,,,,,,,,,,,,,,
,,,,,,,,,,,,,,,,,
,,,,,,,,,,,,,,,,,
,,,,,,,,,,,,,,,,,
,,,,,,,,,,,,,,,,,
,,,,,,,,,,,,,,,,,
,,,,,,,,,,,,,,,,,
,,,,,,,,,,,,,,,,,
,,,,,,,,,,,,,,,,,
,,,,,,,,,,,,,,,,,
,,,,,,,,,,,,,,,,,
,,,,,,,,,,,,,,,,,
,,,,,,,,,,,,,,,,,
,,,,,,,,,,,,,,,,,
,,,,,,,,,,,,,,,,,
,,,,,,,,,,,,,,,,,
,,,,,,,,,,,,,,,,,
,,,,,,,,,,,,,,,,,
,,,,,,,,,,,,,,,,,
,,,,,,,,,,,,,,,,,
,,,,,,,,,,,,,,,,,
,,,,,,,,,,,,,,,,,
,,,,,,,,,,,,,,,,,
,,,,,,,,,,,,,,,,,
,,,,,,,,,,,,,,,,,
,,,,,,,,,,,,,,,,,
,,,,,,,,,,,,,,,,,
,,,,,,,,,,,,,,,,,
,,,,,,,,,,,,,,,,,
,,,,,,,,,,,,,,,,,
,,,,,,,,,,,,,,,,,
,,,,,,,,,,,,,,,,,
,,,,,,,,,,,,,,,,,
,,,,,,,,,,,,,,,,,
,,,,,,,,,,,,,,,,,
,,,,,,,,,,,,,,,,,
,,,,,,,,,,,,,,,,,
,,,,,,,,,,,,,,,,,
,,,,,,,,,,,,,,,,,
,,,,,,,,,,,,,,,,,
,,,,,,,,,,,,,,,,,
,,,,,,,,,,,,,,,,,
,,,,,,,,,,,,,,,,,
,,,,,,,,,,,,,,,,,
,,,,,,,,,,,,,,,,,
,,,,,,,,,,,,,,,,,
,,,,,,,,,,,,,,,,,
,,,,,,,,,,,,,,,,,
,,,,,,,,,,,,,,,,,
,,,,,,,,,,,,,,,,,
,,,,,,,,,,,,,,,,,
,,,,,,,,,,,,,,,,,
,,,,,,,,,,,,,,,,,
,,,,,,,,,,,,,,,,,
,,,,,,,,,,,,,,,,,
,,,,,,,,,,,,,,,,,
,,,,,,,,,,,,,,,,,
,,,,,,,,,,,,,,,,,
,,,,,,,,,,,,,,,,,
,,,,,,,,,,,,,,,,,
,,,,,,,,,,,,,,,,,
,,,,,,,,,,,,,,,,,
,,,,,,,,,,,,,,,,,
,,,,,,,,,,,,,,,,,
,,,,,,,,,,,,,,,,,
,,,,,,,,,,,,,,,,,
,,,,,,,,,,,,,,,,,
,,,,,,,,,,,,,,,,,
,,,,,,,,,,,,,,,,,
,,,,,,,,,,,,,,,,,
,,,,,,,,,,,,,,,,,
,,,,,,,,,,,,,,,,,
,,,,,,,,,,,,,,,,,
,,,,,,,,,,,,,,,,,
,,,,,,,,,,,,,,,,,
,,,,,,,,,,,,,,,,,
,,,,,,,,,,,,,,,,,
,,,,,,,,,,,,,,,,,
,,,,,,,,,,,,,,,,,
,,,,,,,,,,,,,,,,,
,,,,,,,,,,,,,,,,,
,,,,,,,,,,,,,,,,,
,,,,,,,,,,,,,,,,,
,,,,,,,,,,,,,,,,,
,,,,,,,,,,,,,,,,,
,,,,,,,,,,,,,,,,,
,,,,,,,,,,,,,,,,,
,,,,,,,,,,,,,,,,,
,,,,,,,,,,,,,,,,,
,,,,,,,,,,,,,,,,,
,,,,,,,,,,,,,,,,,
,,,,,,,,,,,,,,,,,
,,,,,,,,,,,,,,,,,
,,,,,,,,,,,,,,,,,
,,,,,,,,,,,,,,,,,
,,,,,,,,,,,,,,,,,
,,,,,,,,,,,,,,,,,
,,,,,,,,,,,,,,,,,
,,,,,,,,,,,,,,,,,
,,,,,,,,,,,,,,,,,
,,,,,,,,,,,,,,,,,
,,,,,,,,,,,,,,,,,
,,,,,,,,,,,,,,,,,
,,,,,,,,,,,,,,,,,
,,,,,,,,,,,,,,,,,
,,,,,,,,,,,,,,,,,
,,,,,,,,,,,,,,,,,
,,,,,,,,,,,,,,,,,
,,,,,,,,,,,,,,,,,
,,,,,,,,,,,,,,,,,
,,,,,,,,,,,,,,,,,
,,,,,,,,,,,,,,,,,
,,,,,,,,,,,,,,,,,
,,,,,,,,,,,,,,,,,
,,,,,,,,,,,,,,,,,
,,,,,,,,,,,,,,,,,
,,,,,,,,,,,,,,,,,
,,,,,,,,,,,,,,,,,
,,,,,,,,,,,,,,,,,
,,,,,,,,,,,,,,,,,
,,,,,,,,,,,,,,,,,
,,,,,,,,,,,,,,,,,
,,,,,,,,,,,,,,,,,
,,,,,,,,,,,,,,,,,
,,,,,,,,,,,,,,,,,
,,,,,,,,,,,,,,,,,
,,,,,,,,,,,,,,,,,
,,,,,,,,,,,,,,,,,
,,,,,,,,,,,,,,,,,
,,,,,,,,,,,,,,,,,
,,,,,,,,,,,,,,,,,
,,,,,,,,,,,,,,,,,
,,,,,,,,,,,,,,,,,
,,,,,,,,,,,,,,,,,
,,,,,,,,,,,,,,,,,
,,,,,,,,,,,,,,,,,
,,,,,,,,,,,,,,,,,
,,,,,,,,,,,,,,,,,
,,,,,,,,,,,,,,,,,
,,,,,,,,,,,,,,,,,
,,,,,,,,,,,,,,,,,
,,,,,,,,,,,,,,,,,
,,,,,,,,,,,,,,,,,
,,,,,,,,,,,,,,,,,
,,,,,,,,,,,,,,,,,
,,,,,,,,,,,,,,,,,
,,,,,,,,,,,,,,,,,
,,,,,,,,,,,,,,,,,
,,,,,,,,,,,,,,,,,
,,,,,,,,,,,,,,,,,
,,,,,,,,,,,,,,,,,
,,,,,,,,,,,,,,,,,
,,,,,,,,,,,,,,,,,
,,,,,,,,,,,,,,,,,
,,,,,,,,,,,,,,,,,
,,,,,,,,,,,,,,,,,
,,,,,,,,,,,,,,,,,
,,,,,,,,,,,,,,,,,
,,,,,,,,,,,,,,,,,
,,,,,,,,,,,,,,,,,
,,,,,,,,,,,,,,,,,
,,,,,,,,,,,,,,,,,
,,,,,,,,,,,,,,,,,
,,,,,,,,,,,,,,,,,
,,,,,,,,,,,,,,,,,
,,,,,,,,,,,,,,,,,
,,,,,,,,,,,,,,,,,
,,,,,,,,,,,,,,,,,
,,,,,,,,,,,,,,,,,
,,,,,,,,,,,,,,,,,
,,,,,,,,,,,,,,,,,
,,,,,,,,,,,,,,,,,
,,,,,,,,,,,,,,,,,
,,,,,,,,,,,,,,,,,
,,,,,,,,,,,,,,,,,
,,,,,,,,,,,,,,,,,
,,,,,,,,,,,,,,,,,
,,,,,,,,,,,,,,,,,
,,,,,,,,,,,,,,,,,
,,,,,,,,,,,,,,,,,
,,,,,,,,,,,,,,,,,
,,,,,,,,,,,,,,,,,
,,,,,,,,,,,,,,,,,
,,,,,,,,,,,,,,,,,
,,,,,,,,,,,,,,,,,
,,,,,,,,,,,,,,,,,
,,,,,,,,,,,,,,,,,
,,,,,,,,,,,,,,,,,
,,,,,,,,,,,,,,,,,
,,,,,,,,,,,,,,,,,
,,,,,,,,,,,,,,,,,
,,,,,,,,,,,,,,,,,
,,,,,,,,,,,,,,,,,
,,,,,,,,,,,,,,,,,
,,,,,,,,,,,,,,,,,
,,,,,,,,,,,,,,,,,
,,,,,,,,,,,,,,,,,
,,,,,,,,,,,,,,,,,
,,,,,,,,,,,,,,,,,
,,,,,,,,,,,,,,,,,
,,,,,,,,,,,,,,,,,
,,,,,,,,,,,,,,,,,
,,,,,,,,,,,,,,,,,
,,,,,,,,,,,,,,,,,
,,,,,,,,,,,,,,,,,
,,,,,,,,,,,,,,,,,
,,,,,,,,,,,,,,,,,
,,,,,,,,,,,,,,,,,
,,,,,,,,,,,,,,,,,
,,,,,,,,,,,,,,,,,
,,,,,,,,,,,,,,,,,
,,,,,,,,,,,,,,,,,
,,,,,,,,,,,,,,,,,
,,,,,,,,,,,,,,,,,
,,,,,,,,,,,,,,,,,
,,,,,,,,,,,,,,,,,
,,,,,,,,,,,,,,,,,
,,,,,,,,,,,,,,,,,
,,,,,,,,,,,,,,,,,
,,,,,,,,,,,,,,,,,
,,,,,,,,,,,,,,,,,
,,,,,,,,,,,,,,,,,
,,,,,,,,,,,,,,,,,
,,,,,,,,,,,,,,,,,
,,,,,,,,,,,,,,,,,
,,,,,,,,,,,,,,,,,
,,,,,,,,,,,,,,,,,
,,,,,,,,,,,,,,,,,
,,,,,,,,,,,,,,,,,
,,,,,,,,,,,,,,,,,
,,,,,,,,,,,,,,,,,
,,,,,,,,,,,,,,,,,
,,,,,,,,,,,,,,,,,
,,,,,,,,,,,,,,,,,
,,,,,,,,,,,,,,,,,
,,,,,,,,,,,,,,,,,
,,,,,,,,,,,,,,,,,
,,,,,,,,,,,,,,,,,
,,,,,,,,,,,,,,,,,
,,,,,,,,,,,,,,,,,
,,,,,,,,,,,,,,,,,
,,,,,,,,,,,,,,,,,
,,,,,,,,,,,,,,,,,
,,,,,,,,,,,,,,,,,
,,,,,,,,,,,,,,,,,
,,,,,,,,,,,,,,,,,
,,,,,,,,,,,,,,,,,
,,,,,,,,,,,,,,,,,
,,,,,,,,,,,,,,,,,
,,,,,,,,,,,,,,,,,
,,,,,,,,,,,,,,,,,
,,,,,,,,,,,,,,,,,
,,,,,,,,,,,,,,,,,
,,,,,,,,,,,,,,,,,
,,,,,,,,,,,,,,,,,
,,,,,,,,,,,,,,,,,
,,,,,,,,,,,,,,,,,
,,,,,,,,,,,,,,,,,
,,,,,,,,,,,,,,,,,
,,,,,,,,,,,,,,,,,
,,,,,,,,,,,,,,,,,
,,,,,,,,,,,,,,,,,
,,,,,,,,,,,,,,,,,
,,,,,,,,,,,,,,,,,
,,,,,,,,,,,,,,,,,
,,,,,,,,,,,,,,,,,
,,,,,,,,,,,,,,,,,
,,,,,,,,,,,,,,,,,
,,,,,,,,,,,,,,,,,
,,,,,,,,,,,,,,,,,
,,,,,,,,,,,,,,,,,
,,,,,,,,,,,,,,,,,
,,,,,,,,,,,,,,,,,
,,,,,,,,,,,,,,,,,
,,,,,,,,,,,,,,,,,
,,,,,,,,,,,,,,,,,
,,,,,,,,,,,,,,,,,
,,,,,,,,,,,,,,,,,
,,,,,,,,,,,,,,,,,
,,,,,,,,,,,,,,,,,
,,,,,,,,,,,,,,,,,
,,,,,,,,,,,,,,,,,
,,,,,,,,,,,,,,,,,
,,,,,,,,,,,,,,,,,
,,,,,,,,,,,,,,,,,
,,,,,,,,,,,,,,,,,
,,,,,,,,,,,,,,,,,
,,,,,,,,,,,,,,,,,
,,,,,,,,,,,,,,,,,
,,,,,,,,,,,,,,,,,
,,,,,,,,,,,,,,,,,
,,,,,,,,,,,,,,,,,
,,,,,,,,,,,,,,,,,
,,,,,,,,,,,,,,,,,
,,,,,,,,,,,,,,,,,
,,,,,,,,,,,,,,,,,
,,,,,,,,,,,,,,,,,
,,,,,,,,,,,,,,,,,
,,,,,,,,,,,,,,,,,
,,,,,,,,,,,,,,,,,
,,,,,,,,,,,,,,,,,
,,,,,,,,,,,,,,,,,
,,,,,,,,,,,,,,,,,
